FID,the_geom,OBJECTID_1,OBJECTID,WNO,ZONE_NAME,REGION_12,DIST_ID,VDC_ID,DISTRICTS,VDC_CODE,VDC,DISVDCODE,P_CODE,X,Y,DISTRICT,VDC_NAME,P_CODEV,Market,Wardno,Damage,Recovery,Phyacces,Tranflow,Wholesal,Timfrwho,Traderno,building,comodity,Suffice,Capacity,Avgsalric,Avgsalent,Avgsaloil,Pricrice,Pricoil,Priclnt,Bankfin,credcop,Remagebt,Tel,Police,Wagrate,PCODEW,Mrktsze
market_centers_eq_districts0.1,POINT (86.10269927984797 27.779499054038183),1,8742,1,Janakpur,Central,22,002,Dolakha,2,Babare,220002,C-JAN-22-002-01,86.1027,27.7795,Dolakha,Babare,C-JAN-22-002,Nikobhumi/Prithi bazzar,1,1,2,3,3,Singati/Charikot,1,45,2,"Rice, Sugar, Salt, oil, Soap, Junk food",2,3,120,7,10,70,300,280,2,1,2,1,2,0,C-JAN-22-002-01,1
market_centers_eq_districts0.2,POINT (86.0330963130445 27.54260063171381),2,8758,8,Janakpur,Central,22,003,Dolakha,3,Bhedapu,220003,C-JAN-22-003-08,86.0331,27.5426,Dolakha,Bhedapu,C-JAN-22-003,Pokhari,8,1,2,3,3,Bhaise,1,3,2,,0,0,0,0,0,0,0,0,0,0,0,0,0,0,C-JAN-22-003-08,3
market_centers_eq_districts0.3,POINT (86.1433029174957 27.806999206148475),3,8843,8,Janakpur,Central,22,012,Dolakha,12,Chilankha,220012,C-JAN-22-012-08,86.1433,27.807,Dolakha,Chilankha,C-JAN-22-012,Sanba/Sorungkhola,8,1,2,4,3,,0,25,0,,0,0,0,0,0,0,0,0,0,0,0,0,0,0,C-JAN-22-012-08,1
market_centers_eq_districts0.4,POINT (86.09850311242877 27.549600601086922),4,8905,7,Janakpur,Central,22,021,Dolakha,21,Japhe,220021,C-JAN-22-021-07,86.0985,27.5496,Dolakha,Japhe,C-JAN-22-021,dunde/chaude,7,1,2,2,2,Charikot/milti,1,35,2,"Rice, Lentil, Sugar, Salt, soap, Junk food",2,2,350,50,30,65,280,230,2,1,2,1,1,0,C-JAN-22-021-07,1
market_centers_eq_districts0.5,POINT (86.24009704554226 27.604099273362806),5,8930,5,Janakpur,Central,22,024,Dolakha,24,Jiri,220024,C-JAN-22-024-05,86.2401,27.6041,Dolakha,Jiri,C-JAN-22-024,Dhunge/lincon Bazzar,5,1,2,1,1,Banepa/Charikot/Manthali,1,30,2,"Rice, Lentil, Salt, Soap, vegetable, Junck food, Sugar, Tea, Clothes, hardwere etc.",2,2,450,50,60,62,215,220,1,1,1,1,1,0,C-JAN-22-024-05,1
market_centers_eq_districts0.6,POINT (86.13919830285943 27.64730072055187),6,8946,3,Janakpur,Central,22,026,Dolakha,26,Kabhre,220026,C-JAN-22-026-03,86.1392,27.6473,Dolakha,Kabhre,C-JAN-22-026,Mainapokhari,3,3,2,1,1,Manthali/Banepa/Charikot,1,12,3,"Rice, Oil, Lentil, Salt, Sugar, Tea, Junk food, Tea, Hardwere, clothes etc.",2,1,180,50,18,60,200,210,1,1,1,1,1,0,C-JAN-22-026-03,2
market_centers_eq_districts0.7,POINT (85.98619842561692 27.636299133198463),7,8969,8,Janakpur,Central,22,028,Dolakha,28,Katakuti,220028,C-JAN-22-028-08,85.9862,27.6363,Dolakha,Katakuti,C-JAN-22-028,Magadeurali,8,3,2,3,2,Banepa,1,15,2,"Rice, Oil, Lentil, Salt, Sugar, Tea, Junk food, Tea, Hardwere, Clothes etc.",2,2,300,60,25,65,280,270,1,1,1,1,1,0,C-JAN-22-028-08,3
market_centers_eq_districts0.8,POINT (86.09449768042367 27.81979942320487),8,8987,8,Janakpur,Central,22,030,Dolakha,30,Khopachagu,220030,C-JAN-22-030-08,86.0945,27.8198,Dolakha,Khopachagu,C-JAN-22-030,Sanba/Sorungkhola,8,1,2,4,3,Singati,1,25,2,"Rice, Lentil, Oil, Salt, Junk food, Sugar, Soap, Tea",2,3,0,5,7,0,360,0,2,1,2,1,1,0,C-JAN-22-030-08,1
market_centers_eq_districts0.9,POINT (86.17330169651615 27.763099670113718),9,8995,7,Janakpur,Central,22,031,Dolakha,31,Laduk,220031,C-JAN-22-031-07,86.1733,27.7631,Dolakha,Laduk,C-JAN-22-031,Singati,7,1,2,2,2,Charikot/Banepa,1,15,2,"Rice, Lentil, Salt, Soap, vegetable, Junck food, Sugar, Tea, Clothes, Hardwere etc.",2,3,150,30,20,70,180,260,1,1,1,1,1,0,C-JAN-22-031-07,2
market_centers_eq_districts0.10,POINT (85.94969940170608 27.706800460672753),10,9005,8,Janakpur,Central,22,032,Dolakha,32,Lakuridanda,220032,C-JAN-22-032-08,85.9497,27.7068,Dolakha,LakuriDada,C-JAN-22-032,kharidhunga/aahaldada,8,1,2,1,2,Banepa/mude,1,50,2,"Rice, Lentil, Salt, Soap, vegetable, Junck food, Sugar, Tea, Clothes, Hardwere etc.",2,2,3500,100,200,60,280,150,2,1,2,1,1,0,C-JAN-22-032-08,1
market_centers_eq_districts0.11,POINT (86.21430206288994 27.828899383299927),11,9014,8,Janakpur,Central,22,033,Dolakha,33,Lamabagar,220033,C-JAN-22-033-08,86.2143,27.8289,Dolakha,Lamabagar,C-JAN-22-033,Jagat,8,1,2,3,3,Singati,1,5,2,"Rice, Sugar, Salt, oil, Soap, Junk food",2,3,60,5,10,70,300,300,2,1,2,1,1,0,C-JAN-22-033-08,3
market_centers_eq_districts0.12,POINT (86.15940093950184 27.737600326094253),12,9021,6,Janakpur,Central,22,034,Dolakha,34,Lamidanda,220034,C-JAN-22-034-06,86.1594,27.7376,Dolakha,Lamidada,C-JAN-22-034,Singati,6,1,2,2,2,Charikot/Banepa,1,12,2,"Rice, Lentil, Salt, Soap, vegetable, Junck food, Sugar, Tea,Clothes, Hardwere etc.",2,3,180,15,30,70,180,260,1,1,1,1,1,0,C-JAN-22-034-06,2
market_centers_eq_districts0.13,POINT (86.11070251490918 27.74699974064555),13,9028,4,Janakpur,Central,22,035,Dolakha,35,Lapilang,220035,C-JAN-22-035-04,86.1107,27.747,Dolakha,Lapilang,C-JAN-22-035,Bhimsenthan,4,1,2,2,2,Chariko/Singati,1,25,2,"Rice, Sugar, Salt, oil, Soap, Junk food",2,2,6000,15,200,57,350,230,2,1,2,1,2,0,C-JAN-22-035-04,1
market_centers_eq_districts0.14,POINT (85.9694976806735 27.655099868863886),14,9034,1,Janakpur,Central,22,036,Dolakha,36,Magapauwa,220036,C-JAN-22-036-01,85.9695,27.6551,Dolakha,Magapauwa,C-JAN-22-036,Lamche aahal,1,2,1,2,2,Banepa/mude,1,40,2,"Rice, salt, lentil, junk food, soap, sugar",2,2,1400,200,400,65,270,240,2,1,1,1,1,0,C-JAN-22-036-01,1
market_centers_eq_districts0.15,POINT (86.11239624049415 27.517299652057375),15,9047,5,Janakpur,Central,22,038,Dolakha,38,Malu,220038,C-JAN-22-038-05,86.1124,27.5173,Dolakha,Malu,C-JAN-22-038,Dandagaun/malukhola,5,2,2,2,2,Banepa/Charikot,1,11,2,"Rice, salt, lentil, junk food, soap, sugar",2,22,400,50,80,65,260,230,2,1,2,1,2,0,C-JAN-22-038-05,2
market_centers_eq_districts0.16,POINT (86.0987014767918 27.6294002530193),16,9089,2,JANAKPUR,,22,042,Dolakha,42,Namdu,220042,C-JAN-22-042-02,86.0987,27.6294,Dolakha,Namdu,C-JAN-22-042,Namdu/Baiteshwor,2,3,2,1,2,Charikot,1,7,2,"rice, lentil, tea, junk food, soap, sugar, salt",2,2,90,5,8,65,270,260,1,1,2,1,2,500,C-JAN-22-042-02,2
market_centers_eq_districts0.17,POINT (86.05400085435599 27.581300735540538),17,9114,9,Janakpur,Central,22,044,Dolakha,44,Pawati,220044,C-JAN-22-044-09,86.054,27.5813,Dolakha,Pawati,C-JAN-22-044,Rukheni,9,1,2,3,3,Bhaise,1,12,2,"rice, lentil, tea, junk food, soap, sugar, salt, cement, CGI",2,1,150,7,20,65,270,260,2,1,2,1,2,0,C-JAN-22-044-09,3
market_centers_eq_districts0.18,POINT (85.99299621570287 27.597600936833828),18,9123,9,Janakpur,Central,22,016,Dolakha,16,Fasku,220016,C-JAN-22-016-09,85.993,27.5976,Dolakha,Fasku,C-JAN-22-016,Dhunge/Gothpani,9,1,2,3,3,Banepa/Kathmandu,1,16,2,"Rice, Lentil, Sugar, Salt, Tea, Vegetable, Soap, Detergent, Junk food, Clothes, Hardwere, Spices etc",1,1,180,20,30,65,270,270,2,1,2,1,2,0,C-JAN-22-016-09,3
market_centers_eq_districts0.19,POINT (86.10919952383904 27.500099181731912),19,9127,4,Janakpur,Central,22,045,Dolakha,45,Sahare,220045,C-JAN-22-045-04,86.1092,27.5001,Dolakha,Sahare,C-JAN-22-045,Kirne,4,2,2,1,2,bardibas/charikot,1,5,2,"Rice, lentil, oil, salt, soap, clothes, hardwere, junk food, vegetable.",2,1,60,10,15,63,190,210,1,1,1,2,1,0,C-JAN-22-045-04,2
market_centers_eq_districts0.20,POINT (86.02140045176947 27.57889938379958),20,9137,5,Janakpur,Central,22,046,Dolakha,46,Sailungeswor,220046,C-JAN-22-046-05,86.0214,27.5789,Dolakha,Sailungeswor,C-JAN-22-046,Bhaise/Jhore,5,1,2,2,2,Bardibas,1,40,2,"Rice, Lentil, Oil, Salt, Sugar, Tea, Clothes, Hardwere, Vegetable etc.",2,2,10000,500,600,65,200,220,2,1,1,1,1,0,C-JAN-22-046-05,1
market_centers_eq_districts0.21,POINT (86.07209777789018 27.712200164705905),21,9148,7,Janakpur,Central,22,048,Dolakha,48,Sundrawati,220048,C-JAN-22-048-07,86.0721,27.7122,Dolakha,Sundrawati,C-JAN-22-048,Katuwachaur,7,1,2,2,2,Charikot,1,25,2,"Rice, Salt, lentil, Sugar, Fency, Oil, vegetable.",2,2,90,15,20,55,250,200,2,1,2,1,2,0,C-JAN-22-048-07,1
market_centers_eq_districts0.22,POINT (86.08899688719663 27.705999374271755),22,9156,6,Janakpur,Central,22,047,Dolakha,47,Sunkhani,220047,C-JAN-22-047-06,86.089,27.706,Dolakha,Sunkhani,C-JAN-22-047,Soti/Bhadaure,6,1,2,2,2,Banepa/Soti,1,10,2,"Rice, Salt, lentil, Sugar, Fency, Oil, vegetable, hardwere",2,2,600,30,60,60,240,210,2,1,1,1,2,0,C-JAN-22-047-06,2
market_centers_eq_districts0.23,POINT (85.89540100125527 27.61380004893317),23,9194,8,Janakpur,Central,22,015,Dolakha,15,Tamchet Dudhpokhari,220015,C-JAN-22-015-08,85.8954,27.6138,Dolakha,Dudhpokhari,C-JAN-22-015,"Kallabari, dudhpokhari",8,3,3,3,3,Banepa/mude,1,13,2,"rice, lentil,oil, salt, sugar",2,2,200,20,40,55,250,230,2,1,2,1,2,0,C-JAN-22-015-08,3
market_centers_eq_districts0.24,POINT (85.8803024291139 27.66390037540208),24,9207,3,Bagmati,Central,23,001,Sindhupalchok,1,Atarpur,230001,C-BAG-23-001-03,85.8803,27.6639,Sindhupalchok,Atarpur,C-BAG-23-001,Ghangdanda,3,1,2,2,3,Banepa,1,5,2,"Rice,Oil,Lentil,Salt shop,etc",2,1,200,50,10,50,230,230,2,1,2,1,2,500,C-BAG-23-001-03,2
market_centers_eq_districts0.25,POINT (85.61209869359988 27.79330062842132),25,9222,9,Bagmati,Central,23,002,Sindhupalchok,2,Badegau,230002,C-BAG-23-002-09,85.6121,27.7933,Sindhupalchok,Badegau,C-BAG-23-002,Aisanlukharka,9,1,2,3,3,Banepa,1,5,2,"Rice,Oil,Lentil,Salt shop,etc",2,3,100,40,15,51,240,230,2,1,2,1,2,500,C-BAG-23-002-09,3
market_centers_eq_districts0.26,POINT (85.5708007811312 27.79000091511017),26,9224,2,Bagmati,Central,23,003,Sindhupalchok,3,Bansbari,230003,C-BAG-23-003-02,85.5708,27.79,Sindhupalchok,Bansbari,C-BAG-23-003,Bahunepati,2,1,2,1,3,Banepa,1,15,2,"Rice,Oil,Lentil,Salt shop,etc",2,1,200,20,50,53,240,230,2,1,1,1,2,500,C-BAG-23-003-02,2
market_centers_eq_districts0.27,POINT (85.6055984496088 27.881200790584046),27,9237,6,Bagmati,Central,23,004,Sindhupalchok,4,Banskharka,230004,C-BAG-23-004-06,85.6056,27.8812,Sindhupalchok,Banskharka,C-BAG-23-004,Newargau,6,1,2,3,3,Banepa,1,7,2,"Rice,Oil,Lentil,Salt shop,etc",2,2,200,15,20,50,240,230,2,1,2,1,2,500,C-BAG-23-004-06,3
market_centers_eq_districts0.28,POINT (85.76509857174176 27.8645992282718),28,9249,9,Bagmati,Central,23,005,Sindhupalchok,5,Baramchi,230005,C-BAG-23-005-09,85.7651,27.8646,Sindhupalchok,Baramchi,C-BAG-23-005,Chanaute,9,1,2,3,3,Banepa,1,10,2,"Rice,Oil,Lentil,Salt shop,etc",2,2,300,5,10,52,240,230,2,1,2,1,2,500,C-BAG-23-005-09,3
market_centers_eq_districts0.29,POINT (85.90579986567133 27.782499313792357),29,9258,9,Bagmati,Central,23,006,Sindhupalchok,6,Barhabise,230006,C-BAG-23-006-09,85.9058,27.7825,Sindhupalchok,Bahrabise,C-BAG-23-006,Barhabise,9,1,2,1,2,Banepa,1,15,2,"Rice,Oil,Lentil,Salt shop,etc",2,1,600,100,100,54,240,230,1,1,1,2,1,500,C-BAG-23-006-09,2
market_centers_eq_districts0.30,POINT (85.60880279521291 27.975299834819566),30,9260,2,Bagmati,Central,23,007,Sindhupalchok,7,Baruwa,230007,C-BAG-23-007-02,85.6088,27.9753,Sindhupalchok,Baruwa,C-BAG-23-007,Jatan,2,1,2,3,3,Banepa,1,5,2,"Rice,Oil,Lentil,Salt shop,etc",2,3,150,8,30,50,240,230,2,1,2,1,2,500,C-BAG-23-007-02,3
market_centers_eq_districts0.31,POINT (85.72499847440014 27.825500488256978),31,9270,3,Bagmati,Central,23,008,Sindhupalchok,8,Batase,230008,C-BAG-23-008-03,85.725,27.8255,Sindhupalchok,Batase,C-BAG-23-008,Dhungenidanda,3,1,2,3,3,Banepa,1,4,2,"Rice,Oil,Lentil,Salt shop,etc",2,2,400,10,15,52,240,230,2,1,2,1,2,500,C-BAG-23-008-03,3
market_centers_eq_districts0.32,POINT (85.64569854695043 27.744800567292373),32,9280,4,Bagmati,Central,23,009,Sindhupalchok,9,Bhimtar,230009,C-BAG-23-009-04,85.6457,27.7448,Sindhupalchok,Bhimtar,C-BAG-23-009,Bhimtar,4,1,2,2,2,Banepa,1,7,2,"Rice,Oil,Lentil,Salt shop,etc",2,2,300,10,20,52,240,230,2,1,2,1,1,500,C-BAG-23-009-04,2
market_centers_eq_districts0.33,POINT (85.65390014637472 27.977500915634778),33,9290,5,Bagmati,Central,23,049,Sindhupalchok,49,Bhotang,230049,C-BAG-23-049-05,85.6539,27.9775,Sindhupalchok,Bhotang,C-BAG-23-049,Chhimti,5,1,2,3,3,Banepa,1,4,2,"Rice,Oil,Lentil,Salt shop,etc",2,2,500,15,20,54,220,230,2,1,2,1,2,500,C-BAG-23-049-05,3
market_centers_eq_districts0.34,POINT (85.49810028120305 27.791799545712536),34,9295,1,Bagmati,Central,23,012,Sindhupalchok,12,Bhotechaur,230012,C-BAG-23-012-01,85.4981,27.7918,Sindhupalchok,Bhotechaur,C-BAG-23-012,Bhotechaur,1,1,2,3,2,Banepa,1,10,2,"Rice,Oil,Lentil,Salt shop,etc",2,2,300,21,10,50,240,230,2,1,2,1,1,500,C-BAG-23-012-01,3
market_centers_eq_districts0.35,POINT (85.62370300299125 27.89049911504219),35,9312,9,Bagmati,Central,23,011,Sindhupalchok,11,Bhote Namlang,230011,C-BAG-23-011-09,85.6237,27.8905,Sindhupalchok,BhoteNamlang,C-BAG-23-011,Tipani,9,1,2,2,3,Banepa,1,7,2,"Rice,Oil,Lentil,Salt shop,etc",2,2,400,9,15,52,240,230,2,1,2,1,1,500,C-BAG-23-011-09,2
market_centers_eq_districts0.36,POINT (85.65599822963463 27.762800216556798),36,9316,4,Bagmati,Central,23,010,Sindhupalchok,10,Bhotasipa,230010,C-BAG-23-010-04,85.656,27.7628,Sindhupalchok,Bhotasipa,C-BAG-23-010,Badahare,4,1,2,2,3,Banepa,1,5,2,"Rice,Oil,Lentil,Salt shop,etc",2,2,200,14,20,50,240,230,2,1,2,1,2,500,C-BAG-23-010-04,2
market_centers_eq_districts0.37,POINT (85.71209716814985 27.774599075387073),37,9329,8,Bagmati,Central,23,014,Sindhupalchok,14,Chautara,230014,C-BAG-23-014-08,85.7121,27.7746,Sindhupalchok,Choutara,C-BAG-23-014,Chautara,8,1,2,1,2,Banepa,1,20,3,"Rice,Oil,Lentil,Salt shop,etc",2,1,300,10,50,50,235,230,1,1,1,2,1,500,C-BAG-23-014-08,2
market_centers_eq_districts0.38,POINT (85.96009826702146 27.75679969794777),38,9333,3,Bagmati,Central,23,013,Sindhupalchok,13,Chokati,230013,C-BAG-23-013-03,85.9601,27.7568,Sindhupalchok,Choukati,C-BAG-23-013,Chokati,3,1,2,3,3,Banepa,1,4,2,"Rice,Oil,Lentil,Salt shop,etc",2,3,600,7,10,54,240,230,2,1,2,1,2,500,C-BAG-23-013-03,3
market_centers_eq_districts0.39,POINT (85.90339660646828 27.77319908097286),39,9348,9,Bagmati,Central,23,023,Sindhupalchok,23,Dhuskun,230023,C-BAG-23-023-09,85.9034,27.7732,Sindhupalchok,Ghuskun,C-BAG-23-023,Sunkoshi,9,1,2,3,3,Banepa,1,4,2,"Rice,Oil,Lentil,Salt shop,etc",2,2,300,6,20,54,240,230,2,1,2,1,2,500,C-BAG-23-023-09,3
market_centers_eq_districts0.40,POINT (85.86399841289648 27.833999633776102),40,9356,8,Bagmati,Central,23,015,Sindhupalchok,15,Dhumthang,230015,C-BAG-23-015-08,85.864,27.834,Sindhupalchok,Ghumthang,C-BAG-23-015,Ghumthang,8,1,2,3,3,Banepa,1,3,2,"Rice,Oil,Lentil,Salt shop,etc",2,3,400,5,16,52,240,230,2,1,2,1,2,500,C-BAG-23-015-08,3
market_centers_eq_districts0.41,POINT (85.57330322296542 27.858900069782464),41,9359,2,Bagmati,Central,23,016,Sindhupalchok,16,Dubachour,230016,C-BAG-23-016-02,85.5733,27.8589,Sindhupalchok,Dubachour,C-BAG-23-016,Pokhare Bhanjeng,2,1,2,2,2,Banepa,1,7,2,"Rice,Oil,Lentil,Salt shop,etc",2,1,300,8,20,52,240,230,2,1,1,1,2,500,C-BAG-23-016-02,2
market_centers_eq_districts0.42,POINT (85.91239929229357 27.812299728449773),42,9370,4,Bagmati,Central,23,021,Sindhupalchok,21,Gati,230021,C-BAG-23-021-04,85.9124,27.8123,Sindhupalchok,Gati,C-BAG-23-021,Kaseri,4,1,2,2,3,Banepa,1,3,2,"Rice,Oil,Lentil,Salt shop,etc",2,3,300,9,40,55,240,230,2,1,2,1,2,500,C-BAG-23-021-04,3
market_centers_eq_districts0.43,POINT (85.99929809533091 27.815200805572772),43,9376,1,Bagmati,Central,23,022,Sindhupalchok,22,Ghorthali,230022,C-BAG-23-022-01,85.9993,27.8152,Sindhupalchok,Ghorthali,C-BAG-23-022,Dolangsa,1,1,2,3,3,Banepa,1,4,2,"Rice,Oil,Lentil,Salt shop,etc",2,2,400,5,10,56,240,230,2,1,2,1,2,500,C-BAG-23-022-01,3
market_centers_eq_districts0.44,POINT (85.48719787558156 27.81800079350188),44,9423,3,Bagmati,Central,23,028,Sindhupalchok,28,Haibung,230028,C-BAG-23-028-03,85.4872,27.818,Sindhupalchok,Haibung,C-BAG-23-028,Kauledovan,3,1,2,3,3,Banepa,1,3,2,"Rice,Oil,Lentil,Salt shop,etc",2,2,300,7,20,52,240,230,2,1,2,1,2,500,C-BAG-23-028-03,3
market_centers_eq_districts0.45,POINT (85.53389739954542 27.952100753347167),45,9430,1,Bagmati,Central,23,029,Sindhupalchok,29,Helambu,230029,C-BAG-23-029-01,85.5339,27.9521,Sindhupalchok,Helumbu,C-BAG-23-029,Timbu,1,1,2,3,3,Banepa,1,10,2,"Rice,Oil,Lentil,Salt shop,etc",2,2,400,9,30,55,240,230,2,2,2,1,2,500,C-BAG-23-029-01,3
market_centers_eq_districts0.46,POINT (85.5364990231115 27.90410041849958),46,9444,6,Bagmati,Central,23,030,Sindhupalchok,30,Ichok,230030,C-BAG-23-030-06,85.5365,27.9041,Sindhupalchok,Ichok,C-BAG-23-030,Chanaute,6,1,2,1,3,Banepa,1,11,2,"Rice,Oil,Lentil,Salt shop,etc",2,2,500,16,50,53,240,230,2,1,2,1,2,500,C-BAG-23-030-06,2
market_centers_eq_districts0.47,POINT (85.74079895031139 27.742399215551416),47,9452,5,Bagmati,Central,23,031,Sindhupalchok,31,Irkhu,230031,C-BAG-23-031-05,85.7408,27.7424,Sindhupalchok,Irkhu,C-BAG-23-031,Irkhu,5,1,2,1,2,Banepa,1,12,2,"Rice,Oil,Lentil,Salt shop,etc",2,2,300,7,20,50,240,230,2,1,2,1,2,500,C-BAG-23-031-05,2
market_centers_eq_districts0.48,POINT (85.773300171166 27.812200545818598),48,9460,4,Bagmati,Central,23,032,Sindhupalchok,32,Jalbire,230032,C-BAG-23-032-04,85.7733,27.8122,Sindhupalchok,Jalbire,C-BAG-23-032,Jalbire,4,1,2,1,2,Banepa,1,25,3,"Rice,Oil,Lentil,Salt shop,etc",2,1,600,12,30,50,240,230,1,1,2,1,1,500,C-BAG-23-032-04,1
market_centers_eq_districts0.49,POINT (85.92130279548769 27.69969940210575),49,9467,2,Bagmati,Central,23,033,Sindhupalchok,33,Jethal,230033,C-BAG-23-033-02,85.9213,27.6997,Sindhupalchok,Jethal,C-BAG-23-033,"Sikre, 21 Kilo",2,1,2,1,2,Banepa,1,4,2,"Rice,Oil,Lentil,Salt shop,etc",2,1,400,9,20,53,240,230,2,1,2,2,2,500,C-BAG-23-033-02,3
market_centers_eq_districts0.50,POINT (85.6019973752787 27.856500625503543),50,9480,6,Bagmati,Central,23,034,Sindhupalchok,34,Jyamire,230034,C-BAG-23-034-06,85.602,27.8565,Sindhupalchok,Jyamire,C-BAG-23-034,Kaflekhola,6,1,2,3,3,Banepa,1,3,2,"Rice,Oil,Lentil,Salt shop,etc",2,2,300,5,40,54,240,230,2,1,2,1,2,500,C-BAG-23-034-06,3
market_centers_eq_districts0.51,POINT (85.76200103771777 27.689100265864624),51,9493,1,Bagmati,Central,23,036,Sindhupalchok,36,Kalika,230036,C-BAG-23-036-01,85.762,27.6891,Sindhupalchok,Kalika,C-BAG-23-036,Puranakot,1,1,2,3,3,Banepa,1,6,2,"Rice,Oil,Lentil,Salt shop,etc",2,2,200,0,50,50,240,230,2,1,2,1,2,500,C-BAG-23-036-01,3
market_centers_eq_districts0.52,POINT (85.96109771688617 27.78440094015133),52,9504,3,Bagmati,Central,23,037,Sindhupalchok,37,Karthali,230037,C-BAG-23-037-03,85.9611,27.7844,Sindhupalchok,Karthali,C-BAG-23-037,Budhepa,3,2,2,3,3,Banepa,1,10,2,"Rice,Oil,Lentil,Salt shop,etc",2,2,300,0,50,54,240,230,2,1,2,1,2,500,C-BAG-23-037-03,3
market_centers_eq_districts0.53,POINT (85.57099914549423 27.940900802530052),53,9519,9,Bagmati,Central,23,038,Sindhupalchok,38,Kiwool,230038,C-BAG-23-038-09,85.571,27.9409,Sindhupalchok,Kiwool,C-BAG-23-038,Baspark,9,1,2,3,3,Banepa,1,10,2,"Rice,Oil,Lentil,Salt shop,etc",2,1,490,5,40,53,240,230,2,1,2,1,2,500,C-BAG-23-038-09,3
market_centers_eq_districts0.54,POINT (85.7591018680568 27.774400711024043),54,9526,7,Bagmati,Central,23,039,Sindhupalchok,39,Kubhinde,230039,C-BAG-23-039-07,85.7591,27.7744,Sindhupalchok,Kubhinde,C-BAG-23-039,Kubinde,7,1,2,2,3,Banepa,1,3,2,"Rice,Oil,Lentil,Salt shop,etc",2,1,350,8,45,52,240,230,2,1,2,2,1,500,C-BAG-23-039-07,3
market_centers_eq_districts0.55,POINT (85.65239715620385 27.793699264609415),55,9530,2,Bagmati,Central,23,040,Sindhupalchok,40,Kunchok,230040,C-BAG-23-040-02,85.6524,27.7937,Sindhupalchok,Kunchok,C-BAG-23-040,Bahunebeshi,2,1,2,3,2,Banepa,1,2,2,"Rice,Oil,Lentil,Salt shop,etc",2,2,350,10,60,50,240,230,2,1,2,1,2,500,C-BAG-23-040-02,3
market_centers_eq_districts0.56,POINT (85.65789794943089 27.855499267277423),56,9543,6,Bagmati,Central,23,041,Sindhupalchok,41,Langarche,230041,C-BAG-23-041-06,85.6579,27.8555,Sindhupalchok,Lagarche,C-BAG-23-041,Tipani,6,1,2,3,3,Banepa,1,3,2,"Rice,Oil,Lentil,Salt shop,etc",2,2,250,8,70,52,240,230,2,1,2,1,2,500,C-BAG-23-041-06,3
market_centers_eq_districts0.57,POINT (85.82450103759288 27.666500091506066),57,9548,2,Bagmati,Central,23,042,Sindhupalchok,42,Lisankhu,230042,C-BAG-23-042-02,85.8245,27.6665,Sindhupalchok,Lisankhu,C-BAG-23-042,Lisankhu,2,1,2,3,3,Banepa,1,6,2,"Rice,Oil,Lentil,Salt shop,etc",2,1,400,12,60,55,240,230,2,1,2,1,1,500,C-BAG-23-042-02,3
market_centers_eq_districts0.58,POINT (85.52790069586047 27.87569999735706),58,9565,1,Bagmati,Central,23,044,Sindhupalchok,44,Mahankal,230044,C-BAG-23-044-01,85.5279,27.8757,Sindhupalchok,Mahankal,C-BAG-23-044,Gaylthum,1,1,2,2,2,Banepa,1,4,2,"Rice,Oil,Lentil,Salt shop,etc",2,1,200,20,50,55,240,230,2,1,1,2,2,500,C-BAG-23-044-01,3
market_centers_eq_districts0.59,POINT (85.86979675311773 27.819700241473015),59,9582,9,Bagmati,Central,23,045,Sindhupalchok,45,Maneswnara,230045,C-BAG-23-045-09,85.8698,27.8197,Sindhupalchok,Maneswor,C-BAG-23-045,Golmathan,9,1,2,3,2,Banepa,1,3,2,"Rice,Oil,Lentil,Salt shop,etc",2,2,300,5,40,53,240,230,2,1,1,1,2,500,C-BAG-23-045-09,3
market_centers_eq_districts0.60,POINT (85.83869934070208 27.761199951216838),60,9588,6,Bagmati,Central,23,046,Sindhupalchok,46,Mankha,230046,C-BAG-23-046-06,85.8387,27.7612,Sindhupalchok,Mankha,C-BAG-23-046,Khadichaur,6,1,2,1,2,Banepa,1,5,3,"Rice,Oil,Lentil,Salt shop,etc",2,2,500,4,20,55,240,230,1,1,1,1,1,500,C-BAG-23-046-06,2
market_centers_eq_districts0.61,POINT (85.57409667951822 27.819000244265908),61,9606,6,Bagmati,Central,23,048,Sindhupalchok,48,Melamchi,230048,C-BAG-23-048-06,85.5741,27.819,Sindhupalchok,Melamchi,C-BAG-23-048,"Melamchi,",6,1,2,1,2,Banepa,1,15,3,"Rice,Oil,Lentil,Salt shop,etc",2,1,400,7,40,53,240,230,1,1,1,2,1,500,C-BAG-23-048-06,2
market_centers_eq_districts0.62,POINT (85.6287994385433 27.83250045763009),62,9616,7,Bagmati,Central,23,050,Sindhupalchok,50,Nawalpur,230050,C-BAG-23-050-07,85.6288,27.8325,Sindhupalchok,Nawalpur,C-BAG-23-050,Nawalpur,7,1,2,2,2,Banepa,1,15,3,"Rice,Oil,Lentil,Salt shop,etc",2,1,550,12,10,52,240,230,2,1,1,1,1,500,C-BAG-23-050-07,2
market_centers_eq_districts0.63,POINT (85.55269622774875 27.87999916053286),63,9620,2,Bagmati,Central,23,052,Sindhupalchok,52,Palchok,230052,C-BAG-23-052-02,85.5527,27.88,Sindhupalchok,Palchok,C-BAG-23-052,Palchok Mandir,2,1,2,3,3,Banepa,1,4,2,"Rice,Oil,Lentil,Salt shop,etc",2,2,300,10,6,56,240,230,2,1,2,1,2,500,C-BAG-23-052-02,3
market_centers_eq_districts0.64,POINT (85.8538970945753 27.745000839117495),64,9631,4,Bagmati,Central,23,051,Sindhupalchok,51,Pagretar,230051,C-BAG-23-051-04,85.8539,27.745,Sindhupalchok,Pagretar,C-BAG-23-051,Khadichaur,4,1,2,3,2,Banepa,1,12,2,"Rice,Oil,Lentil,Salt shop,etc",2,2,350,15,5,52,240,230,2,1,1,1,2,500,C-BAG-23-051-04,3
market_centers_eq_districts0.65,POINT (85.78029632561498 27.886800765542944),65,9637,1,Bagmati,Central,23,053,Sindhupalchok,53,Pangtang,230053,C-BAG-23-053-01,85.7803,27.8868,Sindhupalchok,Pangtang,C-BAG-23-053,Katikke,1,1,2,3,3,Banepa,1,10,2,"Rice,Oil,Lentil,Salt shop,etc",2,1,450,9,8,55,240,230,2,1,2,1,2,500,C-BAG-23-053-01,3
market_centers_eq_districts0.66,POINT (85.58450317378248 27.767200469825866),66,9659,5,Bagmati,Central,23,017,Sindhupalchok,17,Fatakshila,230017,C-BAG-23-017-05,85.5845,27.7672,Sindhupalchok,Fatakshila,C-BAG-23-017,Sipaghat,5,1,2,1,3,Banepa,1,3,3,"Rice,Oil,Lentil,Salt shop,etc",2,2,600,5,20,52,240,230,1,1,1,1,2,500,C-BAG-23-017-05,3
market_centers_eq_districts0.67,POINT (85.92680358871473 27.903999328406314),67,9667,4,Bagmati,Central,23,019,Sindhupalchok,19,Fulpingkatti,230019,C-BAG-23-019-04,85.9268,27.904,Sindhupalchok,Fulpingkatti,C-BAG-23-019,Hindi 104 Kilo,4,1,2,1,3,Banepa,1,2,2,"Rice,Oil,Lentil,Salt shop,etc",2,2,500,8,30,53,240,230,2,1,2,1,2,500,C-BAG-23-019-04,3
market_centers_eq_districts0.68,POINT (85.8057022093895 27.783199310100144),68,9678,6,Bagmati,Central,23,020,Sindhupalchok,20,Fulpingkot,230020,C-BAG-23-020-06,85.8057,27.7832,Sindhupalchok,Fulpingkot,C-BAG-23-020,Dhuskot,6,1,2,2,3,Banepa,1,3,2,"Rice,Oil,Lentil,Salt shop,etc",2,2,500,10,30,55,240,230,2,1,2,1,2,500,C-BAG-23-020-06,3
market_centers_eq_districts0.69,POINT (85.68620300286636 27.779600143232074),69,9684,3,Bagmati,Central,23,055,Sindhupalchok,55,Pipaldanda,230055,C-BAG-23-055-03,85.6862,27.7796,Sindhupalchok,Pipaldada,C-BAG-23-055,pipaldanda,3,1,2,2,2,Banepa,1,2,2,"Rice,Oil,Lentil,Salt shop,etc",2,1,200,15,20,53,240,230,2,1,1,1,2,500,C-BAG-23-055-03,3
market_centers_eq_districts0.70,POINT (85.92269897497778 27.739299774065387),70,9697,7,Bagmati,Central,23,056,Sindhupalchok,56,Piskar,230056,C-BAG-23-056-07,85.9227,27.7393,Sindhupalchok,Piskar,C-BAG-23-056,Piskar,7,1,2,2,3,Banepa,1,10,2,"Rice,Oil,Lentil,Salt shop,etc",2,2,300,8,10,55,240,230,2,1,2,1,1,500,C-BAG-23-056-07,2
market_centers_eq_districts0.71,POINT (85.78720092818037 27.737899780550492),71,9708,9,Bagmati,Central,23,018,Sindhupalchok,18,Fulpingdanda,230018,C-BAG-23-018-09,85.7872,27.7379,Sindhupalchok,Fulpingdandagau,C-BAG-23-018,Balephi,9,1,2,1,2,Banepa,1,6,3,"Rice,Oil,Lentil,Salt shop,etc",2,2,400,6,10,51,240,230,2,1,2,1,1,500,C-BAG-23-018-09,2
market_centers_eq_districts0.72,POINT (85.85959625216537 27.781299591203208),72,9712,4,Bagmati,Central,23,057,Sindhupalchok,57,Ramche,230057,C-BAG-23-057-04,85.8596,27.7813,Sindhupalchok,Ramche,C-BAG-23-057,Golmathang,4,1,2,3,3,Banepa,1,6,2,"Rice,Oil,Lentil,Salt shop,etc",2,1,450,20,18,54,240,230,2,1,1,1,2,500,C-BAG-23-057-04,3
market_centers_eq_districts0.73,POINT (85.70659637492281 27.70470046995075),73,9721,4,Bagmati,Central,23,058,Sindhupalchok,58,Sangachok,230058,C-BAG-23-058-04,85.7066,27.7047,Sindhupalchok,Sangachok,C-BAG-23-058,Sangachok,4,1,2,1,2,Banepa,1,3,2,"Rice,Oil,Lentil,Salt shop,etc",2,1,250,25,20,52,240,230,1,1,1,2,1,500,C-BAG-23-058-04,3
market_centers_eq_districts0.74,POINT (85.71459960908476 27.752700805697657),74,9735,9,Bagmati,Central,23,059,Sindhupalchok,59,Sanusiruwari,230059,C-BAG-23-059-09,85.7146,27.7527,Sindhupalchok,Sanusiruwari,C-BAG-23-059,Sanusirwari,9,1,2,3,2,Banepa,1,4,2,"Rice,Oil,Lentil,Salt shop,etc",2,1,200,10,10,54,240,230,2,1,1,2,1,500,C-BAG-23-059-09,3
market_centers_eq_districts0.75,POINT (85.59339904802772 27.804899215426474),75,9749,5,Bagmati,Central,23,061,Sindhupalchok,61,Sikharpur,230061,C-BAG-23-061-05,85.5934,27.8049,Sindhupalchok,Sikharpur,C-BAG-23-061,Baguwa,5,1,2,3,3,Banepa,1,4,2,"Rice,Oil,Lentil,Salt shop,etc",2,2,300,15,20,52,240,230,2,1,1,1,2,500,C-BAG-23-061-05,3
market_centers_eq_districts0.76,POINT (85.68090057400235 27.850599288626313),76,9762,9,Bagmati,Central,23,064,Sindhupalchok,64,Sipal Kavre,230064,C-BAG-23-064-09,85.6809,27.8506,Sindhupalchok,SipalKavre,C-BAG-23-064,Basiri,9,1,2,3,3,Banepa,1,2,2,"Rice,Oil,Lentil,Salt shop,etc",2,2,400,10,50,53,240,230,2,1,2,1,2,500,C-BAG-23-064-09,3
market_centers_eq_districts0.77,POINT (85.51959991470437 27.811100005860624),77,9765,3,Bagmati,Central,23,062,Sindhupalchok,62,Sindhukot,230062,C-BAG-23-062-03,85.5196,27.8111,Sindhupalchok,Sindhukot,C-BAG-23-062,Sindhupurana gau,3,1,2,3,3,Banepa,1,4,2,"Rice,Oil,Lentil,Salt shop,etc",2,2,240,14,40,52,240,230,2,1,2,1,2,500,C-BAG-23-062-03,3
market_centers_eq_districts0.78,POINT (85.61450195280293 27.75810050973081),78,9777,6,Bagmati,Central,23,063,Sindhupalchok,63,Sipa Pokhare,230063,C-BAG-23-063-06,85.6145,27.7581,Sindhupalchok,SipaPokhare,C-BAG-23-063,Pokhare,6,1,2,2,3,Banepa,1,5,2,"Rice,Oil,Lentil,Salt shop,etc",2,1,350,8,20,55,240,230,2,1,2,1,1,500,C-BAG-23-063-06,2
market_centers_eq_districts0.79,POINT (85.81189727743748 27.706800460672753),79,9784,4,Bagmati,Central,23,065,Sindhupalchok,65,Sunkhani,230065,C-BAG-23-065-04,85.8119,27.7068,Sindhupalchok,Sunkhani,C-BAG-23-065,Bhoteyamuna,4,1,2,3,3,Banepa,1,10,2,"Rice,Oil,Lentil,Salt shop,etc",2,2,250,6,20,53,240,230,2,1,2,1,2,500,C-BAG-23-065-04,3
market_centers_eq_districts0.80,POINT (85.71469879171593 27.829599380507034),80,9792,3,Bagmati,Central,23,066,Sindhupalchok,66,Syaule Bazar,230066,C-BAG-23-066-03,85.7147,27.8296,Sindhupalchok,SyauleBazar,C-BAG-23-066,Syaule bazar,3,1,2,2,2,Banepa,1,7,3,"Rice,Oil,Lentil,Salt shop,etc",2,1,340,5,30,50,240,230,2,1,1,1,2,500,C-BAG-23-066-03,2
market_centers_eq_districts0.81,POINT (85.53540039061556 27.864999771022667),81,9805,7,Bagmati,Central,23,067,Sindhupalchok,67,Talamarang,230067,C-BAG-23-067-07,85.5354,27.865,Sindhupalchok,Talramarang,C-BAG-23-067,Talamarang,7,1,2,1,2,Banepa,1,5,2,"Rice,Oil,Lentil,Salt shop,etc",2,2,300,10,40,52,240,230,2,1,2,1,1,500,C-BAG-23-067-07,2
market_centers_eq_districts0.82,POINT (85.93479919392769 27.95140075703938),82,9811,4,Bagmati,Central,23,068,Sindhupalchok,68,Tatopani,230068,C-BAG-23-068-04,85.9348,27.9514,Sindhupalchok,Tatopani,C-BAG-23-068,Tatopani,4,1,2,1,2,Banepa,1,6,3,"Rice,Oil,Lentil,Salt shop,etc",2,1,400,40,10,53,240,230,1,1,1,2,1,500,C-BAG-23-068-04,2
market_centers_eq_districts0.83,POINT (85.91809844988359 27.730199813970273),83,9820,4,Bagmati,Central,23,069,Sindhupalchok,69,Tauthali,230069,C-BAG-23-069-04,85.9181,27.7302,Sindhupalchok,Tauthali,C-BAG-23-069,Tauthali,4,1,2,3,3,Banepa,1,4,2,"Rice,Oil,Lentil,Salt shop,etc",2,2,150,20,50,52,240,230,2,1,2,1,2,500,C-BAG-23-069-04,3
market_centers_eq_districts0.84,POINT (85.88690185573608 27.745599747130655),84,9830,5,Bagmati,Central,23,070,Sindhupalchok,70,Tekanpur,230070,C-BAG-23-070-05,85.8869,27.7456,Sindhupalchok,Tekanpur,C-BAG-23-070,Bohagau,5,1,2,3,3,Banepa,1,5,2,"Rice,Oil,Lentil,Salt shop,etc",2,1,250,15,30,53,240,230,2,1,2,1,2,500,C-BAG-23-070-05,3
market_centers_eq_districts0.85,POINT (85.49859619166097 27.83160018949718),85,9836,2,Bagmati,Central,23,071,Sindhupalchok,71,Thakani,230071,C-BAG-23-071-02,85.4986,27.8316,Sindhupalchok,Thakani,C-BAG-23-071,Piple,2,1,2,3,2,Banepa,1,3,2,"Rice,Oil,Lentil,Salt shop,etc",2,2,450,10,20,50,240,230,2,1,2,1,2,500,C-BAG-23-071-02,3
market_centers_eq_districts0.86,POINT (85.65509796150178 27.940700530704987),86,9849,6,Bagmati,Central,23,073,Sindhupalchok,73,Thangpalkot,230073,C-BAG-23-073-06,85.6551,27.9407,Sindhupalchok,Thanpalkot,C-BAG-23-073,Manekharka,6,1,2,3,3,Banepa,1,6,2,"Rice,Oil,Lentil,Salt shop,etc",2,2,450,15,40,54,240,230,2,1,2,1,1,500,C-BAG-23-073-06,3
market_centers_eq_districts0.87,POINT (85.63849639918953 27.91889953618471),87,9854,2,Bagmati,Central,23,072,Sindhupalchok,72,Thampal Chhap,230072,C-BAG-23-072-02,85.6385,27.9189,Sindhupalchok,Thampal Dhhap,C-BAG-23-072,Dhap,2,1,2,2,3,Banepa,1,2,2,"Rice,Oil,Lentil,Salt shop,etc",2,2,400,16,50,54,240,230,2,1,2,1,2,500,C-BAG-23-072-02,3
market_centers_eq_districts0.88,POINT (85.77749633768588 27.6828002927993),88,9863,2,Bagmati,Central,23,074,Sindhupalchok,74,Thokarpa,230074,C-BAG-23-074-02,85.7775,27.6828,Sindhupalchok,Thokarpa,C-BAG-23-074,Bagbhairab,2,1,2,2,3,Banepa,1,4,2,"Rice,Oil,Lentil,Salt shop,etc",2,1,350,14,35,55,240,230,2,1,2,1,1,500,C-BAG-23-074-02,3
market_centers_eq_districts0.89,POINT (85.90329742473642 27.646099090500684),89,9878,8,Bagmati,Central,23,075,Sindhupalchok,75,Thulo Dhading,230075,C-BAG-23-075-08,85.9033,27.6461,Sindhupalchok,"Thulo,Dhading",C-BAG-23-075,Thulodhading,8,1,2,3,3,Banepa,1,2,2,"Rice,Oil,Lentil,Salt shop,etc",2,2,250,10,30,53,240,230,2,2,2,1,2,500,C-BAG-23-075-08,3
market_centers_eq_districts0.90,POINT (85.86009979247149 27.723199844597218),90,9888,9,Bagmati,Central,23,076,Sindhupalchok,76,Thulo Pakhar,230076,C-BAG-23-076-09,85.8601,27.7232,Sindhupalchok,"Thulo, Pakhar",C-BAG-23-076,16 kilo,9,1,2,3,3,Banepa,1,4,2,"Rice,Oil,Lentil,Salt shop,etc",2,1,200,10,35,52,240,230,2,1,2,1,2,500,C-BAG-23-076-09,3
market_centers_eq_districts0.91,POINT (85.69809722940369 27.733600616475314),91,9889,1,Bagmati,Central,23,077,Sindhupalchok,77,Thulo Sirubari,230077,C-BAG-23-077-01,85.6981,27.7336,Sindhupalchok,ThuloSirubari,C-BAG-23-077,Kotdanda,1,1,2,2,2,Banepa,1,5,2,"Rice,Oil,Lentil,Salt shop,etc",2,1,250,15,35,52,240,230,2,1,1,1,2,500,C-BAG-23-077-01,2
market_centers_eq_districts0.92,POINT (85.83910369837702 27.73990058864132),92,9901,4,Bagmati,Central,23,078,Sindhupalchok,78,Thum Pakhar,230078,C-BAG-23-078-04,85.8391,27.7399,Sindhupalchok,ThumPakhar,C-BAG-23-078,12 kilo,4,1,2,2,2,Banepa,1,4,2,"Rice,Oil,Lentil,Salt shop,etc",2,2,230,15,10,52,240,230,2,1,2,1,2,500,C-BAG-23-078-04,3
market_centers_eq_districts0.93,POINT (85.79759979259643 27.71920013407896),93,9914,8,Bagmati,Central,23,079,Sindhupalchok,79,Yamunadanda,230079,C-BAG-23-079-08,85.7976,27.7192,Sindhupalchok,Yamunadanda,C-BAG-23-079,Simpani,8,1,2,3,2,Banepa,1,3,2,"Rice,Oil,Lentil,Salt shop,etc",2,2,250,20,12,52,240,230,2,1,2,1,2,500,C-BAG-23-079-08,3
market_centers_eq_districts0.94,POINT (85.59549713128763 27.681999206398302),94,9918,3,Bagmati,Central,24,001,Kavrepalanchok,1,Anekot,240001,C-BAG-24-001-03,85.5955,27.682,Kavrepalanchok,Anekot,C-BAG-24-001,Take Beshi,3,2,2,2,0,Banepa,1,14,2,"Rire,Oil Salt,shop etc",2,2,300,60,120,55,250,180,0,1,1,1,2,450,C-BAG-24-001-03,2
market_centers_eq_districts0.95,POINT (85.53620147701662 27.54750061036492),95,9931,7,Bagmati,Central,24,002,Kavrepalanchok,2,Baldthali,240002,C-BAG-24-002-07,85.5362,27.5475,Kavrepalanchok,Balthali,C-BAG-24-002,Khaku,7,2,2,2,0,Banepa,1,4,2,"Rire,Oil Salt,shop etc",2,2,240,50,50,55,250,180,0,1,1,2,2,450,C-BAG-24-002-07,3
market_centers_eq_districts0.96,POINT (85.75299835189247 27.430999756133872),96,9966,4,Bagmati,Central,24,008,Kavrepalanchok,8,Bhimkhori,240008,C-BAG-24-008-04,85.753,27.431,Kavrepalanchok,Bhimkhori,C-BAG-24-008,Kaldhunga,4,3,2,3,2,Banepa,1,10,1,"Rire,Oil Salt,shop etc",2,2,56,150,300,55,250,170,2,2,2,1,2,450,C-BAG-24-008-04,3
market_centers_eq_districts0.97,POINT (85.57029724082508 27.522100448976573),97,9972,1,Bagmati,Central,24,054,Kavrepalanchok,54,Mahankal Chaur,240054,C-BAG-24-054-01,85.5703,27.5221,Kavrepalanchok,Mahankal Chaur,C-BAG-24-054,Bhagdeu Bhanjang,1,2,2,2,2,Banepa,1,3,2,"Rire,Oil Salt,shop etc",2,2,150,50,25,55,260,240,1,1,2,1,1,450,C-BAG-24-054-01,3
market_centers_eq_districts0.98,POINT (85.71559905984878 27.645599365118642),98,9986,6,Bagmati,Central,24,009,Kavrepalanchok,9,Bhumlutar,240009,C-BAG-24-009-06,85.7156,27.6456,Kavrepalanchok,Bhumlutar,C-BAG-24-009,Dolalghat,6,3,2,3,2,Banepa,1,20,1,"Rire,Oil Salt,shop etc",2,2,500,250,240,55,250,170,2,2,2,1,2,450,C-BAG-24-009-06,3
market_centers_eq_districts0.99,POINT (85.7642974853407 27.568000793102158),99,9993,4,Bagmati,Central,24,010,Kavrepalanchok,10,Birtadeurali,240010,C-BAG-24-010-04,85.7643,27.568,Kavrepalanchok,Birta Deurali,C-BAG-24-010,Thatidanda,4,2,2,3,2,Banepa,1,10,2,"Rire,Oil Salt,shop etc",2,2,250,6,0,50,0,230,2,1,2,1,2,450,C-BAG-24-010-04,3
market_centers_eq_districts0.100,POINT (85.69719696037146 27.41010093720854),100,10008,1,Bagmati,Central,24,012,Kavrepalanchok,12,Budhakhani,240012,C-BAG-24-012-01,85.6972,27.4101,Kavrepalanchok,Budhakhani,C-BAG-24-012,Killa,1,2,2,3,2,Banepa,1,10,2,"Rire,Oil Salt,shop etc",2,2,200,6,20,50,280,230,2,1,2,1,2,450,C-BAG-24-012-01,3
market_centers_eq_districts0.101,POINT (85.508796691714 27.538400650269864),101,10027,2,Bagmati,Central,24,013,Kavrepalanchok,13,Chalal Ganeshsthan,240013,C-BAG-24-013-02,85.5088,27.5384,Kavrepalanchok,Chalal Ganeshsthan,C-BAG-24-013,Chalal,2,2,2,2,2,Banepa,1,6,2,"Rire,Oil Salt,shop etc",2,2,250,6,20,50,260,230,2,1,2,1,2,450,C-BAG-24-013-02,2
market_centers_eq_districts0.102,POINT (85.65760040243669 27.698900223166845),102,10042,8,Bagmati,Central,24,014,Kavrepalanchok,14,Chandeni Mandan,240014,C-BAG-24-014-08,85.6576,27.6989,Kavrepalanchok,Chandeni Mandan,C-BAG-24-014,Apghari,8,2,2,2,2,Banepa,1,5,2,"Rire,Oil Salt,shop etc",2,2,250,6,20,50,250,230,2,1,2,1,2,450,C-BAG-24-014-08,2
market_centers_eq_districts0.103,POINT (85.77899932875607 27.62660026509019),103,10048,5,Bagmati,Central,24,015,Kavrepalanchok,15,Choubas,240015,C-BAG-24-015-05,85.779,27.6266,Kavrepalanchok,Chaubas,C-BAG-24-015,Chaubash,5,2,2,2,2,Banepa,1,10,2,"Rire,Oil Salt,shop etc",2,2,300,6,15,50,250,230,2,1,2,1,1,450,C-BAG-24-015-05,2
market_centers_eq_districts0.104,POINT (85.80549621607759 27.568199157465187),104,10057,5,Bagmati,Central,24,068,Kavrepalanchok,68,Pokhari Chauri,240068,C-BAG-24-068-05,85.8055,27.5682,Kavrepalanchok,PokhariChauri,C-BAG-24-068,Kaurani,5,2,2,2,2,Banepa,1,4,2,"Rire,Oil Salt,shop etc",2,2,250,6,0,50,0,230,2,1,2,1,2,450,C-BAG-24-068-05,3
market_centers_eq_districts0.105,POINT (85.6122970579629 27.552900314398016),105,10062,1,Bagmati,Central,24,019,Kavrepalanchok,19,Dapcha Chatrebhanjh,240019,C-BAG-24-019-01,85.6123,27.5529,Kavrepalanchok,DapchaChhetrebanjh,C-BAG-24-019,Mathilo,1,2,2,2,2,Banepa,1,15,2,"Rire,Oil Salt,shop etc",2,2,250,6,0,50,0,230,2,1,2,1,2,450,C-BAG-24-019-01,2
market_centers_eq_districts0.106,POINT (85.44509887671182 27.487400054768784),106,10072,2,Bagmati,Central,24,016,Kavrepalanchok,16,Chyamrangbesi,240016,C-BAG-24-016-02,85.4451,27.4874,Kavrepalanchok,Chyamrangbesi,C-BAG-24-016,Chamrangbeshi,2,2,2,2,2,Banepa,1,6,2,"Rire,Oil Salt,shop etc",2,2,250,6,100,50,50,230,2,1,2,1,2,450,C-BAG-24-016-02,2
market_centers_eq_districts0.107,POINT (85.52149963360125 27.516799926675333),107,10081,2,Bagmati,Central,24,017,Kavrepalanchok,17,Chyasing Kharka,240017,C-BAG-24-017-02,85.5215,27.5168,Kavrepalanchok,Chyasin Kharka,C-BAG-24-017,Chalty,2,2,2,2,2,Banepa,1,7,2,"Rire,Oil Salt,shop etc",2,2,200,6,100,50,50,230,2,1,2,1,2,450,C-BAG-24-017-02,2
market_centers_eq_districts0.108,POINT (85.62429809608034 27.55060005185095),108,10103,6,Bagmati,Central,24,020,Kavrepalanchok,20,Daraune Pokhari,240020,C-BAG-24-020-06,85.6243,27.5506,Kavrepalanchok,Daraune Pokhari,C-BAG-24-020,Bhakunde beshi,6,2,2,2,2,Banepa,1,4,3,"Rire,Oil Salt,shop etc",2,1,200,100,150,55,250,230,1,1,2,2,2,450,C-BAG-24-020-06,3
market_centers_eq_districts0.109,POINT (85.63400268567545 27.610300063796956),109,10111,5,Bagmati,Central,24,021,Kavrepalanchok,21,Dewabhumi Baluwa,240021,C-BAG-24-021-05,85.634,27.6103,Kavrepalanchok,Dev Bhumi Baluwa,C-BAG-24-021,Tinpiple,5,2,2,1,2,Banepa,1,10,3,"Rire,Oil Salt,shop etc",2,1,200,100,150,55,250,230,1,1,1,2,1,450,C-BAG-24-021-05,2
market_centers_eq_districts0.110,POINT (85.56340026810796 27.67600059525131),110,10122,7,Bagmati,Central,24,022,Kavrepalanchok,22,Devitar,240022,C-BAG-24-022-07,85.5634,27.676,Kavrepalanchok,Devitar,C-BAG-24-022,Deurali,7,2,2,2,2,Banepa,1,4,2,"Rire,Oil Salt,shop etc",2,2,250,6,100,50,50,230,2,1,2,1,2,450,C-BAG-24-022-07,3
market_centers_eq_districts0.111,POINT (85.56310272201307 27.61639976503716),111,10126,2,Bagmati,Central,24,023,Kavrepalanchok,23,Dhulikhel Municipality,240023,C-BAG-24-023-02,85.5631,27.6164,Kavrepalanchok,Dhulikhel N. P.,C-BAG-24-023,Sharshoti baZar,2,1,1,1,3,"Banepa,Terai",1,100,3,"Rire,Oil Salt,shop etc",2,1,500,300,300,55,250,230,1,1,1,2,1,450,C-BAG-24-023-02,1
market_centers_eq_districts0.112,POINT (85.49849700902979 27.516599654850268),112,10135,2,Bagmati,Central,24,024,Kavrepalanchok,24,Dhunkharka,240024,C-BAG-24-024-02,85.4985,27.5166,Kavrepalanchok,Dhunkharka,C-BAG-24-024,Gelung,2,2,2,1,2,Banepa,1,7,2,"Rire,Oil Salt,shop etc",2,1,200,100,150,55,250,230,1,1,1,2,1,450,C-BAG-24-024-02,2
market_centers_eq_districts0.113,POINT (85.79010009784128 27.584499358758478),113,10151,9,Bagmati,Central,24,025,Kavrepalanchok,25,Dhuseni Siwalaya,240025,C-BAG-24-025-09,85.7901,27.5845,Kavrepalanchok,Dhuseni,C-BAG-24-025,Chheda,9,2,2,3,2,Banepa,1,3,2,"Rire,Oil Salt,shop etc",2,2,100,50,100,58,260,240,2,1,2,1,2,450,C-BAG-24-025-09,3
market_centers_eq_districts0.114,POINT (85.70390319857381 27.625799178689192),114,10156,5,Bagmati,Central,24,026,Kavrepalanchok,26,Dolalghat,240026,C-BAG-24-026-05,85.7039,27.6258,Kavrepalanchok,Dolalghat,C-BAG-24-026,Dolalghat,5,1,1,1,3,"Banepa,Terai",1,30,3,"Rire,Oil Salt,shop etc",2,1,400,300,300,55,250,230,1,0,1,2,1,450,C-BAG-24-026-05,1
market_centers_eq_districts0.115,POINT (85.58489990250854 27.744100570984642),115,10163,3,Bagmati,Central,24,030,Kavrepalanchok,30,Gairi Bisouna Deupur,240030,C-BAG-24-030-03,85.5849,27.7441,Kavrepalanchok,Gairibisauna,C-BAG-24-030,Dhadkhola,3,2,2,2,2,Banepa,1,2,2,"Rire,Oil Salt,shop etc",2,2,250,6,21,50,240,230,2,1,2,1,1,450,C-BAG-24-030-03,3
market_centers_eq_districts0.116,POINT (85.59420013442872 27.356399536409526),116,10174,5,Bagmati,Central,24,031,Kavrepalanchok,31,Ghartichhap,240031,C-BAG-24-031-05,85.5942,27.3564,Kavrepalanchok,Ghartichhap,C-BAG-24-031,Ghartichhap,5,2,2,4,2,Banepa,1,2,2,"Rire,Oil Salt,shop etc",2,3,250,30,0,50,0,230,2,1,2,1,2,450,C-BAG-24-031-05,3
market_centers_eq_districts0.117,POINT (85.55680084238503 27.374099731217655),117,10179,1,Bagmati,Central,24,032,Kavrepalanchok,32,Gokule,240032,C-BAG-24-032-01,85.5568,27.3741,Kavrepalanchok,Gokule,C-BAG-24-032,Gokule,1,2,2,4,2,Banepa,1,2,2,"Rire,Oil Salt,shop etc",2,3,250,6,40,50,230,230,2,1,2,1,1,450,C-BAG-24-032-01,3
market_centers_eq_districts0.118,POINT (85.79499816903035 27.605100631588925),118,10196,9,Bagmati,Central,24,033,Kavrepalanchok,33,Gothpani,240033,C-BAG-24-033-09,85.795,27.6051,Kavrepalanchok,Gothpani,C-BAG-24-033,Cheda,9,2,2,3,2,Banepa,1,6,2,"Rire,Oil Salt,shop etc",2,3,250,6,0,50,0,230,2,1,2,1,2,450,C-BAG-24-033-09,3
market_centers_eq_districts0.119,POINT (85.65390014637472 27.64690017690168),119,10200,4,Bagmati,Central,24,034,Kavrepalanchok,34,Hokse Bazar,240034,C-BAG-24-034-04,85.6539,27.6469,Kavrepalanchok,Hokse,C-BAG-24-034,ShreeRampati,4,2,1,1,2,Banepa,1,6,2,"Rire,Oil Salt,shop etc",2,1,250,17,100,51,250,230,2,1,1,2,2,450,C-BAG-24-034-04,2
market_centers_eq_districts0.120,POINT (85.62750244168438 27.68759918225652),120,10214,9,Bagmati,Central,24,035,Kavrepalanchok,35,Jaisithok Mandan,240035,C-BAG-24-035-09,85.6275,27.6876,Kavrepalanchok,Jaisithok,C-BAG-24-035,"phedi,",9,2,2,1,2,Banepa,1,8,2,"Rire,Oil Salt,shop etc",2,2,250,6,0,52,0,230,2,1,2,1,2,450,C-BAG-24-035-09,2
market_centers_eq_districts0.121,POINT (85.68609619128625 27.664699554340984),121,10218,4,Bagmati,Central,24,036,Kavrepalanchok,36,Jyamdi Mandan,240036,C-BAG-24-036-04,85.6861,27.6647,Kavrepalanchok,Jyamdi,C-BAG-24-036,Barbote chaur,4,2,2,2,2,Banepa,1,10,2,"Rire,Oil Salt,shop etc",2,2,250,40,150,53,250,230,2,1,2,1,2,450,C-BAG-24-036-04,2
market_centers_eq_districts0.122,POINT (85.57800292979141 27.604700088838058),122,10227,4,Bagmati,Central,24,041,Kavrepalanchok,41,Kavre Nitya Chandeswor,240041,C-BAG-24-041-04,85.578,27.6047,Kavrepalanchok,Kavrenitya,C-BAG-24-041,"Kavre Bhanjang,",4,2,2,1,2,Banepa,1,5,2,"Rire,Oil Salt,shop etc",2,2,200,6,24,50,230,230,2,1,2,2,2,450,C-BAG-24-041-04,2
market_centers_eq_districts0.123,POINT (85.70179748546565 27.543199538827707),123,10233,1,Bagmati,Central,24,038,Kavrepalanchok,38,Kanpur Kalapani,240038,C-BAG-24-038-01,85.7018,27.5432,Kavrepalanchok,Kanpur Kalapani,C-BAG-24-038,Kanpur,1,2,2,1,2,Banepa,1,6,2,"Rire,Oil Salt,shop etc",2,2,250,50,40,50,230,230,2,1,1,1,1,450,C-BAG-24-038-01,2
market_centers_eq_districts0.124,POINT (85.78089904765301 27.54540061964292),124,10243,2,Bagmati,Central,24,039,Kavrepalanchok,39,Katike Deurali,240039,C-BAG-24-039-02,85.7809,27.5454,Kavrepalanchok,Kattike Deurali,C-BAG-24-039,Deurali,2,2,2,2,2,Banepa,1,10,2,"Rire,Oil Salt,shop etc",2,2,250,6,0,50,0,230,2,1,2,1,1,450,C-BAG-24-039-02,2
market_centers_eq_districts0.125,POINT (85.69689941427663 27.515600204086184),125,10255,5,Bagmati,Central,24,040,Kavrepalanchok,40,Katunje Besi,240040,C-BAG-24-040-05,85.6969,27.5156,Kavrepalanchok,Katunje Besi,C-BAG-24-040,Laskot,5,2,1,1,2,Banepa,1,4,2,"Rire,Oil Salt,shop etc",2,2,200,60,20,50,230,230,2,1,2,2,1,450,C-BAG-24-040-05,3
market_centers_eq_districts0.126,POINT (85.63819885219533 27.55019950910014),126,10274,6,Bagmati,Central,24,043,Kavrepalanchok,43,Khanalthok,240043,C-BAG-24-043-06,85.6382,27.5502,Kavrepalanchok,Khanalthok,C-BAG-24-043,Bhakunde beshi,6,2,2,1,2,Banepa,1,12,3,"Rire,Oil Salt,shop etc",2,2,200,100,150,55,250,230,1,1,1,1,1,450,C-BAG-24-043-06,2
market_centers_eq_districts0.127,POINT (85.75229644812265 27.59749984763988),127,10299,4,Bagmati,Central,24,046,Kavrepalanchok,46,Kolati Bhumlu,240046,C-BAG-24-046-04,85.7523,27.5975,Kavrepalanchok,Kolati Bhumlu,C-BAG-24-046,Bhumlutar,4,2,2,2,2,Banepa,1,10,2,"Rire,Oil Salt,shop etc",2,2,250,6,0,50,0,230,2,1,2,1,2,450,C-BAG-24-046-04,2
market_centers_eq_districts0.128,POINT (85.49680328344482 27.561199188092132),128,10311,7,Bagmati,Central,24,037,Kavrepalanchok,37,Kalati Bhumidanda,240037,C-BAG-24-037-07,85.4968,27.5612,Kavrepalanchok,Kalati Bhumidanda,C-BAG-24-037,Thatidanda,7,2,2,2,2,Banepa,1,10,2,"Rire,Oil Salt,shop etc",2,2,250,6,0,50,0,230,2,1,2,1,2,450,C-BAG-24-037-07,2
market_centers_eq_districts0.129,POINT (85.71479797344779 27.605899810527887),129,10317,4,Bagmati,Central,24,047,Kavrepalanchok,47,Koshidekha,240047,C-BAG-24-047-04,85.7148,27.6059,Kavrepalanchok,Koshidekha,C-BAG-24-047,Thatidanda,4,0,0,2,0,Banepa,1,0,2,"Rire,Oil Salt,shop etc",2,2,0,0,0,0,0,0,0,0,2,1,0,450,C-BAG-24-047-04,3
market_centers_eq_districts0.130,POINT (85.47949981646343 27.60029983556899),130,10324,2,Bagmati,Central,24,049,Kavrepalanchok,49,Kushadevi,240049,C-BAG-24-049-02,85.4795,27.6003,Kavrepalanchok,Kushadevi,C-BAG-24-049,Kushadevi,2,2,2,2,2,Banepa,1,10,2,"Rire,Oil Salt,shop etc",2,1,250,6,0,50,0,230,2,1,2,1,2,450,C-BAG-24-049-02,2
market_centers_eq_districts0.131,POINT (85.82080078153092 27.533399581525543),131,10334,3,Bagmati,Central,24,051,Kavrepalanchok,51,Madan Kundari,240051,C-BAG-24-051-03,85.8208,27.5334,Kavrepalanchok,Madan Kundari,C-BAG-24-051,Madan,3,2,2,2,2,Banepa,1,10,2,"Rire,Oil Salt,shop etc",2,2,250,6,0,50,0,230,2,1,2,1,2,450,C-BAG-24-051-03,2
market_centers_eq_districts0.132,POINT (85.60939788830194 27.732700348342462),132,10348,8,Bagmati,Central,24,052,Kavrepalanchok,52,Mahadevsthan Mandan,240052,C-BAG-24-052-08,85.6094,27.7327,Kavrepalanchok,Mahadevsthan,C-BAG-24-052,Kuntabeshi,8,2,2,1,2,Banepa,1,50,2,"Rire,Oil Salt,shop etc",2,1,200,10,25,55,260,240,1,1,1,1,1,450,C-BAG-24-052-08,1
market_centers_eq_districts0.133,POINT (85.49289703407095 27.62339973441027),133,10359,1,Bagmati,Central,24,055,Kavrepalanchok,55,Mahendra Jyoti,240055,C-BAG-24-055-01,85.4929,27.6234,Kavrepalanchok,Mahendrajyoti,C-BAG-24-055,Basdol,1,2,2,1,2,Banepa,1,4,2,"Rire,Oil Salt,shop etc",2,2,150,10,25,55,260,240,1,1,1,1,1,450,C-BAG-24-055-01,3
market_centers_eq_districts0.134,POINT (85.8523025516215 27.59029960644176),134,10374,7,Bagmati,Central,24,056,Kavrepalanchok,56,Majhi Feda,240056,C-BAG-24-056-07,85.8523,27.5903,Kavrepalanchok,Majhifeda,C-BAG-24-056,Salambu,7,2,2,2,2,Banepa,1,6,2,"Rire,Oil Salt,shop etc",2,2,250,6,0,50,0,230,2,1,2,1,2,450,C-BAG-24-056-07,2
market_centers_eq_districts0.135,POINT (85.74579620323226 27.474199294961522),135,10380,4,Bagmati,Central,24,057,Kavrepalanchok,57,Mangaltar,240057,C-BAG-24-057-04,85.7458,27.4742,Kavrepalanchok,Mangaltar,C-BAG-24-057,Mangaltar,4,2,1,1,2,Banepa,1,10,2,"Rire,Oil Salt,shop etc",2,1,300,40,50,55,280,230,1,1,1,1,1,450,C-BAG-24-057-04,2
market_centers_eq_districts0.136,POINT (85.63899993859633 27.572700500827523),136,10391,6,Bagmati,Central,24,058,Kavrepalanchok,58,Mathurapati Fulbari,240058,C-BAG-24-058-06,85.639,27.5727,Kavrepalanchok,Mathurapati,C-BAG-24-058,Bhakunde beshi,6,3,1,1,0,Banepa,1,6,2,"Rire,Oil Salt,shop etc",2,2,400,250,250,54,260,230,1,1,1,2,1,450,C-BAG-24-058-06,2
market_centers_eq_districts0.137,POINT (85.65670013430383 27.56929969832248),137,10406,3,Bagmati,Central,24,059,Kavrepalanchok,59,Methinkot,240059,C-BAG-24-059-03,85.6567,27.5693,Kavrepalanchok,Methinkot,C-BAG-24-059,Bhakunde beshi,3,3,2,2,0,Banepa,1,5,3,"Rire,Oil Salt,shop etc",2,2,500,300,250,54,260,230,1,1,1,2,1,450,C-BAG-24-059-03,2
market_centers_eq_districts0.138,POINT (85.42870330771154 27.411100387972567),138,10417,5,Bagmati,Central,24,060,Kavrepalanchok,60,Milche,240060,C-BAG-24-060-05,85.4287,27.4111,Kavrepalanchok,Milche,C-BAG-24-060,Dhaple,5,2,2,4,2,Banepa,1,10,2,"Rire,Oil Salt,shop etc",2,2,250,6,0,50,0,230,2,1,2,1,2,450,C-BAG-24-060-05,3
market_centers_eq_districts0.139,POINT (85.55699920674806 27.72570037807003),139,10425,4,Bagmati,Central,24,004,Kavrepalanchok,4,Baluwapati Deupur,240004,C-BAG-24-004-04,85.557,27.7257,Kavrepalanchok,Baluwapati,C-BAG-24-004,Baluwapati,4,3,2,2,2,Banepa,1,3,1,"Rire,Oil Salt,shop etc",2,2,56,150,240,55,250,170,2,2,2,2,2,450,C-BAG-24-004-04,3
market_centers_eq_districts0.140,POINT (85.87670135478373 27.615900039655173),140,10438,8,Bagmati,Central,24,061,Kavrepalanchok,61,Nagre Gagarche,240061,C-BAG-24-061-08,85.8767,27.6159,Kavrepalanchok,Nagre Gagarche,C-BAG-24-061,Kilpu,8,2,2,3,2,Banepa,1,10,2,"Rire,Oil Salt,shop etc",2,3,250,6,0,50,0,230,2,1,1,2,2,450,C-BAG-24-061-08,3
market_centers_eq_districts0.141,POINT (85.49859619166097 27.63590049701037),141,10440,1,Bagmati,Central,24,063,Kavrepalanchok,63,Nasikasthan Sanga,240063,C-BAG-24-063-01,85.4986,27.6359,Kavrepalanchok,Nasikasthan Sangha,C-BAG-24-063,Bhaisepati,1,3,1,1,2,Banepa,1,21,2,"Rire,Oil Salt,shop etc",2,3,250,6,50,50,250,230,2,1,1,2,1,450,C-BAG-24-063-01,1
market_centers_eq_districts0.142,POINT (85.58280181924863 27.719499587635937),142,10449,1,Bagmati,Central,24,064,Kavrepalanchok,64,Nayagaun Deupur,240064,C-BAG-24-064-01,85.5828,27.7195,Kavrepalanchok,Nayagaun,C-BAG-24-064,BayarbotChainpur,1,2,1,2,2,Banepa,1,7,2,"Rire,Oil Salt,shop etc",2,3,200,8,20,50,240,230,2,1,2,1,2,450,C-BAG-24-064-01,2
market_centers_eq_districts0.143,POINT (85.5190963743982 27.580400466508365),143,10467,6,Bagmati,Central,24,065,Kavrepalanchok,65,Panauti,240065,C-BAG-24-065-06,85.5191,27.5804,Kavrepalanchok,Panauti N. P.,C-BAG-24-065,Panauti,6,3,1,1,2,Banepa,1,100,2,"Rire,Oil Salt,shop etc",2,1,600,400,150,50,240,230,2,1,1,2,1,450,C-BAG-24-065-06,1
market_centers_eq_districts0.144,POINT (85.60870361348105 27.63590049701037),144,10473,3,BAGMATI,,24,066,Kavrepalanchok,66,Panchkhal,240066,C-BAG-24-066-03,85.6087,27.6359,Kavrepalanchok,Panchkhal,C-BAG-24-066,Panchkhal,3,3,1,1,2,Banepa,1,40,2,"Rire,Oil Salt,shop etc",2,1,400,200,100,50,250,230,2,1,1,2,1,450,C-BAG-24-066-03,1
market_centers_eq_districts0.145,POINT (85.59190368680578 27.598300934040935),145,10482,3,Bagmati,Central,24,067,Kavrepalanchok,67,Patalekhet,240067,C-BAG-24-067-03,85.5919,27.5983,Kavrepalanchok,Patlekhet,C-BAG-24-067,Hanumankharka,3,2,2,2,2,Banepa,1,6,2,"Rire,Oil Salt,shop etc",2,1,150,100,100,55,250,230,1,1,1,2,2,450,C-BAG-24-067-03,2
market_centers_eq_districts0.146,POINT (85.5414962769317 27.459299087183183),146,10493,5,Bagmati,Central,24,028,Kavrepalanchok,28,Falemetar,240028,C-BAG-24-028-05,85.5415,27.4593,Kavrepalanchok,Falametar,C-BAG-24-028,Syaure Thali,5,2,2,2,2,Banepa,1,4,2,"Rire,Oil Salt,shop etc",2,3,250,6,0,50,0,230,2,1,2,1,1,450,C-BAG-24-028-05,3
market_centers_eq_districts0.147,POINT (85.73519897445317 27.618700027584282),147,10504,7,Bagmati,Central,24,027,Kavrepalanchok,27,Falate Bhumlu,240027,C-BAG-24-027-07,85.7352,27.6187,Kavrepalanchok,FalateBhumlu,C-BAG-24-027,Thatidanda,7,2,2,2,2,Banepa,1,10,2,"Rire,Oil Salt,shop etc",2,3,250,6,300,50,240,230,2,1,2,1,2,450,C-BAG-24-027-07,2
market_centers_eq_districts0.148,POINT (85.60939788830194 27.40600013749639),148,10511,5,Bagmati,Central,24,029,Kavrepalanchok,29,Foksingtar,240029,C-BAG-24-029-05,85.6094,27.406,Kavrepalanchok,Foksingtar,C-BAG-24-029,Thulopokhara,5,2,2,2,2,Banepa,1,2,2,"Rire,Oil Salt,shop etc",2,3,250,6,0,50,0,230,2,1,2,1,2,450,C-BAG-24-029-05,3
market_centers_eq_districts0.149,POINT (85.74099731467442 27.524799346812472),149,10516,1,Bagmati,Central,24,069,Kavrepalanchok,69,Pokhari Narayansthan,240069,C-BAG-24-069-01,85.741,27.5248,Kavrepalanchok,PokhariNaransthan,C-BAG-24-069,Narayansthan,1,2,2,2,2,Banepa,1,10,2,"Rire,Oil Salt,shop etc",2,2,250,6,20,50,240,230,2,1,2,1,2,450,C-BAG-24-069-01,2
market_centers_eq_districts0.150,POINT (85.5944976805236 27.552600860841096),150,10525,1,Bagmati,Central,24,070,Kavrepalanchok,70,Puranogaun Dapcha,240070,C-BAG-24-070-01,85.5945,27.5526,Kavrepalanchok,Puranogaun,C-BAG-24-070,Puranagau,1,2,2,2,2,Banepa,1,12,2,"Rire,Oil Salt,shop etc",2,2,250,6,0,51,0,230,2,1,2,1,2,450,C-BAG-24-070-01,2
market_centers_eq_districts0.151,POINT (85.5841979978394 27.64109993011772),151,10534,1,Bagmati,Central,24,071,Kavrepalanchok,71,Ravi Opi,240071,C-BAG-24-071-01,85.5842,27.6411,Kavrepalanchok,Rabi Opi,C-BAG-24-071,Deurali,1,2,2,2,2,Banepa,1,10,2,"Rire,Oil Salt,shop etc",2,2,250,6,0,50,0,230,2,1,2,1,2,450,C-BAG-24-071-01,2
market_centers_eq_districts0.152,POINT (85.458297729057 27.60079956095103),152,10543,1,Bagmati,Central,24,072,Kavrepalanchok,72,Ryale,240072,C-BAG-24-072-01,85.4583,27.6008,Kavrepalanchok,Rayale,C-BAG-24-072,Parkhalchaur,1,2,2,2,2,Banepa,1,20,2,"Rire,Oil Salt,shop etc",2,2,140,6,10,55,240,230,1,1,1,1,1,450,C-BAG-24-072-01,2
market_centers_eq_districts0.153,POINT (85.7591018680568 27.604200363456073),153,10562,2,Bagmati,Central,24,074,Kavrepalanchok,74,Salle Bhumlu,240074,C-BAG-24-074-02,85.7591,27.6042,Kavrepalanchok,Salle Bhumlu,C-BAG-24-074,Manedanda,2,2,2,2,2,Banepa,1,10,2,"Rire,Oil Salt,shop etc",2,3,250,6,0,50,0,230,2,1,2,1,2,450,C-BAG-24-074-02,2
market_centers_eq_districts0.154,POINT (85.48970031741578 27.3931007387082),154,10574,5,Bagmati,Central,24,075,Kavrepalanchok,75,Salmechakala (Taldhunga),240075,C-BAG-24-075-05,85.4897,27.3931,Kavrepalanchok,Salmechakala,C-BAG-24-075,"Taldhunga,",5,2,2,2,2,Banepa,1,15,2,"Rire,Oil Salt,shop etc",2,3,250,6,0,50,0,230,2,1,2,1,1,450,C-BAG-24-075-05,2
market_centers_eq_districts0.155,POINT (85.56199645966893 27.58060073833343),155,10585,7,Bagmati,Central,24,076,Kavrepalanchok,76,Sankhupati Chour,240076,C-BAG-24-076-07,85.562,27.5806,Kavrepalanchok,Shankhupati Chaur,C-BAG-24-076,"Eate,",7,2,2,2,2,Banepa,1,6,2,"Rire,Oil Salt,shop etc",2,3,180,10,50,50,30,230,2,1,2,1,2,450,C-BAG-24-076-07,2
market_centers_eq_districts0.156,POINT (85.75589752155344 27.660999298279023),156,10602,6,Bagmati,Central,24,078,Kavrepalanchok,78,Saping,240078,C-BAG-24-078-06,85.7559,27.661,Kavrepalanchok,Saping,C-BAG-24-078,Dolalghat,6,2,2,3,2,Banepa,1,10,2,"Rire,Oil Salt,shop etc",2,3,240,25,40,50,240,230,2,1,2,1,2,450,C-BAG-24-078-06,3
market_centers_eq_districts0.157,POINT (85.54969787635599 27.593700408946745),157,10612,7,Bagmati,Central,24,079,Kavrepalanchok,79,Sarada Batase,240079,C-BAG-24-079-07,85.5497,27.5937,Kavrepalanchok,Sharada Batase,C-BAG-24-079,Saradabatase,7,2,2,2,2,Banepa,1,16,2,"Rire,Oil Salt,shop etc",2,2,250,6,25,50,230,230,2,1,2,1,2,450,C-BAG-24-079-07,2
market_centers_eq_districts0.158,POINT (85.74579620323226 27.548099517478818),158,10620,6,BAGMATI,,24,080,Kavrepalanchok,80,Saramthali,240080,C-BAG-24-080-06,85.7458,27.5481,Kavrepalanchok,Saramthali,C-BAG-24-080,"Pachra,ghat",6,2,2,3,2,Banepa,1,5,2,"Rire,Oil Salt,shop etc",2,3,250,6,10,50,230,230,2,1,2,1,2,450,C-BAG-24-080-06,3
market_centers_eq_districts0.159,POINT (85.72499847440014 27.568899154672295),159,10626,3,Bagmati,Central,24,081,Kavrepalanchok,81,Sarasyunkhark,240081,C-BAG-24-081-03,85.725,27.5689,Kavrepalanchok,Sarsyun Kharka,C-BAG-24-081,Adam ghat,3,2,2,3,2,Banepa,1,3,2,"Rire,Oil Salt,shop etc",2,2,300,20,100,50,240,230,2,1,2,1,2,450,C-BAG-24-081-03,3
market_centers_eq_districts0.160,POINT (85.69309997558344 27.634399414301583),160,10638,6,Bagmati,Central,24,082,Kavrepalanchok,82,Sathighar Bhagawati,240082,C-BAG-24-082-06,85.6931,27.6344,Kavrepalanchok,Sathighar Bhagwati,C-BAG-24-082,Palanchok,6,1,2,1,2,Banepa,1,20,2,"Rire,Oil Salt,shop etc",2,2,250,6,20,50,240,230,2,1,1,2,1,450,C-BAG-24-082-06,2
market_centers_eq_districts0.161,POINT (85.60109710714585 27.5055007932271),161,10647,6,Bagmati,Central,24,083,Kavrepalanchok,83,Sikhar Ambote,240083,C-BAG-24-083-06,85.6011,27.5055,Kavrepalanchok,Sikhar Ambote,C-BAG-24-083,Falamesangu,6,2,2,2,2,Banepa,1,20,2,"Rire,Oil Salt,shop etc",2,3,500,400,20,50,240,230,2,1,2,1,2,450,C-BAG-24-083-06,2
market_centers_eq_districts0.162,POINT (85.78379821821324 27.659200668576034),162,10654,4,Bagmati,Central,24,085,Kavrepalanchok,85,Simthali,240085,C-BAG-24-085-04,85.7838,27.6592,Kavrepalanchok,Simthali,C-BAG-24-085,Bhumetham,4,2,2,2,2,Banepa,1,10,2,"Rire,Oil Salt,shop etc",2,3,250,6,0,50,0,230,2,1,2,1,2,450,C-BAG-24-085-04,2
market_centers_eq_districts0.163,POINT (85.68530273473345 27.498699188217017),163,10661,2,Bagmati,Central,24,086,Kavrepalanchok,86,Sipali Chilaune,240086,C-BAG-24-086-02,85.6853,27.4987,Kavrepalanchok,Sipali Chilaune,C-BAG-24-086,sipali,2,2,2,3,2,Banepa,1,3,2,"Rire,Oil Salt,shop etc",2,3,250,6,0,50,0,230,2,1,2,1,2,450,C-BAG-24-086-02,3
market_centers_eq_districts0.164,POINT (85.59490203819854 27.568000793102158),164,10679,2,Bagmati,Central,24,084,Kavrepalanchok,84,Simalchour Syampati,240084,C-BAG-24-084-02,85.5949,27.568,Kavrepalanchok,Shyampati,C-BAG-24-084,Simalchaur,2,1,2,2,2,Banepa,1,5,2,"Rire,Oil Salt,shop etc",2,2,200,50,10,50,250,230,2,1,1,1,2,450,C-BAG-24-084-02,2
market_centers_eq_districts0.165,POINT (85.77770233189716 27.524200439698575),165,10691,5,Bagmati,Central,24,088,Kavrepalanchok,88,Thulo Parsel,240088,C-BAG-24-088-05,85.7777,27.5242,Kavrepalanchok,Thulo Parsel,C-BAG-24-088,Parsel,5,2,2,2,2,Banepa,1,3,2,"Rire,Oil Salt,shop etc",2,2,100,10,10,51,240,230,2,1,2,1,2,450,C-BAG-24-088-05,3
market_centers_eq_districts0.166,POINT (85.5123977660441 27.67620086707643),166,10701,6,Bagmati,Central,24,089,Kavrepalanchok,89,Tukucha Nala,240089,C-BAG-24-089-06,85.5124,27.6762,Kavrepalanchok,Tukucha Nala,C-BAG-24-089,Ghimiregau,6,2,1,1,3,Banepa,1,12,3,"Rire,Oil Salt,shop etc",2,1,200,50,60,53,230,240,1,1,1,2,1,450,C-BAG-24-089-06,2
market_centers_eq_districts0.167,POINT (85.51119995091705 27.650999069151794),167,10707,3,Bagmati,Central,24,062,Kavrepalanchok,62,Ugrachandi Nala,240062,C-BAG-24-062-03,85.5112,27.651,Kavrepalanchok,NalaUgrachandi,C-BAG-24-062,Nala bazaar,3,3,1,1,2,Banepa,1,15,2,"Rire,Oil Salt,shop etc",2,3,300,6,40,50,230,230,2,1,1,2,2,450,C-BAG-24-062-03,2
market_centers_eq_districts0.168,POINT (85.51540374728518 27.63459968522733),168,10714,1,Bagmati,Central,24,090,Kavrepalanchok,90,Ugratara Janagal,240090,C-BAG-24-090-01,85.5154,27.6346,Kavrepalanchok,Ugratara Janagal,C-BAG-24-090,Banepa,1,2,1,1,3,Banepa,1,21,3,"Rire,Oil Salt,shop etc",2,1,200,50,60,53,230,240,1,1,1,2,1,450,C-BAG-24-090-01,1
market_centers_eq_districts0.169,POINT (85.23429870642025 27.957099914629396),169,11654,3,Bagmati,Central,28,001,Nuwakot,1,Bageswori,280001,C-BAG-28-001-03,85.2343,27.9571,Nuwakot,BagesworiChokade,C-BAG-28-001,Chokade,3,2,2,2,2,Trishuli,1,5,2,"rice, oil, lentil, salt, soap",1,2,800,100,40,60,260,235,2,1,2,1,1,460,C-BAG-28-001-03,2
market_centers_eq_districts0.170,POINT (85.1630020140318 27.925100326618804),170,11715,1,Bagmati,Central,28,008,Nuwakot,8,Bidur Municipality,280008,C-BAG-28-008-01,85.163,27.9251,Nuwakot,BidurN.P.,C-BAG-28-008,Trishuli,1,3,1,1,2,Birgunj,1,8,3,"rice, oil, lentil, salt, soap",1,1,1200,200,140,55,250,220,1,1,1,2,1,460,C-BAG-28-008-01,2
market_centers_eq_districts0.171,POINT (85.1613006594979 27.902700424085367),171,11719,3,Bagmati,Central,28,008,Nuwakot,8,Bidur Municipality,280008,C-BAG-28-008-03,85.1613,27.9027,Nuwakot,BidurN.P.,C-BAG-28-008,Battar,3,3,1,1,2,Birgunj,1,6,3,"rice, oil, lentil, salt, soap",1,1,1200,210,175,50,250,220,1,1,1,2,2,460,C-BAG-28-008-03,1
market_centers_eq_districts0.172,POINT (85.10299682614266 27.970899581550498),172,11805,8,Bagmati,Central,28,017,Nuwakot,17,Deurali,280017,C-BAG-28-017-08,85.103,27.9709,Nuwakot,Deurali,C-BAG-28-017,Deurali,8,2,2,2,2,Trishuli,1,5,3,"rice, oil, lentil, salt, soap",1,2,700,100,50,60,260,230,2,1,2,1,1,460,C-BAG-28-017-08,2
market_centers_eq_districts0.173,POINT (85.18180084223513 27.960399627940546),173,11837,4,Bagmati,Central,28,022,Nuwakot,22,Gerkhu,280022,C-BAG-28-022-04,85.1818,27.9604,Nuwakot,Gerkhu,C-BAG-28-022,Betrawati,4,3,1,1,2,Trishuli,1,5,3,"rice, oil, lentil, salt, soap",1,1,840,150,100,55,250,230,1,1,1,2,1,460,C-BAG-28-022-04,2
market_centers_eq_districts0.174,POINT (85.2344970698839 27.826900481771872),174,11890,3,Bagmati,Central,28,027,Nuwakot,27,Kakani,280027,C-BAG-28-027-03,85.2345,27.8269,Nuwakot,Kakani,C-BAG-28-027,Ranipauwa,3,3,1,1,2,Kathmandu,1,5,3,"rice, oil, lentil, salt, soap",1,1,840,70,63,55,250,220,1,1,1,1,1,460,C-BAG-28-027-03,2
market_centers_eq_districts0.175,POINT (85.13749694852544 27.99810028100319),175,11913,8,Bagmati,Central,28,030,Nuwakot,30,Kaule,280030,C-BAG-28-030-08,85.1375,27.9981,Nuwakot,Kaule,C-BAG-28-030,Kaule Bazaar,8,2,2,2,2,Trishuli,1,3,2,"rice, oil, lentil, salt, soap",2,3,840,70,63,55,250,230,2,2,2,1,2,460,C-BAG-28-030-08,3
market_centers_eq_districts0.176,POINT (85.20590209930248 27.90480041480737),176,11927,4,Bagmati,Central,28,033,Nuwakot,33,Khanigaun,280033,C-BAG-28-033-04,85.2059,27.9048,Nuwakot,KholegaunKhanigau,C-BAG-28-033,Dhikure,4,3,1,1,2,Birgunj,1,5,3,"rice, oil, lentil, salt, soap",1,1,1000,120,100,55,250,230,1,1,1,1,1,460,C-BAG-28-033-04,2
market_centers_eq_districts0.177,POINT (85.30780029274939 27.920400619792815),177,11933,1,Bagmati,Central,28,032,Nuwakot,32,Kharanitar,280032,C-BAG-28-032-01,85.3078,27.9204,Nuwakot,Kharanitar,C-BAG-28-032,Kharanitar,1,1,2,1,2,Trishuli,1,4,2,"rice, oil, lentil, salt, soap",1,2,900,80,70,55,260,230,1,1,1,1,1,460,C-BAG-28-032-01,3
market_centers_eq_districts0.178,POINT (85.18379974376325 28.015800475811375),178,12004,9,Bagmati,Central,28,040,Nuwakot,40,Manakamana,280040,C-BAG-28-040-09,85.1838,28.0158,Nuwakot,Manakamana,C-BAG-28-040,Shantibazaar,9,2,2,2,2,Trishuli,1,4,3,"rice, oil, lentil, salt, soap",1,2,600,45,80,55,260,230,2,2,2,1,2,460,C-BAG-28-040-09,3
market_centers_eq_districts0.179,POINT (85.15579986537153 28.009099959995183),179,12036,5,Bagmati,Central,28,019,Nuwakot,19,Fikuri,280019,C-BAG-28-019-05,85.1558,28.0091,Nuwakot,Fikuri,C-BAG-28-019,Fikuri,5,2,2,2,2,Trishuli,1,4,2,"rice, oil, lentil, salt, soap",2,2,600,45,80,55,260,0,2,1,2,1,1,460,C-BAG-28-019-05,3
market_centers_eq_districts0.180,POINT (85.04759979229664 27.847099304389417),180,12057,8,Bagmati,Central,28,045,Nuwakot,45,Ratmate,280045,C-BAG-28-045-08,85.0476,27.8471,Nuwakot,Ratmate,C-BAG-28-045,Ratmate,8,2,1,1,2,Birgunj,1,4,3,"rice, oil, lentil, salt, soap",1,2,700,100,100,50,250,220,2,1,2,1,2,460,C-BAG-28-045-08,3
market_centers_eq_districts0.181,POINT (85.0556030273579 27.949699401606154),181,12077,1,Bagmati,Central,28,048,Nuwakot,48,Samari,280048,C-BAG-28-048-01,85.0556,27.9497,Nuwakot,Samari,C-BAG-28-048,Samari Bhanjyang,1,2,2,2,2,Trishuli,1,4,2,"rice, oil, lentil, salt, soap",1,2,600,100,80,60,260,235,2,1,2,1,1,460,C-BAG-28-048-01,3
market_centers_eq_districts0.182,POINT (85.37909698513783 27.9286003108557),182,12098,4,Bagmati,Central,28,050,Nuwakot,50,Samundratar,280050,C-BAG-28-050-04,85.3791,27.9286,Nuwakot,Samundratar,C-BAG-28-050,Samundratar,4,1,2,2,3,Trishuli,1,3,2,"rice, oil, lentil, salt, soap",2,3,420,56,28,60,260,230,2,2,2,1,1,460,C-BAG-28-050-04,3
market_centers_eq_districts0.183,POINT (85.35659789997317 27.926599502764873),183,12124,3,Bagmati,Central,28,053,Nuwakot,53,Sundaradevi,280053,C-BAG-28-053-03,85.3566,27.9266,Nuwakot,Sundaradevi,C-BAG-28-053,Satbise,3,2,2,1,2,Trishuli,1,4,2,"rice, oil, lentil, salt, soap",2,3,500,50,50,55,260,230,2,1,2,1,2,460,C-BAG-28-053-03,3
market_centers_eq_districts0.184,POINT (85.28119659384777 27.861299514960706),184,12176,1,Bagmati,Central,28,059,Nuwakot,59,Thansing,280059,C-BAG-28-059-01,85.2812,27.8613,Nuwakot,Thansing,C-BAG-28-059,Chhahare,1,3,1,2,2,Trishuli/Battar,1,5,3,"rice, oil, lentil, salt, soap",1,2,900,40,45,50,250,230,1,1,1,1,1,460,C-BAG-28-059-01,2
market_centers_eq_districts0.185,POINT (85.23539733891613 28.000999450664153),185,12212,1,Bagmati,Central,29,001,Rasuwa,1,Bhorle,290001,C-BAG-29-001-01,85.2354,28.001,Rasuwa,Bhorle,C-BAG-29-001,Jibjibe,1,2,2,3,3,Trishuli,1,5,3,"rice, oil, lentil, salt, soap",2,2,700,60,30,60,255,240,2,1,2,1,2,420,C-BAG-29-001-01,3
market_centers_eq_districts0.186,POINT (85.30410003668737 28.18759918215659),186,12230,1,Bagmati,Central,29,003,Rasuwa,3,Chilime,290003,C-BAG-29-003-01,85.3041,28.1876,Rasuwa,Chilime,C-BAG-29-003,Thambuchet,1,2,2,2,2,Trishuli,1,5,2,"rice, oil, lentil, salt, soap",2,3,500,40,35,60,270,250,2,2,2,1,1,420,C-BAG-29-003-01,2
market_centers_eq_districts0.187,POINT (85.29290008587031 28.109100342007252),187,12252,5,Bagmati,Central,29,005,Rasuwa,5,Dhunche,290005,C-BAG-29-005-05,85.2929,28.1091,Rasuwa,Dhunche,C-BAG-29-005,Dhunche,5,2,1,1,2,Trishuli,1,6,3,"rice, oil, lentil, salt, soap",2,2,700,100,40,60,260,245,1,1,1,2,1,420,C-BAG-29-005-05,2
market_centers_eq_districts0.188,POINT (85.24369812007222 28.155899047702917),188,12262,6,Bagmati,Central,29,006,Rasuwa,6,Gatlang,290006,C-BAG-29-006-06,85.2437,28.1559,Rasuwa,Gatlang,C-BAG-29-006,Gatlang,6,1,2,2,2,Trishuli,1,3,2,"rice, oil, lentil, salt, soap",2,3,400,30,35,65,270,250,2,2,2,1,2,420,C-BAG-29-006-06,3
market_centers_eq_districts0.189,POINT (85.20670318570353 27.99810028100319),189,12288,5,Bagmati,Central,29,009,Rasuwa,9,Dhaibung,290009,C-BAG-29-009-05,85.2067,27.9981,Rasuwa,Dhaibung,C-BAG-29-009,Kalikasthan,5,3,1,1,2,Trishuli,1,6,3,"rice, oil, lentil, salt, soap",1,1,840,150,70,60,255,240,1,1,1,2,1,420,C-BAG-29-009-05,2
market_centers_eq_districts0.190,POINT (85.18720245373032 27.982200622460823),190,12293,1,Bagmati,Central,29,010,Rasuwa,10,Laharepouwa,290010,C-BAG-29-010-01,85.1872,27.9822,Rasuwa,Laharepouwa,C-BAG-29-010,Betrawati,1,3,1,1,2,Trishuli,1,5,3,"rice, oil, lentil, salt, soap",1,1,840,150,70,55,250,230,1,1,1,2,1,420,C-BAG-29-010-01,2
market_centers_eq_districts0.191,POINT (85.27649688702178 27.970399856168456),191,12320,1,Bagmati,Central,29,013,Rasuwa,13,Saramthali,290013,C-BAG-29-013-01,85.2765,27.9704,Rasuwa,Saramthali,C-BAG-29-013,Saramthali,1,1,2,3,2,Trishuli,1,3,2,"rice, oil, lentil, salt, soap",2,3,400,40,21,60,260,240,2,2,2,1,2,420,C-BAG-29-013-01,3
market_centers_eq_districts0.192,POINT (85.33360290524996 28.166099548655325),192,12337,9,Bagmati,Central,29,014,Rasuwa,14,Syafru,290014,C-BAG-29-014-09,85.3336,28.1661,Rasuwa,Syafru,C-BAG-29-014,Syafrubesi,9,2,1,1,2,Trishuli,1,6,3,"rice, oil, lentil, salt, soap",2,2,630,80,42,60,260,240,1,1,1,2,1,420,C-BAG-29-014-09,2
market_centers_eq_districts0.193,POINT (85.38819885269493 28.25149917644586),193,12360,5,Bagmati,Central,29,017,Rasuwa,17,Timure,290017,C-BAG-29-017-05,85.3882,28.2515,Rasuwa,Timure,C-BAG-29-017,Timure,5,1,2,2,2,Trishuli,1,3,3,"rice, oil, lentil, salt, soap",2,2,500,80,35,65,265,245,1,2,2,1,1,420,C-BAG-29-017-05,3
market_centers_eq_districts0.194,POINT (84.83360290534984 28.0242996213305),194,12377,4,Bagmati,Central,30,001,Dhading,1,Aginchok,300001,C-BAG-30-001-04,84.8336,28.0243,Dhading,Aginchok,C-BAG-30-001,Arughat,4,1,2,2,2,Dhading Besi,2,70,3,,2,3,0,0,0,60,260,270,2,1,2,1,2,1000,C-BAG-30-001-04,1
market_centers_eq_districts0.195,POINT (85.0070037844971 27.777000427128087),195,12390,8,Bagmati,Central,30,002,Dhading,2,Baireni,300002,C-BAG-30-002-08,85.007,27.777,Dhading,Baireni,C-BAG-30-002,Galchi,8,4,3,1,3,"Narayanghat, Birgunj",1,100,3,,1,1,15000,9000,1000,50,240,250,2,1,2,2,1,700,C-BAG-30-002-08,1
market_centers_eq_districts0.196,POINT (84.87129974348841 28.107900619418103),196,12395,4,Bagmati,Central,30,003,Dhading,3,Baseri,300003,C-BAG-30-003-04,84.8713,28.1079,Dhading,Baseri,C-BAG-30-003,Arughat,4,1,2,2,2,Dhading Besi,3,70,2,,2,2,0,0,0,56,265,265,2,1,2,1,2,700,C-BAG-30-003-04,1
market_centers_eq_districts0.197,POINT (84.79570007300003 27.78310012836829),197,12404,4,Bagmati,Central,30,004,Dhading,4,Benighat,300004,C-BAG-30-004-04,84.7957,27.7831,Dhading,Benighat,C-BAG-30-004,Benighat,4,3,1,2,3,"Narayanghat, Birgunj",1,150,3,"Rice. Oil, Lentil, Soap, CGI",1,2,20000,9600,700,50,240,250,1,1,1,1,1,700,C-BAG-30-004-04,1
market_centers_eq_districts0.198,POINT (85.01650238078031 27.751800536665485),198,12418,9,BAGMATI,,30,005,Dhading,5,Bhumesthan,300005,C-BAG-30-005-09,85.0165,27.7518,Dhading,Bhumesthan,C-BAG-30-005,Simle,9,4,3,2,2,Dhading Besi,2,20,2,,2,2,0,0,0,50,240,250,2,1,2,1,2,700,C-BAG-30-005-09,2
market_centers_eq_districts0.199,POINT (84.86740112306342 28.08230018620469),199,12422,4,Bagmati,Central,30,006,Dhading,6,Budhathum,300006,C-BAG-30-006-04,84.8674,28.0823,Dhading,Budhathum,C-BAG-30-006,Arughat,4,1,2,2,2,Dhading Besi,3,30,2,,2,3,0,0,0,56,265,265,2,1,2,1,2,700,C-BAG-30-006-04,1
market_centers_eq_districts0.200,POINT (84.82790374775982 27.960399627940546),200,12432,5,Bagmati,Central,30,007,Dhading,7,Chainpur,300007,C-BAG-30-007-05,84.8279,27.9604,Dhading,Chainpur,C-BAG-30-007,Saalbas,5,3,1,2,2,Dhading Besi,2,20,3,,1,1,2000,300,150,50,240,250,1,1,1,1,2,650,C-BAG-30-007-05,2
market_centers_eq_districts0.201,POINT (85.21569824257989 27.73089981117738),201,12441,5,Bagmati,Central,30,008,Dhading,8,Chhatredeurali,300008,C-BAG-30-008-05,85.2157,27.7309,Dhading,ChhatreDyaurali,C-BAG-30-008,Naubise,5,4,3,1,2,Kathmandu,1,20,3,"Rice. Oil, Lentil, Soap, CGI",1,1,7000,700,450,50,240,250,1,1,1,1,2,700,C-BAG-30-008-05,2
market_centers_eq_districts0.202,POINT (84.99160003641259 28.050899505307996),202,12446,1,Bagmati,Central,30,009,Dhading,9,Darkha,300009,C-BAG-30-009-01,84.9916,28.0509,Dhading,Darkha,C-BAG-30-009,Kintang fedi,1,1,2,3,1,Dhading Besi,4,30,2,"Rice, Lentil, Salt, Veg Oil",2,3,8000,200,100,60,260,270,2,1,2,1,1,1000,C-BAG-30-009-01,1
market_centers_eq_districts0.203,POINT (84.83540344251492 27.910800933416397),203,12461,7,Bagmati,Central,30,010,Dhading,10,Dhola,300010,C-BAG-30-010-07,84.8354,27.9108,Dhading,Dhola,C-BAG-30-010,Milan Chautara,7,3,1,2,1,Dhading Besi,2,10,2,,1,2,0,0,0,50,240,250,2,1,2,1,1,1000,C-BAG-30-010-07,2
market_centers_eq_districts0.204,POINT (84.74549865733724 27.79330062842132),204,12465,1,Bagmati,Central,30,011,Dhading,11,Dhussa,300011,C-BAG-30-011-01,84.7455,27.7933,Dhading,Dhussa,C-BAG-30-011,Charaudi,1,3,1,2,1,Dhading Besi,2,150,3,"Rice. Oil, Lentil, Soap, CGI",1,1,0,0,0,50,240,250,1,1,1,2,1,600,C-BAG-30-011-01,1
market_centers_eq_districts0.205,POINT (84.98269653321847 27.937000274643026),205,12480,6,Bagmati,Central,30,012,Dhading,12,Dhuwakot,300012,C-BAG-30-012-06,84.9827,27.937,Dhading,Dhuwakot,C-BAG-30-012,Bhangeri than,6,3,1,2,1,Dhading Besi,2,10,2,,2,2,0,0,0,50,240,250,2,1,2,1,1,650,C-BAG-30-012-06,2
market_centers_eq_districts0.206,POINT (84.87850189214868 27.793500900246386),206,12485,1,Bagmati,Central,30,013,Dhading,13,Gajuri,300013,C-BAG-30-013-01,84.8785,27.7935,Dhading,Gajuri,C-BAG-30-013,Gajuri,1,4,1,1,3,"Narayanghat, Birgunj",1,200,3,"Rice. Oil, Lentil, Soap, CGI",1,1,30000,1500,1200,50,240,250,1,1,1,2,1,700,C-BAG-30-013-01,1
market_centers_eq_districts0.207,POINT (85.0606002811781 27.773700713816936),207,12499,5,Bagmati,Central,30,014,Dhading,14,Goganpani,300014,C-BAG-30-014-05,85.0606,27.7737,Dhading,Goganpani,C-BAG-30-014,"Galchi,Baireni",5,4,3,1,2,Kathmandu,1,15,3,"Rice. Oil, Lentil, Soap, CGI",1,0,4000,500,350,50,240,250,2,1,2,1,2,700,C-BAG-30-014-05,2
market_centers_eq_districts0.208,POINT (84.96790313702019 28.066099166643255),208,12506,2,Bagmati,Central,30,015,Dhading,15,Gumdi,300015,C-BAG-30-015-02,84.9679,28.0661,Dhading,Gumdi,C-BAG-30-015,Satdobato,2,1,2,3,3,Dhading Besi,2,22,2,,2,1,0,0,0,50,240,250,2,1,2,1,2,600,C-BAG-30-015-02,1
market_centers_eq_districts0.209,POINT (85.03269958451824 28.129100799362448),209,12515,1,Bagmati,Central,30,017,Dhading,17,Jharlang,300017,C-BAG-30-017-01,85.0327,28.1291,Dhading,Jharlang,C-BAG-30-017,Kintang fedi,1,1,2,4,2,Dhading Besi,3,7,2,,2,3,0,0,0,60,260,270,1,1,1,1,2,1000,C-BAG-30-017-01,3
market_centers_eq_districts0.210,POINT (85.16359710712084 27.75959968587688),210,12527,3,Bagmati,Central,30,016,Dhading,16,Jeewanpur,300016,C-BAG-30-016-03,85.1636,27.7596,Dhading,Jeewanpur,C-BAG-30-016,Dharkhe,3,4,3,2,3,Kathmandu,1,10,3,"Rice. Oil, Lentil, Soap, CGI",1,1,0,0,0,50,240,250,1,1,1,1,2,700,C-BAG-30-016-03,2
market_centers_eq_districts0.211,POINT (84.70809936529355 27.799699783218443),211,12543,9,Bagmati,Central,30,018,Dhading,18,Jogimara,300018,C-BAG-30-018-09,84.7081,27.7997,Dhading,Jogimara,C-BAG-30-018,Majimtar,9,3,1,1,2,Narayanghat,1,100,3,"Rice. Oil, Lentil, Soap, CGI",1,2,21000,800,1050,50,240,250,2,1,2,1,1,600,C-BAG-30-018-09,1
market_centers_eq_districts0.212,POINT (84.88659667999286 27.973699569479606),212,12552,8,Bagmati,Central,30,019,Dhading,19,Jyamrung,300019,C-BAG-30-019-08,84.8866,27.9737,Dhading,Jyamrung,C-BAG-30-019,Cahmbhanjang,8,3,1,2,3,Dhading Besi,2,10,1,,2,3,0,0,0,60,260,270,2,1,2,1,2,700,C-BAG-30-019-08,2
market_centers_eq_districts0.213,POINT (84.98619842491746 27.813499451038865),213,12556,3,Bagmati,Central,30,020,Dhading,20,Kalleri,300020,C-BAG-30-020-03,84.9862,27.8135,Dhading,Kalleri,C-BAG-30-020,Aadamghat,3,4,3,1,3,Dhading Besi,2,15,2,,2,2,0,0,0,50,240,250,2,1,2,1,2,700,C-BAG-30-020-03,2
market_centers_eq_districts0.214,POINT (85.01059722897901 27.959100723619542),214,12564,1,Bagmati,Central,30,021,Dhading,21,Katunje,300021,C-BAG-30-021-01,85.0106,27.9591,Dhading,Katunje,C-BAG-30-021,Katunje,1,3,1,2,3,Dhading Besi,2,50,1,,2,2,0,0,0,50,240,250,2,1,2,1,2,650,C-BAG-30-021-01,1
market_centers_eq_districts0.215,POINT (85.13189697266722 27.752899170060687),215,12574,1,Bagmati,Central,30,022,Dhading,22,Kewalpur,300022,C-BAG-30-022-01,85.1319,27.7529,Dhading,Kewalpur,C-BAG-30-022,Dharkhe,1,4,3,1,3,Kathmandu,1,20,3,,1,1,2000,100,300,50,240,250,1,1,1,1,2,700,C-BAG-30-022-01,2
market_centers_eq_districts0.216,POINT (84.97029876727436 27.8539009093995),216,12586,3,Bagmati,Central,30,023,Dhading,23,Khalte,300023,C-BAG-30-023-03,84.9703,27.8539,Dhading,Khalte,C-BAG-30-023,Fyakse,3,4,3,2,2,Dhading Besi,2,25,2,,2,1,0,0,0,50,240,250,2,1,2,1,2,700,C-BAG-30-023-03,1
market_centers_eq_districts0.217,POINT (84.7483978269982 27.92390060402971),217,12596,3,Bagmati,Central,30,024,Dhading,24,Khari,300024,C-BAG-30-024-03,84.7484,27.9239,Dhading,Khari,C-BAG-30-024,Khari,3,4,3,2,2,Dhading Besi,1,20,2,,2,1,0,0,0,50,240,250,2,1,2,1,2,700,C-BAG-30-024-03,2
market_centers_eq_districts0.218,POINT (84.97100067104418 27.711700439323863),218,12604,1,Bagmati,Central,30,025,Dhading,25,Kiranchok,300025,C-BAG-30-025-01,84.971,27.7117,Dhading,Kiranchok,C-BAG-30-025,Adamghat,1,4,3,2,1,Gajuri,2,15,2,,2,2,0,0,0,56,265,265,2,1,2,1,2,650,C-BAG-30-025-01,2
market_centers_eq_districts0.219,POINT (84.86009979267135 27.84300041213936),219,12615,2,Bagmati,Central,30,026,Dhading,26,Kumpur,300026,C-BAG-30-026-02,84.8601,27.843,Dhading,Kumpur,C-BAG-30-026,Malekhu,2,4,3,1,2,Dhading Besi,2,20,2,,2,3,0,0,0,50,240,250,2,1,2,1,2,700,C-BAG-30-026-02,2
market_centers_eq_districts0.220,POINT (84.78900146464593 27.727399826041164),220,12634,1,Bagmati,Central,30,028,Dhading,28,Mahadevsthan,300028,C-BAG-30-028-01,84.789,27.7274,Dhading,Mahadevsthan,C-BAG-30-028,Talti,1,4,3,2,2,Gajuri,1,25,1,,2,3,0,0,0,56,265,265,2,1,2,1,1,700,C-BAG-30-028-01,1
market_centers_eq_districts0.221,POINT (84.78150176989084 27.87809944163598),221,12648,5,Bagmati,Central,30,029,Dhading,29,Maidi,300029,C-BAG-30-029-05,84.7815,27.8781,Dhading,Maidi,C-BAG-30-029,Satdobato,5,4,3,2,2,Dhading Besi,1,15,2,,1,1,0,0,0,50,240,250,1,1,1,1,1,700,C-BAG-30-029-05,2
market_centers_eq_districts0.222,POINT (84.87329864501652 28.041299819830897),222,12665,3,Bagmati,Central,30,031,Dhading,31,Mulpani,300031,C-BAG-30-031-03,84.8733,28.0413,Dhading,Mulpani,C-BAG-30-031,Mulpani,3,1,2,2,2,Dhading Besi,1,15,2,,2,1,0,0,0,50,240,250,2,1,2,1,2,700,C-BAG-30-031-03,2
market_centers_eq_districts0.223,POINT (84.85900115927615 27.911399841429613),223,12675,3,Bagmati,Central,30,032,Dhading,32,Murali Bhanjyang,300032,C-BAG-30-032-03,84.859,27.9114,Dhading,Muralibhanjyang,C-BAG-30-032,Dhading Besi,3,3,3,1,3,Narayanghat,1,25,3,"Rice. Oil, Lentil, Soap, CGI",1,1,0,0,0,50,240,250,1,1,1,2,1,650,C-BAG-30-032-03,1
market_centers_eq_districts0.224,POINT (84.86309814496349 27.87730026269702),224,12688,6,Bagmati,Central,30,033,Dhading,33,Nalang,300033,C-BAG-30-033-06,84.8631,27.8773,Dhading,Nalang,C-BAG-30-033,Bungchung,6,4,3,2,3,Dhading Besi,1,15,3,,1,1,0,0,0,50,240,250,2,1,2,1,2,650,C-BAG-30-033-06,2
market_centers_eq_districts0.225,POINT (85.13410186750724 27.715400695385824),225,12693,1,Bagmati,Central,30,034,Dhading,34,Naubise,300034,C-BAG-30-034-01,85.1341,27.7154,Dhading,Naubise,C-BAG-30-034,"Dharkhe, Naubise",1,4,3,1,3,"Narayanghat, Birgunj",1,200,3,"Rice. Oil, Lentil, Soap, CGI",1,1,25000,1000,1350,50,240,250,1,1,1,2,1,700,C-BAG-30-034-01,1
market_centers_eq_districts0.226,POINT (84.94509887681176 27.898500442641364),226,12705,3,Bagmati,Central,30,035,Dhading,35,Nilkantha,300035,C-BAG-30-035-03,84.9451,27.8985,Dhading,Nilkantha,C-BAG-30-035,Dhading besi,3,3,1,1,3,"Narayanghat, Birgunj",1,1400,3,"Rice. Oil, Lentil, Soap, CGI",1,1,110000,55000,10000,50,240,250,1,1,1,2,1,700,C-BAG-30-035-03,1
market_centers_eq_districts0.227,POINT (84.897300720352 27.7922992701952),227,12724,2,Bagmati,Central,30,037,Dhading,37,Pida,300037,C-BAG-30-037-02,84.8973,27.7923,Dhading,Pida,C-BAG-30-037,Ghatbesi,2,4,3,2,2,Dhading Besi,1,100,2,,2,1,0,0,0,50,240,250,2,1,2,1,2,650,C-BAG-30-037-02,1
market_centers_eq_districts0.228,POINT (84.83550262424677 27.825899124445073),228,12751,9,Bagmati,Central,30,039,Dhading,39,Salang,300039,C-BAG-30-039-09,84.8355,27.8259,Dhading,Salang,C-BAG-30-039,Salanghat,9,3,2,2,2,Dhading Besi,1,50,3,"Rice. Oil, Lentil, Soap, CGI",2,1,0,0,0,50,240,250,2,1,2,1,2,700,C-BAG-30-039-09,1
market_centers_eq_districts0.229,POINT (84.89459991415475 28.017299651957444),229,12753,2,Bagmati,Central,30,040,Dhading,40,Salyankot,300040,C-BAG-30-040-02,84.8946,28.0173,Dhading,Salyankot,C-BAG-30-040,Salyankot,2,3,2,2,2,Dhading Besi,1,20,2,,2,1,0,0,0,50,240,250,2,1,2,1,2,700,C-BAG-30-040-02,2
market_centers_eq_districts0.230,POINT (84.80039977982602 27.985399246578027),230,12769,8,Bagmati,Central,30,041,Dhading,41,Salyantar,300041,C-BAG-30-041-08,84.8004,27.9854,Dhading,Salyantar,C-BAG-30-041,Arughat,8,1,2,2,2,Dhading Besi,2,70,2,,2,1,20000,14000,600,60,260,270,1,1,1,1,1,1000,C-BAG-30-041-08,1
market_centers_eq_districts0.231,POINT (84.88890075656474 27.92230033868975),231,12774,3,Bagmati,Central,30,042,Dhading,42,Sangkosh,300042,C-BAG-30-042-03,84.8889,27.9223,Dhading,Sangkosh,C-BAG-30-042,Dhading Besi,3,3,1,2,2,Dhading Besi,2,20,2,,2,1,0,0,0,50,240,250,2,1,2,1,2,700,C-BAG-30-042-03,2
market_centers_eq_districts0.232,POINT (84.92910003653753 27.86440086390877),232,12813,2,Bagmati,Central,30,046,Dhading,46,Sunaula Bazar,300046,C-BAG-30-046-02,84.9291,27.8644,Dhading,Sunaulabazar,C-BAG-30-046,Sunaulabaazar,2,4,3,2,2,Dhading Besi,1,15,2,,2,1,0,0,0,50,240,250,2,1,2,1,1,700,C-BAG-30-046-02,2
market_centers_eq_districts0.233,POINT (85.07240295403318 27.716699600606148),233,12825,4,Bagmati,Central,30,047,Dhading,47,Tasarpu,300047,C-BAG-30-047-04,85.0724,27.7167,Dhading,Tasarpu,C-BAG-30-047,Deurali,4,4,3,2,2,Dhading Besi,2,25,2,,2,1,0,0,0,50,240,250,2,1,2,1,1,700,C-BAG-30-047-04,1
market_centers_eq_districts0.234,POINT (85.11840057332785 27.715400695385824),234,12832,1,Bagmati,Central,30,048,Dhading,48,Thakre,300048,C-BAG-30-048-01,85.1184,27.7154,Dhading,Thakre,C-BAG-30-048,Thakre,1,4,3,1,2,Dhading Besi,2,50,2,,2,2,0,0,0,50,240,250,2,1,2,1,2,700,C-BAG-30-048-01,1
market_centers_eq_districts0.235,POINT (85.17070007314993 28.174600601636484),235,12848,7,Bagmati,Central,30,049,Dhading,49,Tipling,300049,C-BAG-30-049-07,85.1707,28.1746,Dhading,Tipling,C-BAG-30-049,Labdung,7,1,2,4,2,Dhading Besi,2,5,2,,2,1,0,0,0,60,260,270,2,1,2,1,2,700,C-BAG-30-049-07,3
market_centers_eq_districts0.236,POINT (84.91239929159411 27.99860000638523),236,12858,8,Bagmati,Central,30,050,Dhading,50,Tripureswor,300050,C-BAG-30-050-08,84.9124,27.9986,Dhading,Tripureswor,C-BAG-30-050,Khare,8,3,1,2,2,Dhading Besi,2,30,2,,2,1,0,0,0,50,240,250,2,1,2,1,1,700,C-BAG-30-050-08,1
market_centers_eq_districts0.237,POINT (84.5438995363346 28.070800780931336),237,16541,8,Gandaki,Western,36,001,Gorkha,1,Aanppipal,360001,W-GAN-36-001-08,84.5439,28.0708,Gorkha,Aanppipal,W-GAN-36-001,Anpipipal,8,1,2,2,2,Thaatipokhari/Dumre(Tanahu Dist)/Chitawan,1,20,2,Food and non-food,2,3,100,20,10,57,240,170,2,1,1,1,1,510,W-GAN-36-001-08,2
market_centers_eq_districts0.238,POINT (84.81670379604338 28.052600860741165),238,16543,1,Gandaki,Western,36,003,Gorkha,3,Aaru Chanaute,360003,W-GAN-36-003-01,84.8167,28.0526,Gorkha,AaruChanuate,W-GAN-36-003,Aarughat,1,1,2,2,2,Dhading/Chitawan,1,20,3,Food and non-food,2,3,150,30,15,60,240,170,1,1,1,2,1,510,W-GAN-36-003-01,2
market_centers_eq_districts0.239,POINT (84.7693023683097 28.176300048708356),239,16572,5,Gandaki,Western,36,067,Gorkha,67,Barpak,360067,W-GAN-36-067-05,84.7693,28.1763,Gorkha,Warpak,W-GAN-36-067,Barpak,5,1,2,2,2,Gorkha,1,10,1,Food and non-food,2,3,50,10,5,62,240,190,2,2,2,1,1,510,W-GAN-36-067-05,2
market_centers_eq_districts0.240,POINT (84.70700073279761 27.850900649645325),240,16582,6,Gandaki,Western,36,009,Gorkha,9,Bhumlichok,360009,W-GAN-36-009-06,84.707,27.8509,Gorkha,Bhumlichok,W-GAN-36-009,Hatiya,6,2,2,2,2,Gorkha,1,5,2,Food and non-food,2,3,50,10,5,56,240,170,2,2,2,1,2,510,W-GAN-36-009-06,2
market_centers_eq_districts0.241,POINT (84.68949890145319 27.970600127993578),241,16605,5,Gandaki,Western,36,012,Gorkha,12,Bungkot,360012,W-GAN-36-012-05,84.6895,27.9706,Gorkha,Bunkot,W-GAN-36-012,khabdi,5,2,2,2,2,Gorkha,1,40,2,Food and non-food,2,3,100,20,10,56,240,170,2,2,2,1,1,510,W-GAN-36-012-05,1
market_centers_eq_districts0.242,POINT (84.58619689956731 28.057500839392276),242,16623,5,Gandaki,Western,36,014,Gorkha,14,Chhoprak,360014,W-GAN-36-014-05,84.5862,28.0575,Gorkha,Chhoprak,W-GAN-36-014,Maidan,5,2,2,2,2,Gorkha,1,7,2,Food and non-food,2,3,50,10,5,55,240,170,2,2,2,1,1,510,W-GAN-36-014-05,2
market_centers_eq_districts0.243,POINT (84.74469757093618 27.873399734809936),243,16648,6,Gandaki,Western,36,017,Gorkha,17,Darbung,360017,W-GAN-36-017-06,84.7447,27.8734,Gorkha,Darbhung,W-GAN-36-017,Darbung Phant,6,2,2,2,2,Gorkha,1,3,2,Food and non-food,2,3,50,10,5,55,240,170,2,1,2,1,2,510,W-GAN-36-017-06,3
market_centers_eq_districts0.244,POINT (84.52899932855621 27.93379974396305),244,16657,6,GANDAKI,,36,018,Gorkha,18,Deurali,360018,W-GAN-36-018-06,84.529,27.9338,Gorkha,Deurali,W-GAN-36-018,Hatiya,6,2,2,2,2,Gorkha,1,4,2,Food and non-food,2,3,50,10,5,56,240,170,2,2,2,1,2,510,W-GAN-36-018-06,3
market_centers_eq_districts0.245,POINT (84.78669738807406 28.017400741151334),245,16663,5,Gandaki,Western,36,019,Gorkha,19,Dhawa,360019,W-GAN-36-019-05,84.7867,28.0174,Gorkha,Dhawa,W-GAN-36-019,Chautara,5,2,2,2,2,Aarughat,1,5,2,Food and non-food,2,3,50,10,5,55,240,170,2,2,2,1,2,510,W-GAN-36-019-05,2
market_centers_eq_districts0.246,POINT (84.51049804644776 28.020000458154698),246,16686,8,Gandaki,Western,36,023,Gorkha,23,Gaikhur,360023,W-GAN-36-023-08,84.5105,28.02,Gorkha,Gaikhur,W-GAN-36-023,Gaikhur,8,2,2,2,2,Thaatipokhari/Dumre(Tanahu Dist)/Chitawan,1,6,2,Food and non-food,2,3,50,10,5,55,240,170,2,1,2,1,2,510,W-GAN-36-023-08,2
market_centers_eq_districts0.247,POINT (84.75910186735734 27.812500000274838),247,16706,9,Gandaki,Western,36,027,Gorkha,27,Ghyalchok,360027,W-GAN-36-027-09,84.7591,27.8125,Gorkha,Ghyalchok,W-GAN-36-027,Syurenitar,9,2,2,2,2,Benighat (Dhading),1,20,2,Food and non-food,2,3,50,10,5,55,240,170,1,2,2,1,1,510,W-GAN-36-027-09,2
market_centers_eq_districts0.248,POINT (84.8223037719016 28.20120048561398),248,16712,6,Gandaki,Western,36,028,Gorkha,28,Gumda,360028,W-GAN-36-028-06,84.8223,28.2012,Gorkha,Gumda,W-GAN-36-028,Gumda,6,1,2,3,3,Gorkha,1,15,1,Food and non-food,2,3,50,10,5,65,260,200,2,2,2,1,2,510,W-GAN-36-028-06,3
market_centers_eq_districts0.249,POINT (84.63849639849008 28.154199600631102),249,16721,6,Gandaki,Western,36,029,Gorkha,29,Hansapur,360029,W-GAN-36-029-06,84.6385,28.1542,Gorkha,Hansapur,W-GAN-36-029,Bhachchek,6,1,2,2,2,Gorkha,1,120,2,Food and non-food,2,2,50,10,5,55,240,170,1,1,1,1,1,510,W-GAN-36-029-06,1
market_centers_eq_districts0.250,POINT (84.56250000017491 28.08699989303068),250,16733,9,Gandaki,Western,36,030,Gorkha,30,Harmi,360030,W-GAN-36-030-09,84.5625,28.087,Gorkha,Harmhi,W-GAN-36-030,Harmi Bhanjyang,9,1,2,2,2,Thaatipokhari/Dumre(Tanahu Dist)/Chitawan,1,10,2,Food and non-food,2,3,50,10,5,55,240,170,2,1,2,1,1,510,W-GAN-36-030-09,2
market_centers_eq_districts0.251,POINT (84.63790130630031 28.140600204635803),251,16734,1,Gandaki,Western,36,031,Gorkha,31,Jaubari,360031,W-GAN-36-031-01,84.6379,28.1406,Gorkha,Jaubari,W-GAN-36-031,Jaubari,1,2,2,2,2,Gorkha,1,5,2,Food and non-food,2,3,50,10,5,55,240,170,2,2,2,1,1,510,W-GAN-36-031-01,2
market_centers_eq_districts0.252,POINT (84.56950378447215 28.005599975758344),252,16779,9,Gandaki,Western,36,036,Gorkha,36,Khoplang,360036,W-GAN-36-036-09,84.5695,28.0056,Gorkha,Khoplang,W-GAN-36-036,Saatdobate,9,2,2,2,2,Gorkha,1,7,3,Food and non-food,2,3,50,10,5,55,240,170,2,2,2,1,2,510,W-GAN-36-036-09,2
market_centers_eq_districts0.253,POINT (84.80039977982602 28.204700469850877),253,16787,8,Gandaki,Western,36,037,Gorkha,37,Laprak,360037,W-GAN-36-037-08,84.8004,28.2047,Gorkha,Laprak,W-GAN-36-037,Laprak,8,1,2,3,3,Gorkha,1,15,1,Food and non-food,2,3,50,10,5,65,260,250,2,2,2,1,2,510,W-GAN-36-037-08,3
market_centers_eq_districts0.254,POINT (84.66580200206079 27.881799697697943),254,16813,7,Gandaki,Western,36,040,Gorkha,40,Makaising,360040,W-GAN-36-040-07,84.6658,27.8818,Gorkha,Makaising,W-GAN-36-040,Hatiya,7,1,2,2,2,Fisling(Chitawan),1,5,2,Food and non-food,2,3,50,10,5,55,240,170,2,2,2,1,2,510,W-GAN-36-040-07,2
market_centers_eq_districts0.255,POINT (84.5998992922186 27.900899886920286),255,16817,2,Gandaki,Western,36,041,Gorkha,41,Manakamana,360041,W-GAN-36-041-02,84.5999,27.9009,Gorkha,Manakamana,W-GAN-36-041,Manakamana,2,1,2,2,2,Aanbukhaireni (Tanahu),1,15,3,Food and non-food,2,3,75,15,7.5,56,240,170,1,1,1,1,1,510,W-GAN-36-041-02,2
market_centers_eq_districts0.256,POINT (84.52040100130523 27.98760032649392),256,16841,8,Gandaki,Western,36,008,Gorkha,8,Mirkot,360008,W-GAN-36-008-08,84.5204,27.9876,Gorkha,Bhirkot,W-GAN-36-008,Sera,8,2,2,2,2,Gorkha,1,12,2,Food and non-food,2,3,50,10,5,55,240,170,2,2,2,1,1,510,W-GAN-36-008-08,2
market_centers_eq_districts0.257,POINT (84.70719909626132 27.927099228146915),257,16854,5,Gandaki,Western,36,045,Gorkha,45,Namjung,360045,W-GAN-36-045-05,84.7072,27.9271,Gorkha,Namjung,W-GAN-36-045,Namjung Bazaar,5,2,2,2,2,Gorkha,1,6,2,Food and non-food,2,3,50,10,5,55,240,170,2,1,2,1,2,510,W-GAN-36-045-05,2
market_centers_eq_districts0.258,POINT (84.71279907211954 27.894800186579403),258,16865,2,Gandaki,Western,36,022,Gorkha,22,Fujel,360022,W-GAN-36-022-02,84.7128,27.8948,Gorkha,Fujel,W-GAN-36-022,Pauwa,2,2,2,2,2,Gorkha,1,5,2,Food and non-food,2,3,50,10,5,55,240,170,2,2,2,1,2,510,W-GAN-36-022-02,2
market_centers_eq_districts0.259,POINT (84.62139892571992 28.000400543550313),259,16875,2,Gandaki,Western,36,050,Gorkha,50,Gorkha Municipality,360050,W-GAN-36-050-02,84.6214,28.0004,Gorkha,PrithbinarayanN.P.,W-GAN-36-050,Gorkha,2,3,2,1,2,Chitawan,1,150,3,Food and non-food,2,2,200,40,20,55,240,170,1,1,1,2,2,510,W-GAN-36-050-02,1
market_centers_eq_districts0.260,POINT (84.64119720468733 27.924999237424913),260,16930,8,Gandaki,Western,36,058,Gorkha,58,Taklung,360058,W-GAN-36-058-08,84.6412,27.925,Gorkha,Taklung,W-GAN-36-058,Tinmane,8,2,2,2,2,Gorkha,1,3,2,Food and non-food,2,3,50,10,5,55,240,170,2,2,2,1,2,510,W-GAN-36-058-08,3
market_centers_eq_districts0.261,POINT (84.67790222191007 27.903699874849394),261,16941,3,Gandaki,Western,36,062,Gorkha,62,Tanglichok,360062,W-GAN-36-062-03,84.6779,27.9037,Gorkha,Tanglichok,W-GAN-36-062,Batase,3,2,2,2,2,Gorkha,1,3,2,Food and non-food,2,3,50,10,5,55,240,170,2,2,2,1,1,510,W-GAN-36-062-03,3
market_centers_eq_districts0.262,POINT (84.57700347922724 28.102199554365995),262,16954,7,Gandaki,Western,36,064,Gorkha,64,Thalajung,360064,W-GAN-36-064-07,84.577,28.1022,Gorkha,Thalajung,W-GAN-36-064,Nayabazar,7,1,2,2,2,Gorkha,1,7,2,Food and non-food,2,3,50,10,5,56,240,170,2,2,2,1,2,510,W-GAN-36-064-07,2
market_centers_eq_districts0.263,POINT (84.83640289327894 28.10569953950221),263,16961,5,Gandaki,Western,36,065,Gorkha,65,Thumi,360065,W-GAN-36-065-05,84.8364,28.1057,Gorkha,Thumi,W-GAN-36-065,Arkhet,5,1,2,2,2,Dhading/Chitawan,1,15,2,Food and non-food,1,2,50,10,5,60,250,175,2,2,2,1,1,510,W-GAN-36-065-05,2
market_centers_eq_districts0.264,POINT (84.71959686310481 28.00819969186233),264,35725,7,Gandaki,Western,36,005,Gorkha,5,Asrang,360005,W-GAN-36-005-07,84.7196,28.0082,Gorkha,Asrang,W-GAN-36-005,Thati,7,1,2,2,2,Gorkha,1,5,2,Food and non-food,2,3,50,10,5,55,240,170,2,2,2,1,2,510,W-GAN-36-005-07,2
market_centers_eq_districts0.265,POINT (84.62390136755414 28.044500350510816),265,35740,5,Gandaki,Western,36,024,Gorkha,24,Gankhu,360024,W-GAN-36-024-05,84.6239,28.0445,Gorkha,Gakhu,W-GAN-36-024,Naya  Saangu,5,2,2,2,2,Gorkha,1,4,2,Food and non-food,2,3,50,10,5,55,240,170,2,2,2,1,2,510,W-GAN-36-024-05,3
market_centers_eq_districts0.266,POINT (84.7267990108657 28.041299819830897),266,35761,9,Gandaki,Western,36,043,Gorkha,43,Masel,360043,W-GAN-36-043-09,84.7268,28.0413,Gorkha,Masel,W-GAN-36-043,Ghyampesal,9,1,2,2,2,Gorkha,1,7,2,Food and non-food,2,2,50,10,5,57,240,170,1,1,1,1,1,510,W-GAN-36-043-09,2
market_centers_eq_districts0.267,POINT (84.64009857219139 28.021400451669535),267,35764,1,Gandaki,Western,36,046,Gorkha,46,Nareshwor,360046,W-GAN-36-046-01,84.6401,28.0214,Gorkha,Nareshwor,W-GAN-36-046,Nareswor,1,1,2,2,2,Gorkha,1,5,2,Food and non-food,2,3,50,10,5,55,240,170,2,2,2,1,2,510,W-GAN-36-046-01,2
market_centers_eq_districts0.268,POINT (84.73619842541706 28.073900222417365),268,35774,5,Gandaki,Western,36,048,Gorkha,48,Panchkhuwa Deurali,360048,W-GAN-36-048-05,84.7362,28.0739,Gorkha,Panchkhuwadeurali,W-GAN-36-048,Deurali Bazaar,5,2,2,2,2,Gorkha,1,20,2,Food and non-food,2,3,100,20,10,55,240,170,2,1,2,1,2,510,W-GAN-36-048-05,2
market_centers_eq_districts0.269,POINT (84.63880157443316 28.09530067418683),269,35801,3,Gandaki,Western,36,054,Gorkha,54,Shreenathkot,360054,W-GAN-36-054-03,84.6388,28.0953,Gorkha,Shreenathkot,W-GAN-36-054,Gohare,3,2,2,2,2,Gorkha,1,3,2,Food and non-food,2,3,50,10,5,55,240,170,2,2,2,1,2,510,W-GAN-36-054-03,3
market_centers_eq_districts0.270,POINT (84.67919921876899 28.097600936733897),270,35815,1,Gandaki,Western,36,060,Gorkha,60,Takumajh Lakuribot,360060,W-GAN-36-060-01,84.6792,28.0976,Gorkha,Takumajhalakuribot,W-GAN-36-060,Lakuribot,1,2,2,2,2,Gorkha,1,7,2,Food and non-food,2,3,50,10,5,55,240,170,2,2,2,1,2,510,W-GAN-36-060-01,2
market_centers_eq_districts0.271,POINT (84.68009948690184 28.036399841179787),271,35829,4,Gandaki,Western,36,063,Gorkha,63,Taple,360063,W-GAN-36-063-04,84.6801,28.0364,Gorkha,Taple,W-GAN-36-063,Ahale Bhanjyang,4,2,2,2,2,Gorkha,1,10,3,Food and non-food,2,3,50,10,5,55,240,170,2,2,1,1,2,510,W-GAN-36-063-04,2
market_centers_eq_districts0.272,POINT (84.70269775379836 28.088899612826935),272,35837,4,Gandaki,Western,36,059,Gorkha,59,Takukot,360059,W-GAN-36-059-04,84.7027,28.0889,Gorkha,Takukot,W-GAN-36-059,Palkhu,4,2,2,2,2,Gorkha,1,5,2,Food and non-food,2,3,50,10,5,56,240,170,2,2,2,1,1,510,W-GAN-36-059-04,2
market_centers_eq_districts0.273,POINT (84.74340057407727 27.988300323701026),273,35854,3,Gandaki,Western,36,011,Gorkha,11,Borlang,360011,W-GAN-36-011-03,84.7434,27.9883,Gorkha,Borlang,W-GAN-36-011,Hatiya,3,2,2,2,2,Gorkha,1,15,2,Food and non-food,2,3,50,10,5,55,240,170,2,2,2,1,2,510,W-GAN-36-011-03,2
market_centers_eq_districts0.274,POINT (84.48040008569546 28.04579925573114),274,35868,9,Gandaki,Western,36,047,Gorkha,47,Palungtar,360047,W-GAN-36-047-09,84.4804,28.0458,Gorkha,Palumtar,W-GAN-36-047,Thaatipokhari,9,2,2,2,2,Dumre (Tanahu)/Chitawan,1,20,3,Food and non-food,1,2,50,10,5,55,240,170,1,1,1,2,1,510,W-GAN-36-047-09,2
