name,operator_type,opening_hours,phone_number,email_address,number_of_employees,number_of_students,comments,type,lat,long
Heavenly Garden Montessori,private,Su- Fr 9:00-16:00,9846034944  9846036219 9856036219,,8,,,kindergarten,28.19016518,83.96545205
Kids Valley Montessori,private,,061-461211,,,,,kindergarten,28.1883932,83.96998095
Growing Buds Pre-School,,10:00-16:00,061-526002,,,,,kindergarten,28.22604638,83.99972515
Balbatika Montessori Pre School,private,,061-534737  9846035744,,,,,kindergarten,28.2140626,83.98314297
My Montessori Pre School,private,,061-551057  9804109427  9806601880  9806790229,mymontessori061@gmail.com,,,,kindergarten,28.21440255,83.9836698
Akshyar Montessori,private,,9804180490,,,35,,kindergarten,28.21568732,83.97927885
Small Heaven Montessori,,,,,,,,kindergarten,28.21240163,84.00392827
Muna Montessori School,private,,,,,,,kindergarten,28.23452875,83.98341078
Bal Bikas Kendra,,,,,,,,kindergarten,28.18784203,84.02626953
Chhunumunu Kinder Homes,private,,9856004799,,,,,kindergarten,28.20796708,83.97606938
Bihani Montesory,private,10:00-16:00,061-525409,,,,,kindergarten,28.2214438,83.9790097
Puspa Sadan Acadeny,private,10:00-17:00,,,,,,kindergarten,28.2201222,84.0000492
Kalyan Tatha Surakshya Samiti Diwa Sisu Shayar kendra,,,,,,,,kindergarten,28.20758735,84.01100695
Angels Montessori Pre-School,private,,061-463032,,,,,kindergarten,28.21023413,83.9709399
Himalaya Montessori English Bording school,,,,,,,,kindergarten,28.19077777,83.9801777
Bal Bikas Kendra,government,,,,,,,kindergarten,28.19178215,83.98246187
Hills Bud Montessori School,private,Su-Th 10:00-16:00  Fr 10:00-13:00,,,8,108,,kindergarten,28.2143799,84.00731828
Pokhara Montessori Kinder Home,private,08:30-17:00,061-442277,,8,24,,kindergarten,28.24932145,83.9864631
Safe Kids Pre School,,,,,,,,kindergarten,28.219287,83.9887782
Crystal International Montessori Kinder World,,,061 461773  9806698277,,,,,kindergarten,28.20809174,83.96582087
New Baby Montessori school,,,61691060,,,,,kindergarten,28.24334868,83.98932215
Jasmine Montessori,private,,,,,,,kindergarten,28.22576882,83.99636863
Child Development Pre-primary Health Care Centre,government,Su-Fr 10:00-14:00,61465706,,,,,kindergarten,28.24186256,83.95046945
Bindabasini Child Care,private,,,,,,,kindergarten,28.23855905,83.98249985
Metro Playgroup Section,private,,061-536045  061-539171,,,,,kindergarten,28.20914428,83.99885815
Emmanuel Montessori,,,,,,,,kindergarten,28.18341813,83.99003268
Pragma Montessori Home,,,061-530739  9846024752,,,,,kindergarten,28.22177262,83.98926037
Sakura Montessori And Pre School,private,,061-432723,,,,,kindergarten,28.2022841,83.99444742
Stuti Trillium Montessori,,,061-532253  9846084406,,,,,kindergarten,28.21089952,83.99865531
Suvatara 3 Angel Montessory School,,,061-430298,,,,,kindergarten,28.20563432,83.99358905
Mount Abora Montessori Academy,private,,061-696491,,,,,kindergarten,28.2043609,83.99872787
Ridgewater Montessori School,private,,9805894654  061-431395,,,,,kindergarten,28.20379174,84.00106823
Mount Tops Kids Zone,,,,,,,,kindergarten,28.21844045,84.03150877
Little Leareners Boarding School And Montessori,private,,61533083,Deepu.bhari@gmail.com,4,42,,kindergarten,28.23384678,83.98043968
Saint Valley Pre School,private,,61539967,Saintvalleym@gmail.com,,42,,kindergarten,28.23596683,83.98083903
Prime Montessori School,,,,,,,,kindergarten,28.23140848,83.99749483
Holy Kindergarden School,,,,,,,,kindergarten,28.22066028,83.99062368
Demo Children Homes,,,,,,,,kindergarten,28.20000538,83.9895623
Shree Montessori Preprimary Child Care Centre,,,9846112347,,,,,kindergarten,28.22741595,83.98440567
Malepatan Montessori,private,,61535493,,,,,kindergarten,28.21543385,83.97793505
Little Buds Monteessori,private,10:00-16:00,,,,,,kindergarten,28.20251013,83.97416065
B.M Montessori Elementary School,private,,061-528788,bmmontessori70@gmail.com,,,,kindergarten,28.21928623,84.00013535
Early Childhood Academy,private,10:00-15:00,061-550290,,,,,kindergarten,28.22223077,83.99230275
Euro Kids Pre-School,private,Su-Fr 09:30-15:00,061 535948,,,,,kindergarten,28.2184254,83.98399395
Little Stars Pre-School Academy,private,Mo-Fr 9:30-18:00,9846112347,Littlestarspkr@gmail.com,,,,kindergarten,28.22775345,83.98366735
Pokhara Montessori Kinderhome,private,,61537879,,,,,kindergarten,28.2230851,83.9836818
Spiral Galaxy Academy,private,,61528624,,,,,kindergarten,28.24413468,83.9843319
Nawa Jeewan Montessory,private,,61442150,suchi_jiwan00@yahoo.com,,,,kindergarten,28.25959526,83.97072613
Bluesky Pre-School And Child Care,private,,061-621260,,,,,kindergarten,28.18833732,83.97085768
Holyland Montessori Pre-School,private,,061-466422,,,,,kindergarten,28.19184817,83.9724666
Kids Home Montessori,private,,061-534412,,,,,kindergarten,28.19325542,84.02145926
Merryland Kids Montessori,private,,061-431065,,,,,kindergarten,28.197115,83.9949955
Horizon Montessori Homes,private,,061-695587,,,,,kindergarten,28.18100459,84.01152522
Dreamland Montessori,private,,061-432120,,,,,kindergarten,28.20238593,84.0055422
Children Glory Montessori,,,61528070,,12,90,,kindergarten,28.23591939,83.98393426
Lakecity Montessori and Academy,private,,061 411382,,,,,kindergarten,28.17658355,84.04902143
Bhaidam Balbatika,private,,9846566709  9846087588,,,,,kindergarten,28.20620156,83.96768426
Buddha Montessori,private,,9846044394,,,,,kindergarten,28.18940648,83.96903523
Balsakha Montessori,private,Su-Fr 10:00-15:00,,,,,,kindergarten,28.28082864,83.93160441
SOS Hermann Gmeiner Kindergarten,private,,,,,,,kindergarten,28.18852362,83.95755131
Panas Kids World Montessori,private,,9846756342,,,,,kindergarten,28.19393935,83.96081843
Tender Heart Montessori,private,10:00-15:00,+977 9811717780  9846855996,,,,,kindergarten,28.24391588,83.98662954
Little Garden Montesori,private,,9856072254  9846362254,,,,,kindergarten,28.1655338,84.056241
Educare Montessori,private,,061-229688,,,,,kindergarten,28.2198903,84.0045352
Fairy Land Montesorri,private,,061-461349,,,,,kindergarten,28.2119895,83.9595744
Apex Pre School,private,,,,,,,kindergarten,28.1660966,84.0689585
Red Gold Montessori,private,,985621380,,,,,kindergarten,28.160374,84.0872271
Fulbari Montessori Cottage,private,,,fmcpkr@gmail.com,,,,kindergarten,28.231915,83.9908177
Siddhartha Montessori,private,,,siddhartha.edu.np@gmail.com,,,,kindergarten,28.2178144,83.9977795
Star's Montessori Academy,private,,061 525135,,,,,kindergarten,28.2268141,83.9907058
Well Known Academy,private,,,,,,,kindergarten,28.1844882,84.0029468
Good Luck Montessori,private,Su-Th 10:00-14:30  Fr 10:00-13:00,,,,,,kindergarten,28.2756136,83.9388875
Shangrila Montessori,private,,9806505841,,,,,kindergarten,28.1863973,83.9775597
Rainbow Children Home,private,,,,,,,kindergarten,28.2136503,83.9623027
Global Bal Batika Montessori Pre- School,private,,,,,,,kindergarten,28.2184857,83.9973785
Motherland Higher Secondary School,private,Su-Th 10:00-16:00  Fr 10:00-13:00,,,104,4411,,school,28.21159982,83.97183611
Prativa Higher Secondary School,private,Su-Th 10:00-16:00  Fr 10:00-13:00,61521546,,,,,school,28.22640136,83.99152845
Karunanidhi Education Foundation(KEF) Secondary School,private,06:00-17:00,061-523259 061-412268 061-412409,,70,1400,,school,28.24482741,83.98479793
Sishu Kalyan English Boarding School,private,Su-Th 10:00-16:00  Fr 10:00-13:00,061-461896,skes461896@gmail.com,22,690,,school,28.18907217,83.95458622
LP Devkota English School,private,09:00-17:00,,,28,389,,school,28.19178694,83.96671523
Junior Citizens Academy Higher Sceondary School,private,Su-Th 10:00-16:00  Fr 10:00-13:00,061 411398  411503,,54,1523,,school,28.18153501,84.03972566
Sublime Secondary School,private,Su-Th 10:00-16:00  Fr 10:00-13:00,,,29,746,,school,28.20431653,83.97553372
SOS Hermann Gmeiner English Boarding School,private,Su-Fr 10:00-16:00,61430569,info@soshgsgandaki.edu.np,56,1394,,school,28.20148335,83.98732993
Tal Barahi Ma V,government,09:00-17:00,9846044437,,21,1116,,school,28.21134455,83.96229395
Ekata Secondary School,private,Su-Th 10:00-16:00  Fr 10:00-13:00,061-5201871,,18,532,,school,28.22413981,83.98064044
Nilgiri Boarding School,private,Su-Th 10:00-16:00  Fr 10:00-13:00,9846026557,,31,1209,,school,28.22502326,83.98430422
Kumudini Homes,private,Su-Th 10:00-16:00  Fr 10:00-13:00,61525390,,69,1338,,school,28.22721575,83.9884398
Balmandir Ma V,government,Su-Th 10:00-16:00  Fr 10:00-13:00,061-521082,,37,2126,,school,28.23359678,83.99063148
Tarapunja Education Academy,private,Su-Th 10:00-16:00  Fr 10:00-13:00,9856021534,,22,539,,school,28.23566383,83.98725763
Mt. Annapurna Higher Secondary School,private,Su-Th 10:00-16:00  Fr 10:00-13:00,061-520718  531176  522946,,32,450,,school,28.23118137,83.98599799
Barahi Ma V,government,Su-Th 10:00-16:00  Fr 10:00-13:00,061 419360,,26,910,,school,28.21815924,83.97599423
Indra Rajya Laxmi Ma V,government,09:55-16:05,061-440988,,16,1329,,school,28.26143878,83.9734257
Amar Singh Ma V,government,Su-Th 10:00-16:00  Fr 10:00-13:00,9846032174,,94,5193,,school,28.20816276,84.00143439
Bhaskar Memorial School,private,Su-Fr 10:00- 16:00,061-525504  528374,,42,1223,,school,28.22753174,83.99684152
Co-Ordinator Academy,private,Su-Th 10:00-16:00  Fr 10:00-13:00,,,,,,school,28.23278943,83.99653543
Global Collegiate Higher Sceondary School,private,Su-Th 10:00-16:00  Fr 10:00-13:00,97761524604,,76,1099,,school,28.21765457,83.99921352
Sidda Ma V,government,06:00-04:00,061-430903,,17,444,,school,28.19051629,83.99942394
Rameshwori Ma V,government,Su-Th 10:00-16:00  Fr 10:00-13:00,9856029681,,17,651,,school,28.17743756,84.02294102
Bhadrakali Ma V,government,Su-Th 10:00-16:00  Fr 10:00-13:00,9846037733,,42,1272,,school,28.21360632,84.01153221
Gaurishankar Ma V,government,Su-Th 10:00-16:00  Fr 10:00-13:00,9856019319,,13,1089,,school,28.27859006,83.93977641
Western Gandaki Academy,private,Su-Th 10:00-16:00  Fr 10:00-13:00,,,6,51,,school,28.2905307,83.95073774
Shree Krishna Ma V,government,Su-Th 10:00-16:00  Fr 10:00-13:00,9846147675,,24,821,,school,28.20971781,83.97287664
Kundahar Basic School,government,Su-Th 10:00-16:00  Fr 10:00-13:00,9846361677,,7,241,,school,28.20472382,84.00614292
Ratna Basic School,government,Su-Th 10:00-16:00  Fr 10:00-13:00,+977 9846037937,,11,254,,school,28.24933828,83.9777693
Pokhara Academy (Primary Level),private,Su-Th 10:00-16:00  Fr 10:00-13:00,9846778188,,33,811,,school,28.26384771,83.98032335
Pragati English Boarding School,private,09:00-17:00,061-440204,pragatischool.pokhara@gmail.com,78,1150,,school,28.26504227,83.97778216
New Model Academy,private,Su-Th 10:00-16:00  Fr 10:00-13:00,,,20,443,,school,28.20687448,83.98051855
Pokhara Academy (Seondary Level),private,Su-Th 10:00-16:00  Fr 10:00-13:00,9846778188,,33,811,,school,28.26092807,83.98781881
Rastriya Ma V,government,Su-Th 10:00-16:00  Fr 10:00-13:00,061-520271,,31,3022,,school,28.24180182,83.98462648
Alpha Boarding School,private,10:00-16:00,061-440319,alphabs2045@gmail.com,27,701,,school,28.26249064,83.97386214
Little Step Higher Secondary School,private,Su-Th 10:00-16:00  Fr 10:00-13:00,,,11,92,,school,28.24371075,83.9899357
Bishnu Padhukaa Ma V,government,Su-Th 10:00-16:00  Fr 10:00-13:00,9846059307,,21,788,,school,28.26898232,83.9505435
Gyanodaya Boarding School,private,Su-Th 10:00-16:00  Fr 10:00-13:00,9846061046,,13,91,,school,28.21309125,83.9606995
Shishu Niketan Higher Secondary School,private,Su-Fr 10:00-16:00,061-461598  460601  460603,shishuniketan2040@gmail.com,51,2334,,school,28.19050068,83.97323725
Balodaya Higher Secondary School,private,Su- Fr 5:00-17:00,061-461442,info@bebs.edu.np,38,1088,,school,28.18947924,83.96758897
Shanti Deep English Boarding School,private,Su-Th 10:00-16:00  Fr 10:00-13:00,,,20,616,,school,28.17504258,84.02660465
Great Compassion Boarding School,private,Su-Th 10:00-16:00  Fr 10:00-13:00,,,,,,school,28.23049924,83.94871489
Makanna Devi Basic School,government,Su-Th 10:00-16:00  Fr 10:00-13:00,9805806026,,2,23,,school,28.22945084,83.85165438
Rainbow Academic Homes Higher Secondary,private,10:00-16:00,061-430557,,44,1655,,school,28.19378582,83.99598941
Jana Jagriti Basic School,government,Su-Th 10:00-16:00  Fr 10:00-13:00,9846282998,,11,139,,school,28.10154248,84.06422485
Dhawalagiri Boarding School,private,Su-Th 10:00-16:00  Fr 10:00-13:00,,,41,1040,,school,28.28048617,83.93644408
Dharmasthali Basic School,government,10:00-16:00,061-419079,,14,748,,school,28.2229496,83.97845909
Amar Jyoti Boarding School,private,Su-Th 10:00-16:00  Fr 10:00-13:00,-526064,amarjyotipokhara@gmail.com,14,400,,school,28.21443913,83.97960317
National Inventive Higher Secondary Boarding School,private,09:00-17:00,9856049421,,38,1088,,school,28.20983774,83.96296051
Little Step Secondary School,private,6:00-18:00,061-531964  061-525103,lsiacademy@wlink.com.np,26,790,,school,28.20972547,83.97537753
Janajyoti Ma V,government,Su-Th 10:00-16:00  Fr 10:00-13:00,9846147538,,13,358,,school,28.21412566,84.07559002
Lotus Academy,private,Su-Th 10:00-16:00  Fr 10:00-13:00,061-521919  061-528086,,6,287,,school,28.22056626,83.98944352
Nawa Prabhat Ma V,government,Su-Th 10:00-16:00  Fr 10:00-13:00,9856044426,,22,734,,school,28.2174521,83.99180704
Devi Basic School,government,Su-Th 10:00-16:00  Fr 10:00-13:00,9846050468,,4,63,,school,28.26255637,84.00964487
Himanchal Higher Secondary School,private,Su-Th 10:00-16:00  Fr 10:00-13:00,9856020864,,27,661,,school,28.2017375,83.9744477
Tops Higher Secondary School,private,Su-Fr 10:00-16:00,061-528382,,53,1083,,school,28.20978491,83.99551887
Jyoti Bhawan Basic School,government,10:00-16:00,9846717287,,14,44,,school,28.29725708,83.99406268
Shanti Ma V,government,Su-Th 10:00-16:00  Fr 10:00-13:00,9846059539,,22,524,,school,28.28487734,83.98544628
Himalayan Basic School,government,Su-Th 10:00-16:00  Fr 10:00-13:00,9856031527,,4,108,,school,28.3176394,83.96270527
Paramount Public School,private,Su-Fr 10:00-16:00,061-527365,,31,881,,school,28.20836762,83.99810613
Pokhara United Academy,private,Su-Th 10:00-16:00  Fr 10:00-13:00,061-550491,,37,926,,school,28.2112208,84.00595713
New Galaxy Higher Secondary school,private,Su-Th 10:00-16:00  Fr 10:00-13:00,061-520210,,45,1017,,school,28.22842306,83.99062591
Sri Satya Sai English Boarding School,private,Su-Th 10:00-16:00  Fr 10:00-13:00,061-533666,,15,274,,school,28.2307687,83.99072226
Gyanubaba Higher Secondary School,private,Su-Th 10:00-16:00  Fr 10:00-13:00,061-521497,,22,834,,school,28.2398441,83.98444082
Happy Boarding School,private,Su-Th 10:00-16:00  Fr 10:00-13:00,061-462156,,17,313,,school,28.21150923,83.97233298
High Mount English Boarding School,private,Su-Th 10:00-16:00  Fr 10:00-13:00,9813854824,,10,313,,school,28.24708357,83.9786424
Shree Ram Basic School,government,su-fr 9:00-16:00,61536576,,10,421,,school,28.20912165,83.97955775
Spiral Galaxy Higher Secondary School,private,09:00-17:00,,,37,483,,school,28.24464087,83.98364258
Suryodhaya English Boarding School,private,09:30-15:45,061-440105,sebs.pkr@gmail.com,31,515,,school,28.25087039,83.98281368
Step By Step Higher Secondary School,private,10:00-17:00,,,24,662,,school,28.21554999,83.97021248
Kantipur Academy of Science and Tecnology,private,Su-Th 10:00-16:00  Fr 10:00-13:00,061 527487,,19,225,,school,28.18198218,84.02424872
Bhayareshwori Basic School,government,Su-Th 10:00-16:00  Fr 10:00-13:00,9846047235,,8,220,,school,28.18734203,84.02481358
Bindyabasuni Ma V,government,10:00-16:00,061-440065  061-440603,vvhsspokhara16@gmail.com,18,1109,,school,28.26254407,83.97973805
Saint Francis School,private,Su-Fr 9:30-16:00,061-431070/061-622686 061-5505070,,28,1065,,school,28.17112883,84.02265859
Sukraraj Bala Bhadra Ma V,government,Su-Th 10:00-16:00  Fr 10:00-13:00,9856035769,,25,682,,school,28.18135607,84.00996421
Sahid Awasiya Ma V,government,Su-Fr 9:30-16:00,9846035541,,22,925,,school,28.16327741,84.03278201
Shivapuri Basic School,government,Su-Th 10:00-16:00  Fr 10:00-13:00,9846157055,,,,,school,28.29250778,83.93984726
Bharati Bhawan Ma V,government,Su-Th 10:00-16:00  Fr 10:00-13:00,9846064036,,28,834,,school,28.29184624,83.94720523
Saraswati Adarsha Vidhyashram,private,Su-Th 10:00-16:00  Fr 10:00-13:00,061-440425,sav_lamachaur@hotmail.com,45,1383,,school,28.26107817,83.97060185
Gandaki Higher Secondary Boarding School,community,09:00-17:00,061-440398,gbs@phewamail.edu.np,72,1120,,school,28.25850256,83.96889755
Samata Sikshya Niketan,private,10:00-04:00,+977 9856033465,,33,1936,,school,28.22614099,83.97949067
Shanti Niketan School,private,10:00-04:00,061-551636,shantiniketan062@gmail.com,23,490,,school,28.22144935,83.9773692
Srijana Higher Secondary School,private,10:00-17:00,,,31,2203,,school,28.21147746,83.9783506
Gyan Ganga Academy,private,Su-Th 10:00-16:00  Fr 10:00-13:00,061-540177,,,200,,school,28.19222293,84.02266588
Mankamana Boarding School,private,Su-Th 10:00-16:00  Fr 10:00-13:00,061-521697 061-523765,,22,513,,school,28.2315197,83.99546934
Diamond Higher Sceondary Boarding School,private,Su-Fr 06:00-17:00,061-560146,diamondhighersecschool@gmail.com,34,1879,,school,28.16371438,84.06224297
Lekhnath Memorial English Boarding School,private,Su-Th 10:00-16:00  Fr 10:00-13:00,061-561327,,17,570,,school,28.16957785,84.05264345
Nawajyoti Sanat Durga Basic School,government,Mo-Fr 10:00-16:00,9856061749,,9,313,,school,28.16617716,84.08114775
Ram Jyoti Ma V,government,Su-Th 10:00-16:00  Fr 10:00-13:00,9846031196,,11,438,,school,28.1806208,84.03421945
Sagarmatha Nikentan School,private,Su-Th 10:00-16:00  Fr 10:00-13:00,,,30,1066,,school,28.21967089,83.98957925
Pokhara Public School,private,Su-Th 10:00-16:00  Fr 10:00-13:00,,,40,1340,,school,28.19271187,84.01901711
Little Angel School,private,Su-Fr 10:00-16:00,9856082603,,12,312,,school,28.28407315,83.95139049
Chandika Basic School,government,Su-Th 10:00-16:00  Fr 10:00-13:00,061-441014,,7,44,,school,28.25664739,83.9821585
Nilgiri English Boarding School,private,10:00-16:00,,,24,675,,school,28.21935659,83.98515796
Sunflower English Boarding school,private,Su-Th 10:00-16:00  Fr 10:00-13:00,9846167221,,20,708,,school,28.23501849,83.98361096
Kalika Ma V,government,Su-Th 10:00-16:00  Fr 10:00-13:00,061-431141,,46,4272,,school,28.2012854,83.99923709
Sitala Ma V,government,Su-Th 10:00-16:00  Fr 10:00-13:00,9846050602,,26,392,,school,28.21819854,84.00126738
Mount Everest Boarding School,private,Su-Th 10:00-16:00  Fr 10:00-13:00,9846075855,,19,185,,school,28.21433157,83.98442021
Bicramshila Buddhist Gumba,government,Su-Th 10:00-16:00  Fr 10:00-13:00,9846046619,,6,113,,school,28.26154633,83.95666388
Riverdale Secondary School,private,Su-Th 10:00-16:00  Fr 10:00-13:00,061-441065,riverdale2051@gmail.com,12,891,,school,28.28279639,83.99023151
Annapurna Basic School,government,Su-Fr 10:00-16:00,9846201886,,3,94,,school,28.20559108,83.96870968
Nabin Ma V,government,Su-Th 10:00-16:00  Fr 10:00-13:00,9856022603,,23,1579,,school,28.22679777,83.98571944
Nawa Deep English Boarding School,private,Su-Th 10:00-16:00  Fr 10:00-13:00,9856033788,,22,713,,school,28.20241424,84.00517938
Baseline Academy,private,Su-Th 10:00-16:00  Fr 10:00-13:00,9804140477,,26,882,,school,28.20599113,84.01519646
Maula Islamic Samudayak Basic School,government,Su-Th 10:00-16:00  Fr 10:00-13:00,9846532726,,12,246,,school,28.20944764,84.00988139
Balvidhya Mandir Secondary Boarding School,private,Su-Th 10:00-16:00  Fr 10:00-13:00,,,17,351,,school,28.20897233,84.00873284
Laxmi Basic School,government,Su-Th 10:00-16:00  Fr 10:00-13:00,9846114251,,9,,,school,28.1951946,83.91875664
Bal Prabhat Boardiing School,private,Su-Th 10:00-16:00  Fr 10:00-13:00,615262237,balparbhat@gmail.com,25,602,,school,28.21875853,83.98615905
Bhawani Kalika Ma V,government,Su-Th 10:00-16:00  Fr 10:00-13:00,9856021947,,30,401,,school,28.19581416,84.03234671
Gyan Bhumi Ma V,government,10:00-05:00,98460023784,,15,625,,school,28.23109004,83.99161597
Boudha Sikshya Aadhyan Kendra,government,Su-Th 10:00-16:00  Fr 10:00-13:00,,,,22,,school,28.21085959,83.99489071
Well Known Academy,private,Su-Th 10:00-16:00  Fr 10:00-13:00,,,22,448,,school,28.18419711,84.00316219
Saint Mary's English Boarding School,private,Su-Th 10:00-16:00  Fr 10:00-13:00,061-431745,,67,1992,,school,28.19446876,83.99274972
Lekhnath Bhibhuti English Boarding School,private,9:30-16:00,61432336,,34,380,,school,28.20014405,83.99743025
Childrens Academy,private,10:00-17:00,061-527082,,21,546,,school,28.21136675,84.01214395
Good Sephard English Boarding School,private,09:00-03:00,61431200,,22,331,,school,28.19122695,84.00971828
Pal Ewam Nagyal Monastic School,private,Su-Th 10:00-16:00  Fr 10:00-13:00,,,,,,school,28.23281717,83.9246275
Mertopolitan Academy,private,09:00-17:00,9856077603,,22,454,,school,28.20943868,83.99890006
Chhorepatan Ma V,government,9:00-17:00,9856010286,,63,3217,,school,28.18996294,83.95628071
Fishtail Higher Secondary School,private,09:00-17:00,,,27,673,,school,28.19546711,83.9725554
Pardi Ma V,government,09:00-17:00,9846278943,,18,1282,,school,28.1976697,83.97511862
Janaprakash Ma V,government,Su-Th 10:00-16:00  Fr 10:00-13:00,9856061374,janaparkash2017@gamil.com,38,1447,,school,28.15076569,84.06524755
Dynamic Academy,private,Su-Fr 09:00-15:15,61537808,,36,,,school,28.20712851,83.97567321
Tribhuwan Shanti Ma V,government,Su-Th 10:00-16:00  Fr 10:00-13:00,9856030402,,29,1091,,school,28.1455918,84.0821261
Gorkha English Boarding School,private,Su-Th 10:00-16:00  Fr 10:00-13:00,9846656236,,25,359,,school,28.25057118,83.98447056
Pokhara Learners Academy,private,09:00-17:00,,,20,662,,school,28.20209176,83.97373493
Siddha Paropakar Baudhik Gurukul Ashram,government,Su-Th 10:00-16:00  Fr 10:00-13:00,9851052245,,5,56,,school,28.17929472,83.99160747
Anjuli English Boarding School,private,10:00-16:05,061-527588,anjuliboarding@gmail.com,34,420,,school,28.24162617,83.98569028
Sharaswati Basic School,government,Su-Th 10:00-16:00  Fr 10:00-13:00,9846044256,,24,336,,school,28.21191274,84.00216646
Sainik Awasiya Mahavidyalaya,government,09:00-17:00,,,66,1924,,school,28.22409644,83.99506957
Kanya Ma V,government,Su-Th 10:00-16:00  Fr 10:00-13:00,061-520291,,16,636,,school,28.23248227,83.99108604
Guru Kul Vidhyasadhan,private,09:00-17:00,,,30,759,,school,28.21796874,83.98805885
Siddhartha Lovedale English Boarding School,private,09:00-17:00,61533249,,20,474,,school,28.22145917,83.99017337
Akala Basic School,government,Su-Th 10:00-16:00  Fr 10:00-13:00,9846031126,,7,188,,school,28.27317431,83.95725373
Shining Star Secondary Boarding School,private,10:00-16:00,,,24,623,,school,28.21300085,83.96359758
Shanta Ma V,government,Su-Th 10:00-16:00  Fr 10:00-13:00,9856008015,,21,795,,school,28.23416247,83.92535607
Vision Boarding School,private,Su-Fr 10:00-16:00,61430146,,8,80,,school,28.201403,83.99111315
Kels Academy,private,Su-Th 10:00-16:00  Fr 10:00-13:00,9846524741,,17,397,,school,28.20217456,83.99392674
Social Public English Boarding School,private,Su-Th 10:00-16:00  Fr 10:00-13:00,9846635494,,33,1376,,school,28.205154,83.9960665
Bethany Higher Secondary School,private,Su-Th 10:00-16:00  Fr 10:00-13:00,98560308059,,27,823,,school,28.20015193,84.0077901
Jyotikunja English Higher Secondary School,private,Su-Th 10:00-16:00  Fr 10:00-13:00,061-431305,,52,1357,,school,28.20304808,83.99784588
Pokhara Creative Higher Secondary School,private,09:00-17:00,9856028222,,20,485,,school,28.2129319,83.97999405
Gyankunj Academy,private,09:00-17:00,,,19,427,,school,28.20523529,83.97954886
Ratna Jyoti Higher Secondary School,private,09:00-17:00,,,25,551,,school,28.20596483,83.9749517
Saraswati Secondary School,private,09:00-17:00,061-526936,,22,908,,school,28.20819843,83.98225618
BhanuBhakta English Boarding School,private,10:00-16:00,061-533257,bhanubhaktaschool42@gmail.com,20,744,,school,28.24476222,83.98594106
Bindabasini Ma V,government,09:00-17:00,9856031398,,55,1876,,school,28.23689117,83.9810974
Pascal Academy,private,09:00-17:00,,,22,222,,school,28.24451091,83.98994953
Masina Basic School,government,Su-Th 10:00-16:00  Fr 10:00-13:00,9846226250,,9,271,,school,28.167849,84.02280918
Himalaya Boarding School,private,09:00-17:00,061-461405,himalayan-17@gmail.com,25,816,,school,28.19004152,83.9804645
Golden Future H S S,private,Su-Th 10:00-16:00  Fr 10:00-13:00,061-430773,,32,1032,,school,28.19881249,83.99957061
Pokhara Multimodel Campus,private,,,,,,,school,28.21246643,83.97960783
Marigold Higher Secondary School,private,Su-Th 10:00-16:00  Fr 10:00-13:00,061-431900,info@marigold.edu.np,25,737,,school,28.1996603,83.99050574
Pioneer English Academy,private,Su-Th 10:00-16:00  Fr 10:00-13:00,9804128173,,14,258,,school,28.20419459,84.00052612
Shree Bal Kalyan High School,private,Su-Th 10:00-16:00  Fr 10:00-13:00,061-525349,,30,958,,school,28.21462765,84.01058519
Mahendra Ma V,government,Su-Th 10:00-16:00  Fr 10:00-13:00,9846029505,,18,2007,,school,28.21983326,83.99060511
Janajyoti Basic School,government,Su-Fr 10:00-16:00,9846162656,,5,76,,school,28.21376034,84.07380736
Kalika English Boarding School,private,Su-Th 10:00-16:00  Fr 10:00-13:00,9.85603505198463E+019,kalikaeducation123@gmail.com,,200,,school,28.21339778,84.07691502
Kaski Modernized Academic,private,Su-Th 10:00-16:00  Fr 10:00-13:00,9856021299,,102,2772,,school,28.19921449,84.02135642
Oxford Higher Secondary School,private,Su-Th 10:00-16:00  Fr 10:00-13:00,061-524985 9856031760,,22,502,,school,28.21512813,84.01823075
Tarakunja English Boarding School,private,10:00-17:00,061-534526,,,,,school,28.21673989,84.02513301
Hill Point English Boarding School,private,10:00-17:00,061-526105,,39,873,,school,28.21674133,84.00419484
Rising English Boarding School,private,10:00-17:00,061-531475,,14,469,,school,28.21723928,84.00357238
Puspa Sadan Academy,private,10:00-17:00,061-533567 061-530390,,16,347,,school,28.21991029,84.00041157
Kanchanjangha English Boarding School,private,10:00-17:00,061-551382  061-521919,,25,530,,school,28.2238016,84.00030527
Shiva Shakti Ma V,government,10:00-17:00,061-521836,,20,974,,school,28.22883668,83.99977392
Siddhartha English Boarding School,private,10:00-17:00,061-522214 061-521933,,23,448,,school,28.21778162,83.9979961
Pinnacle Academy,private,10:00-17:00,061-229665,,,,,school,28.21844392,83.99784622
View Point Secondary School,private,10:00-4:00,061 430620  061 430144,vpbs15@gmail.com,26,525,,school,28.18417132,83.99416827
Sahara Bal Basic school,government,Su-Th 10:00-16:00  Fr 10:00-13:00,9856063059,,12,450,,school,28.20670109,83.98806625
Bal Kalyan Basic School,government,Su-Th 10:00-16:00  Fr 10:00-13:00,9846209343,,7,154,,school,28.25411014,83.96692835
Ratan Pande Ma V,government,Su-Th 10:00-16:00  Fr 10:00-13:00,9856032175,,23,364,,school,28.22687334,84.03550708
Shimala Basic School,government,Su-Th 10:00-16:00  Fr 10:00-13:00,9846226250,,3,57,,school,28.22713216,84.04446938
Bijaya Basic School,government,Su-Th 10:00-16:00  Fr 10:00-13:00,9815133347,,8,74,,school,28.24782344,84.03972054
Amarjyoti Basic School,government,Su-Th 10:00-16:00  Fr 10:00-13:00,9846728183,,5,89,,school,28.22619244,84.04816441
Aarba Bijaya Ma V,government,Su-Th 10:00-16:00  Fr 10:00-13:00,9846031335,,9,144,,school,28.23985218,84.05368378
Siddhartha Basic School,government,Su-Th 10:00-16:00  Fr 10:00-13:00,9846767414,,5,74,,school,28.21928643,84.03817423
Sukraraj Ma V,government,Su-Th 10:00-16:00  Fr 10:00-13:00,9846028472,,18,304,,school,28.20587674,83.91188177
Mahendra Ma V,government,Su-Th 10:00-16:00  Fr 10:00-13:00,061-621565,mmb017@gmail.com,34,539,,school,28.24808976,84.01040566
Bhalam Basic School,government,Su-Th 10:00-16:00  Fr 10:00-13:00,9846050738,,5,81,,school,28.25132959,83.99358699
Mahendra Rastriya Basic School,government,Su-Th 10:00-16:00  Fr 10:00-13:00,9846058848,,3,30,,school,28.25481523,84.00968163
Birendra Basic School,government,Su-Th 10:00-16:00  Fr 10:00-13:00,9846046128,,4,47,,school,28.24626221,83.99930361
Kahun Basic School,government,Su-Th 10:00-16:00  Fr 10:00-13:00,9846103093,,3,116,,school,28.22703742,84.00880982
Kalika Ma V,government,10:00-16:00,61538122,,22,170,,school,28.23219068,84.01475011
Manijyoti Basic School,government,Su-Th 10:00-16:00  Fr 10:00-13:00,9846035152,,9,65,,school,28.24420461,83.9567372
Gauri Basic School,government,Su-Th 10:00-16:00  Fr 10:00-13:00,9846513389,,3,74,,school,28.20554324,83.93717528
Lila Basic School,government,Su-Th 10:00-16:00  Fr 10:00-13:00,9856034220,,15,85,,school,28.19821445,83.94509653
Maheswori Ma Mv,government,10:00-16:00,061-621763 and 9846058197,,17,401,,school,28.1972396,83.92576067
Pokhara Darshaniyasthal Basic School,government,Su-Th 10:00-16:00  Fr 10:00-13:00,9846278015,,9,,,school,28.18903003,83.93312098
Yuba Jyoti Basic School,government,Su-Th 10:00-16:00  Fr 10:00-13:00,9856041297,,4,,,school,28.19522534,83.92518224
Nagajuna Modern Boarding School,private,Su-Th 10:00-16:00  Fr 10:00-13:00,9806632745,,3,70,,school,28.22258537,84.01335829
Sharada Basic School,government,Su-Th 10:00-16:00  Fr 10:00-13:00,9846421279,,,,,school,28.2550262,83.93516574
Srijana Basic School,government,Su-Th 10:00-16:00  Fr 10:00-13:00,9846050383,,,,,school,28.24218915,83.97941188
Amar Jyoti Basic School,government,Su-Th 10:00-16:00  Fr 10:00-13:00,9846031383,,8,55,,school,28.2441525,83.9244309
Jana Jagriti Ma V,government,Su-Fr 10:00-16:00,061-621543,,17,336,,school,28.24032611,83.94121325
Divya Jyoti Basic School,government,Su-Th 10:00-16:00  Fr 10:00-13:00,9846333450,,6,303,,school,28.28054828,83.9277407
Gram Prakash Basic School,government,Su-Th 10:00-16:00  Fr 10:00-13:00,9846267768,,8,333,,school,28.27830308,83.93888554
Hemja Boarding School,private,Su-Th 10:00-16:00  Fr 10:00-13:00,061-401338,,35,1147,,school,28.27574536,83.93819504
Snow View Boarding School,private,Su-Th 10:00-16:00  Fr 10:00-13:00,,,27,1129,,school,28.2679369,83.94920138
Ambika Ma V,government,Su-Th 10:00-16:00  Fr 10:00-13:00,9856023399,,15,410,,school,28.28746566,83.899248
Jana Chetana Basic School,government,Su-Th 10:00-16:00  Fr 10:00-13:00,9846034945,,3,20,,school,28.2559506,84.01614313
Dhune Sangu English Bording School,private,Su-Th 10:00-16:00  Fr 10:00-13:00,,,23,590,,school,28.17751724,83.98968134
Janaki Basic School,government,Su-Th 10:00-16:00  Fr 10:00-13:00,9846292185,,11,285,,school,28.17694957,83.99101385
New Millenium Academy,private,Su- Fr 9:50- 15:45,61463328,newmillenniumacademy@yahoo.com,22,781,,school,28.19271013,83.97509167
Pokhara Kindergarden English Boarding School,private,Su-Fr 09:30-04:00,,,81,765,,school,28.1938079,83.97940118
Shanti Nikunj English School,private,10:00-17:00,,,22,308,,school,28.19371565,83.973721
Shishu Kalyan Ma V,government,Su-Th 10:00-16:00  Fr 10:00-13:00,061-696647  9846144237,shishukalyan636647@gmail.com,17,324,,school,28.15501205,84.0258002
Sarswoti Tika Ma V,government,Su-Th 06:00-18:00  Fr 06:00-16:00,061-622693,lalbhandari0985@gmail.com,37,1568,,school,28.144936,84.04445529
Shanti Udaya Ma V,government,Su-Th 10:00-16:00  Fr 10:00-13:00,9756000022,,21,427,,school,28.13443055,84.03090773
Shree Jana Chetan Ma V,government,10:00-16:00,9746008018,,19,489,,school,28.15185928,83.99892014
Phekuwako Nirmal Pokhari English Boarding School,private,Su-Th 10:00-16:00  Fr 10:00-13:00,6.16224399756E+027,bkhimal@gmail.com,24,458,,school,28.15661757,83.99148179
Jaldevi Basic School,government,Su-Th 10:00-16:00  Fr 10:00-13:00,9846139539,,4,46,,school,28.14209797,83.99207285
Jana Jagarti Basic School,government,Su-Th 10:00-16:00  Fr 10:00-13:00,9846031651,,9,133,,school,28.15902572,83.98350167
Ram Rudra Basic School,government,Su-Th 10:00-16:00  Fr 10:00-13:00,9843481952,,3,23,,school,28.16074849,83.97329369
Shree Hill Side English Boarding School,private,Su-Th 10:00-16:00  Fr 10:00-13:00,,,19,482,,school,28.15565047,83.98836358
Ramadi Basic School,government,Su-Th 10:00-16:00  Fr 10:00-13:00,9846281930,,4,56,,school,28.17465635,83.9369002
Paschimanchal Secondary School,private,Su-Th 10:00-16:00  Fr 10:00-13:00,6.15403330615274E+016,,,416,,school,28.22654642,83.98999296
Yuwabarsa Basic School,government,Su-Th 10:00-16:00  Fr 10:00-13:00,9846381154,,7,72,,school,28.18353053,83.94979024
New Social English School,private,Su-Th 10:00-16:00  Fr 10:00-13:00,,,,,,school,28.1680254,83.95748603
Bayeli Basic School,government,Su-Th 10:00-16:00  Fr 10:00-13:00,9856033504,,6,94,,school,28.1724769,83.95685509
Himalaya Basic School,government,10:00-16:00,9846147431,,3,68,,school,28.16020776,83.94991936
Bhabisya Nirman Ma V,government,Su-Th 10:00-16:00  Fr 10:00-13:00,9856011227,,23,780,,school,28.15647889,83.95415287
Sai Ratna Academy,private,Su-Th 10:00-16:00  Fr 10:00-13:00,9846039408,,9,209,,school,28.1568905,83.95261293
Bakrek Basic School,government,Su-Th 10:00-16:00  Fr 10:00-13:00,986136859,,4,53,,school,28.1413465,83.93964
Ex Army English Boarding School,private,Su-Th 10:00-16:00  Fr 10:00-13:00,061-460706,eaphss123@gmail.com,30,1016,,school,28.18678349,83.96142109
OM Academy,private,Su-Th 10:00-16:00  Fr 10:00-13:00,061-460020/061-460021,omacademy@gmail.com,10,175,,school,28.19069499,83.95271661
Pokhara Spiral Galaxy Academy,private,Su- Fr 9:30-15:30,061-461201,spiralpokhara@gmail.com,25,465,,school,28.18854277,83.96497537
LA Higher Secondary School,private,Su-Th 10:00-16:00  Fr 10:00-13:00,,,,,,school,28.21444728,83.98640955
Gandaki Education Foundation,private,Su-Th 10:00-16:00  Fr 10:00-13:00,,,12,161,,school,28.21465486,83.9909075
Bidhya Niketan English Bording School,private,Su-Th 10:00-16:00  Fr 10:00-13:00,9856031406,,32,828,,school,28.18322549,83.97476609
West Point Children Academy,private,Su-Th 10:00-16:00  Fr 10:00-13:00,061-466777 061-415188,nabin.baral974@gmail.com,7,113,,school,28.1859878,83.96979745
Little Bells School,private,Su-Th 10:00-16:00  Fr 10:00-13:00,061-531516  9846109878,,,,,school,28.22634903,83.97901755
Phewa Public Secondary Higher School,private,10:00-17:00,061-536144,,,,,school,28.22860108,83.98303205
Shree Maharsi Gurukul Bed Bidhyalaye,government,Su-Th 10:00-16:00  Fr 10:00-13:00,,,,,,school,28.23089528,83.99245695
Maharsi Gurukul Bidhyabasani,government,Su-Th 10:00-16:00  Fr 10:00-13:00,9856035584,,6,34,,school,28.23764443,83.98366883
Pokhara Combridge English Boarding School,private,Su-Th 10:00-16:00  Fr 10:00-13:00,9856026106,,18,418,,school,28.20992485,83.96527953
Goodwill Activity School,private,10:00-16:00,061-461863,,25,636,,school,28.21010054,83.963989
Emmanuel English Boarding School,private,Su-Th 10:00-16:00  Fr 10:00-13:00,061-530207,,15,323,,school,28.20543895,83.9815479
Holi Angel School,private,Su-Th 10:00-16:00  Fr 10:00-13:00,9846001898,,13,487,,school,28.2047053,83.98636198
Mount Heaven English Boarding school,private,Su-Th 10:00-16:00  Fr 10:00-13:00,061-694836,,10,196,,school,28.19761268,83.9814205
National Creation Academy,private,Su-Th 10:00-16:00  Fr 10:00-13:00,061-537865,,20,430,,school,28.20422385,83.98043478
Wisdom English Boarding School,private,Su-Th 10:00-16:00  Fr 10:00-13:00,061-467100,,16,472,,school,28.21092442,83.9673555
Peace Zone Academy,private,Su-Th 10:00-16:00  Fr 10:00-13:00,,,,,,school,28.21458655,83.98071098
Maitree Children's Academy,private,Su-Th 10:00-16:00  Fr 10:00-13:00,061-524085,,14,151,,school,28.22046719,83.99086504
Lekhnath Basic School,government,Su-Th 10:00-16:00  Fr 10:00-13:00,9846147538,,5,70,,school,28.19408352,84.07768416
Golden Nature Secondary School,private,Mo-Fr 10:00-16:00,061-560635,,38,1228,,school,28.14827144,84.08189489
Chisakhola Bed Bidhya Ashram,government,Su-Th 10:00-16:00  Fr 10:00-13:00,9856035152,p.chisakhola.veda@gmail.com,7,157,,school,28.23396869,83.97372831
Gyanjyoti Ma V,government,Su-Th 10:00-16:00  Fr 10:00-13:00,9846030100,,14,267,,school,28.28983988,83.98578518
Pemachal Shakya Monastic Basic School,government,Su-Th 10:00-16:00  Fr 10:00-13:00,9804190027,,10,191,,school,28.2570343,83.96120796
Sanskrti Ma V,government,10:00 - 16:00,061-520434,,16,403,,school,28.24343011,83.99039219
Birendra Memorial English School,private,Su-Th 10:00-16:00  Fr 10:00-13:00,061 419030,,24,498,,school,28.22565368,83.97497324
Janapriya Ma V,government,Su-Fr 09:00-17:00,061-533726,,40,,,school,28.20729955,83.9766782
Harvard Academy,private,10:00-16:00,,,16,520,,school,28.19273752,83.99740901
Disneyland Academy,private,10:00-17:00,,,30,699,,school,28.20833177,83.97032164
Bal Jyoti Basic School,government,Su-Th 10:00-16:00  Fr 10:00-13:00,9805812137,,4,73,,school,28.1531919,83.94076918
Laxmi Ma V,government,Su-Th 10:00-16:00  Fr 10:00-13:00,61411607,,28,1516,,school,28.18027998,84.04611483
Red Gold Academy,private,Su-Fr 10:00-16:00,9856021380,,,,,school,28.16181175,84.08766478
Siddha Baraha Basic School,government,Su-Th 10:00-16:00  Fr 10:00-13:00,9846184718,,6,196,,school,28.24866115,83.87468115
Sidhane Basic School,government,Su-Th 10:00-16:00  Fr 10:00-13:00,9803178513,,2,47,,school,28.22392937,83.82585258
Harpankot Ma V,government,Su-Th 10:00-16:00  Fr 10:00-13:00,9815144185,,11,140,,school,28.23875089,83.83808677
Pipaldali Deurali Basic School,government,Su-Fr 10:00-16:00,9846262990,,4,82,,school,28.23448369,83.860996
Future Bright English School,private,Su-Th 10:00-16:00  Fr 10:00-13:00,9846036879,futurebright22948@gamil.com,5,85,,school,28.23932293,83.86342003
Siddhabaraha Ma V,government,Su-Fr 10:00-16:00,61622190,,23,1028,,school,28.24582866,83.87914196
Saraswati Kunja Basic School,government,Su-Th 10:00-16:00  Fr 10:00-13:00,9846037721,,5,125,,school,28.24647964,83.89040479
Little Daffodils English Boarding School,private,Su-Th 10:00-16:00  Fr 10:00-13:00,61691901,,14,284,,school,28.23556156,83.90901555
Sunrise Preparatory English Baording School,private,Su-Th 10:00-16:00  Fr 10:00-13:00,9846068940,,15,315,,school,28.24286113,83.89128677
Pame Basic School,government,Su-Th 10:00-16:00  Fr 10:00-13:00,9846029801,,12,145,,school,28.23620026,83.91000586
Reliance Public Boarding School,private,Su-Th 10:00-16:00  Fr 10:00-13:00,,,,,,school,28.2109694,84.10422993
Gyankunja Vidhyasharam,private,Su-Fr 10:00-16:00,016-560947,,20,579,,school,28.15817005,84.09218555
Dhara Basic School,government,Su-Th 10:00-16:00  Fr 10:00-13:00,9846731494,,9,126,,school,28.30090394,83.95791844
Kalika Ma V,government,Su-Th 10:00-16:00  Fr 10:00-13:00,9856036444,,15,519,,school,28.26672069,83.91429784
Matribhumi Jana Prakash Basic School,government,Su-Th 10:00-16:00  Fr 10:00-13:00,9856033987,,5,45,,school,28.27328884,83.89763764
Bal Prabhodhini Primary School,government,Su-Th 10:00-16:00  Fr 10:00-13:00,9806697438,,6,74,,school,28.25815577,83.92884728
Bishwojyoti English Boarding School,private,Su-Th 10:00-16:00  Fr 10:00-13:00,,,12,130,,school,28.26592476,83.91246262
Basanta Basic School,government,Su-Th 10:00-16:00  Fr 10:00-13:00,9846111820,,5,168,,school,28.26632563,83.90710926
Sadashiva Basic School,government,Su-Th 10:00-16:00  Fr 10:00-13:00,9847638527,,6,128,,school,28.27130417,83.89298386
Triveny Public Secondary School,private,Su-Th 10:00-16:00  Fr 10:00-13:00,061-560497,trivenypublic@yahoo.com,4,1013,,school,28.1729904,84.04721802
Alpha Academy,private,10:00-16:00,6141115,alphaadecamy@gmail.com,7,336,,school,28.18682698,84.034985
Amarjyoti Basic School,government,Su-Th 10:00-16:00  Fr 10:00-13:00,9804133026,,3,101,,school,28.18710495,84.04256738
Shiva Shakti Basic School,government,10:00-17:00,9846198857,,11,315,,school,28.20812194,84.03596551
Amar Jyoti Gaun Pharka Ma V,government,10:00-04:00,986061708,,18,540,,school,28.20243388,84.04325593
Arunodaya Jyotii Basic School,government,Su-Th 10:00-16:00  Fr 10:00-13:00,9846364655,,2,23,,school,28.20265549,84.05748253
New Era Academy Secondary School,private,Su-Th 10:00-16:00  Fr 10:00-13:00,61560177,meahsskaski@gmail.com,27,629,,school,28.18072747,84.04768416
Srijana Bahira Ma V,government,Su-Th 10:00-16:00  Fr 10:00-13:00,061-560466/532615,,23,352,,school,28.1795406,84.04970147
Sahid Smark Basic School,government,Su-Th 10:00-16:00  Fr 10:00-13:00,9843206815,,5,146,,school,28.13349805,84.08366118
Bmg English Boarding School,private,Su-Th 10:00-16:00  Fr 10:00-13:00,9840603759,,36,965,,school,28.13402348,84.08228248
Nawa Durga Basic School,government,Su-Th 10:00-16:00  Fr 10:00-13:00,9846193540,,5,168,,school,28.14031179,84.07449847
Siddhi Binayak English Boarding School,private,Su-Th 10:00-16:00  Fr 10:00-13:00,61560656,,18,787,,school,28.15195022,84.06702497
Holi Mount English Boarding School,private,Su-Th 10:00-16:00  Fr 10:00-13:00,061-561700  9817147100,,23,674,,school,28.15079584,84.06976519
Gogan Ma V,government,Su-Th 10:00-16:00  Fr 10:00-13:00,9846044024,,72,1967,,school,28.12109627,84.09075647
Little Flower English Boarding School,private,10:00-17:00,61560278,,32,869,,school,28.16227962,84.04209458
Bir Aadharbhut School,government,10:00-17:00,9846059421,,11,306,,school,28.16011632,84.04315204
Kalyan Basic School,government,10:00-17:00,9846032986,,5,122,,school,28.1646229,84.05027934
Kanchanjangha Academy,private,Su-Th 10:00-16:00  Fr 10:00-13:00,061-560270,kac.kaski@gmail.com,21,477,,school,28.16556724,84.06679481
New Lekhnath Public Academy,private,Su-Th 10:00-16:00  Fr 10:00-13:00,061-561632,,30,817,,school,28.16665878,84.06955741
New Light Secondary School,private,Su-Th 10:00-16:00  Fr 10:00-13:00,061-560040,,38,1031,,school,28.16288045,84.06950346
Shanti Basic School,government,Su-Th 10:00-16:00  Fr 10:00-13:00,9846261468,,9,267,,school,28.16388329,84.06966889
Siddha Ganesh Basic School,government,Su-Th 10:00-16:00  Fr 10:00-13:00,9846163473,,6,77,,school,28.12445008,84.1118387
Shree Bhulbhula Basic School,government,Su-Th 10:00-16:00  Fr 10:00-13:00,9805158872,,10,147,,school,28.08972125,84.07121058
Indrayani Basic School,government,Su-Th 10:00-16:00  Fr 10:00-13:00,9846330061,,4,45,,school,28.19066476,84.08614789
Sukla Gandaki Basic School,government,Su-Th 10:00-16:00  Fr 10:00-13:00,9846651933,,8,137,,school,28.12586616,84.08063506
Kalika Ma V,government,Su-Th 10:00-16:00  Fr 10:00-13:00,9846040666,,,134,,school,28.12182077,84.06849677
Chandi Ma V,government,Su-Th 10:00-16:00  Fr 10:00-13:00,9.84665947398058E+019,,14,252,,school,28.11627492,84.04132945
Gyan Jyoti Basic School,government,Su-Th 10:00-16:00  Fr 10:00-13:00,9846014520,,3,41,,school,28.12938368,84.04336583
Brahmajyoti Basic School,government,Su-Th 10:00-16:00  Fr 10:00-13:00,984613096,,8,69,,school,28.1384321,84.02100195
Shanti Batika English School,private,Su-Th 10:00-16:00  Fr 10:00-13:00,,,18,611,,school,28.13162494,84.09701999
Universe English Boarding School,private,Su-Th 10:00-16:00  Fr 10:00-13:00,,,29,916,,school,28.12385666,84.10195044
Baghmara Academy Garden,private,Su-Th 10:00-16:00  Fr 10:00-13:00,9856038945 061-691846,,19,468,,school,28.14730452,84.04170864
Morning Glory English Boarding School,private,Su-Th 10:00-16:00  Fr 10:00-13:00,,gloryacademy150@gmail.com,19,593,,school,28.1463642,84.04314735
Jana Jyoti Basic Shool,government,Su-Th 10:00-16:00  Fr 10:00-13:00,9846037863,,7,102,,school,28.13561014,84.06019712
Chiragadi English Boarding School,private,Su-Th 10:00-16:00  Fr 10:00-13:00,9.85607190998464E+019,,18,345,,school,28.13629353,84.05720035
Arun Jyoti Basic School,government,Su-Th 10:00-16:00  Fr 10:00-13:00,9846364293,,4,82,,school,28.16674294,84.11716411
Diamond Model School,private,Su-Fr 10:00-16:00,061-560643,,25,988,,school,28.16583403,84.08723043
Ananda Jyoti Ma V,government,10:00-16:00,9746006244,,18,442,,school,28.18512209,84.12464062
Bishwo Jyoti Basic School,government,Su-Th 10:00-16:00  Fr 10:00-13:00,9846380185,,6,101,,school,28.18828728,84.11457554
Jaldhar Basic School,government,Su-Th 10:00-16:00  Fr 10:00-13:00,9815129215,,4,59,,school,28.18575469,84.10396205
Padma Jyoti English Boarding School,private,Su-Th 10:00-16:00  Fr 10:00-13:00,9804142939,,8,126,,school,28.18134563,84.12380593
Shiva Shakti Basic School,government,Su-Th 10:00-16:00  Fr 10:00-13:00,9846213562,,3,53,,school,28.18029145,84.13774572
Chandra Jyoti Basic school,government,Su-Th 10:00-16:00  Fr 10:00-13:00,9846060175,,7,205,,school,28.1144439,84.11502068
Himalaya Basic School,government,Su-Th 10:00-16:00  Fr 10:00-13:00,9846042962,,10,400,,school,28.11262335,84.09604733
Amarsiddha Namuna Ma V,government,Su-Th 10:00-16:00  Fr 10:00-13:00,98456011234,,23,593,,school,28.16094771,84.09992799
Smile Small Heaven Academy,private,Su-Th 10:00-16:00  Fr 10:00-13:00,9856037215,,19,562,,school,28.12182023,84.10185075
Brahma Rupa Ma V,government,Su-Th 10:00-16:00  Fr 10:00-13:00,9846060864,,28,1108,,school,28.11946486,84.10320574
Gurukul Bidyashram,private,Su-Th 10:00-16:00  Fr 10:00-13:00,061-561208,,6,813,,school,28.13303807,84.08439003
Kabishiromani Lekhanath Basic School,government,Su-Th 10:00-16:00  Fr 10:00-13:00,98463481133,,4,70,,school,28.1969506,84.07038088
Tarun Basic School,government,Su-Th 10:00-16:00  Fr 10:00-13:00,9846207520,,3,46,,school,28.18692353,84.06533485
Kalika Basic School,government,Su-Th 10:00-16:00  Fr 10:00-13:00,9846398118,,10,280,,school,28.09954454,84.08476132
Highway Garden English Boarding School,private,Su-Th 10:00-16:00  Fr 10:00-13:00,061-560711,,23,681,,school,28.11561975,84.09275363
Gyanjyoti Vidyakung Ma V,government,Su-Th 10:00-16:00  Fr 10:00-13:00,9856030670,,627,627,,school,28.12006808,84.09037833
Janasiddha Basic School,government,Su-Th 10:00-16:00  Fr 10:00-13:00,9846857556,,9,90,,school,28.25212078,83.86048179
Bindeshwori Ma V,government,Su-Th 10:00-16:00  Fr 10:00-13:00,9846059841,,16,331,,school,28.30836943,83.96105561
Ushakiran Basic School,government,Su-Th 10:00-16:00  Fr 10:00-13:00,9856031664,,5,46,,school,28.21332808,84.0807372
Siddha Basic School,government,Su-Th 10:00-16:00  Fr 10:00-13:00,9805872567,,4,64,,school,28.21372043,84.0635279
Durga Basic School,government,Su-Th 10:00-16:00  Fr 10:00-13:00,9804135914,,9,87,,school,28.21945432,83.87608263
Pancha Koshi Basic school,government,Su-Th 10:00-16:00  Fr 10:00-13:00,9806600289,,8,85,,school,28.23566555,83.87419639
Chapakot Basic School,government,Su-Th 10:00-16:00  Fr 10:00-13:00,9846412246,,4,111,,school,28.23069488,83.88580669
Phewa Basic School,government,Su-Th 10:00-16:00  Fr 10:00-13:00,9846524260,,3,64,,school,28.22265514,83.91481671
Bhagwati Basic School,government,Su-Th 10:00-16:00  Fr 10:00-13:00,9804125762,,4,148,,school,28.20940528,83.91081591
Anadu Basic School,government,Su-Th 10:00-16:00  Fr 10:00-13:00,9856034420,,3,39,,school,28.20724829,83.94280571
Saraswati Basic School,government,Su-Th 10:00-16:00  Fr 10:00-13:00,9856037237,,3,42,,school,28.21172618,83.92500369
Okhledanda Bhumdikot Ma V,government,Su-Th 10:00-16:00  Fr 10:00-13:00,9846051392,,19,294,,school,28.20891834,83.89461004
Setu Barahi Basic School,government,Su-Fr 10:00-16:00,9804171162,,4,54,,school,28.25291174,83.87021291
Janmabhumi Basic School,government,Su-Th 10:00-16:00  Fr 10:00-13:00,9804134389,,3,69,,school,28.23887417,83.88865857
Laxmi Adarsha Ma V,government,10:00-4:00,061-560019,laxmiadarsha25@gmail.com,28,2369,,school,28.16999709,84.06288154
Siddha Baraha Basic School,government,Su-Th 10:00-16:00  Fr 10:00-13:00,9846483924,,8,317,,school,28.26371001,83.89814418
Ratana Shobha Ma V,government,Su-Th 10:00-16:00  Fr 10:00-13:00,9846223619,,20,677,,school,28.20436367,84.11161902
Saraswati Kunja Basic School,government,Su-Th 10:00-16:00  Fr 10:00-13:00,9846218832,,3,47,,school,28.19975199,84.11708651
Bhurtel Basic School,government,Su-Th 10:00-16:00  Fr 10:00-13:00,98462246241,,7,51,,school,28.20604515,84.09574899
Shiva Kiran Basic School,government,Su-Th 10:00-16:00  Fr 10:00-13:00,9846613136,,4,61,,school,28.21027144,84.10629457
Nobel Secondary School,private,Su-Th 10:00-16:00  Fr 10:00-13:00,61528061,,19,603,,school,28.21564686,83.9974045
Bal Prativa Boarding School,private,Su-Fr 10:00-16:00,9806563900,,12,300,,school,28.24006315,83.94234418
Shree Byas Bidhyashram English School,private,Su-Fr 10:00-16:00,,,,,,school,28.26574633,83.9655011
Mahendra Ma V,government,Su-Fr 10:00-16:00,9846083779,,14,193,,school,28.27480271,83.96821952
Nepal Aadarsha Awasiya Vidhyalaya,private,10:00-16:00,061-560260,,43,1247,,school,28.15171621,84.06005456
Gyanudaye Raghu Basic School,government,Su-Th 10:00-16:00  Fr 10:00-13:00,9846063625,,3,43,,school,28.25710305,84.02815107
Emmanuel School,private,Su-Th 10:00-16:00  Fr 10:00-13:00,061 693799  9746133465  9746133466,,,,,school,28.18361112,83.99040534
Bhumeshwor Basic School,government,Su-Th 10:00-16:00  Fr 10:00-13:00,9846041889,,8,100,,school,28.28196762,83.96416213
Mount Kailash School,private,Su-Th 10:00-16:00  Fr 10:00-13:00,9805857015,,9,178,,school,28.26203273,83.95654481
Gaurishankar Basic School,government,Su-Fr 10:00-16:00,9846046619,,7,137,,school,28.27684988,83.93353372
Gyansarobar Academy,private,Su-Fr 10:00-16:00,061-400183,,16,364,,school,28.28059606,83.93190843
Himilya Basic School,government,Su-Fr 10:00-15:00,9806573264,,5,53,,school,28.29501593,83.9260693
SOS Hermann Gmeiner School Chhorepatan Pokhara,donor,Su-Th 10:00-16:00  Fr 10:00-13:00,,info@sosnepal.org.np,,342,,school,28.18891006,83.956573
Pinnacle Academy,private,Su-Th 10:00-16:00  Fr 10:00-13:00,061-524362,pinnacle.academy27@gmail.com,,,,school,28.22744033,83.9942926
Kalika Basic School,government,Su-Fr 10:00-16:00,984614604,,1,93,,school,28.18497875,83.9175392
Edens Academy,private,Su-Fr 09:00-16:00,61521687,edensacademy1@gmail.com,17,401,,school,28.21635684,84.01139812
Bidya Jyoti Basic School,government,Su-Th 10:00-16:00  Fr 10:00-13:00,9846046128,,11,147,,school,28.2494027,83.98571375
Narayani Basic School,government,Su-Th 10:00-16:00  Fr 10:00-13:00,9846153493,,13,60,,school,28.2733346,83.99723525
Sita Basic School,government,Su-Th 10:00-16:00  Fr 10:00-13:00,9806720977,,5,55,,school,28.27555221,84.01509289
Nirmala Basic School,government,Su-Th 10:00-16:00  Fr 10:00-13:00,9846046872,,6,73,,school,28.28114376,84.0084562
Harisiddhi Basic School,government,Su-Th 10:00-16:00  Fr 10:00-13:00,9846000028,,,,,school,28.29060658,83.97801579
Jhuprangkot Basic School,government,Su-Th 10:00-16:00  Fr 10:00-13:00,9856029075,,5,45,,school,28.29784603,83.98247037
Brabhat Basic School,government,Su-Th 10:00-16:00  Fr 10:00-13:00,9846047967,,5,153,,school,28.22824971,83.94740413
Gyatri Basic School,government,Su-Th 10:00-16:00  Fr 10:00-13:00,9846265283,,4,26,,school,28.27482917,83.97412864
Jana Jyoti Basic School,government,Su-Th 10:00-16:00  Fr 10:00-13:00,9846257382,,3,97,,school,28.16968213,83.98486416
Balbidhyashram Basic School,government,Su-Th 10:00-16:00  Fr 10:00-13:00,9846773164,,6,64,,school,28.14291187,84.0106039
Ballkalyan Basic School,government,Su-Th 10:00-16:00  Fr 10:00-13:00,98141444902,,4,119,,school,28.17436251,83.96849781
Fewa Seconday Boarding School,private,10:00-16:00,9856036297,,17,482,,school,28.2143012,83.9581541
Buds Education Foundation,private,Su-Th 10:00-16:00  Fr 10:00-13:00,,,18,578,,school,28.2137418,83.9610386
Bindheswory School,private,Su-Th 10:00-16:00  Fr 10:00-13:00,,,24,646,,school,28.2359045,83.9856705
Sakar Academy,private,Su-Th 10:00-16:00  Fr 10:00-13:00,,,,,,school,28.2008131,83.9713961
Jana Kalyan Boarding School,private,Su-Fr 10:00-16:00,9846042783,,6,100,,school,28.2457171,83.8776322
SOS Children's Village,doner,Su-Th 10:00-16:00  Fr 10:00-13:00,-459530,cv.pokhara@sosnepal.org.np,33,435,,school,28.1868009,83.9570404
Dhuwarkot Basic School,government,Su-Th 10:00-16:00  Fr 10:00-13:00,9817164137,,3,31,,school,28.1453302,83.9323208
Gupteshwor Mahadev Bed Bigyan Pathsala,government,Su-Th 10:00-16:00  Fr 10:00-13:00,9804108651,,5,20,,school,28.1893033,83.9575608
Janata Basic school,government,Su-Th 10:00-16:00  Fr 10:00-13:00,9846311951,janataprimary.armala@gmail.com,5,87,,school,28.2889448,83.9960935
Shiveshwori Basic school,government,Su-Th 10:00-16:00  Fr 10:00-13:00,9805845088,,4,97,,school,28.2994309,83.966439
Bijaya Basic School,government,Su-Th 10:00-16:00  Fr 10:00-13:00,9846067721,,6,103,,school,28.2550595,83.9068002
Sita Basic School,government,Su-Th 10:00-16:00  Fr 10:00-13:00,9856033338,,5,83,,school,28.2709151,84.0365257
Himalaya Ma V,government,Su-Th 10:00-16:00  Fr 10:00-13:00,9846054151,,15,314,,school,28.271816,84.0422078
Saraswati Birmaya Basic School,government,Su-Th 10:00-16:00  Fr 10:00-13:00,9846049015,,6,59,,school,28.2690621,84.0500913
Bhagawati Basic School,government,Su-Th 10:00-16:00  Fr 10:00-13:00,9806502738,,6,53,,school,28.1105888,84.0736196
Janak Basic School,government,Su-Th 10:00-16:00  Fr 10:00-13:00,9846120350,,1,23,,school,28.2113222,84.0915753
Annapurna Ma V,government,Su-Th 10:00-16:00  Fr 10:00-13:00,9846030227,,13,191,,school,28.2718858,84.0008909
Pokhara Academy,private,Su-Th 10:00-16:00  Fr 10:00-13:00,061-540245  061-540830,,,,,school,28.2259193,83.9872772
Sima Academy,private,Su-Th 10:00-16:00  Fr 10:00-13:00,061-460035  9856038585,,,,,school,28.1889256,83.9635398
Patnyari Basic School,government,Su-Th 10:00-16:00  Fr 10:00-15:00,9856070250,,9,339,,school,28.1489093,84.0596685
Bal Sudhar Griha,government,Su-Th 10:00-16:00  Fr 10:00-13:00,9805194404,,,,,school,28.244216,83.9563099
Karma Siddha Parampara Dhamachakra Gumba,government,Su-Th 10:00-16:00  Fr 10:00-13:00,9826186736,,3,99,,school,28.2169411,84.0069835
Nawajyoti Basic School,government,Su-Th 10:00-16:00  Fr 10:00-13:00,9815144422,,,,,school,28.1891846,84.1415513
The Dream School,private,,061-695044,,19,136,,school,28.1589863,84.0188616
Nawa Jyoti Basic School,government,Su-Th 10:00-16:00  Fr 10:00-13:00,9846244435,,6,58,,school,28.0966192,84.0428996
Chir Shanti Basic School,government,,9848369136,,4,48,,school,28.1236038,84.0088999
SOS Hermann Gmeiner Sshool,,,061-463307,,54,286,,college,28.18936671,83.97847021
Institute of Forestry,,,97761430469,,,,,college,28.18781046,83.99283326
Pokhara Lincoln International College,private,,61531964,,,,,college,28.21020603,83.97559043
Prithivi Narayan Campus,,,+977-61-526837  520142,,,,,college,28.24038352,83.99063696
Institute of Engineering Pashchimanchal Campus,,,061-440457 061-440463 061-440093 061-440465,,,1488,,college,28.25328014,83.97561974
Manipal College of Medical Sciences,,,,,,,,college,28.25123808,83.98615173
Janapriya Multiple college,community,,061-531822  061-522287  061-527723,,,,,college,28.20340917,83.97837587
PCM College,,,,,,,,college,28.22878482,83.99049598
Janapriya Multiple College(BBA Building),,09:00-17:00,,,,,,college,28.2023782,83.97899837
Gandaki College Of Engineering And Sciences,,,,,,,,college,28.25890246,83.970553
Pokhara Nursing College,,,,,,,,college,28.21427714,83.99891485
Plus 2 building,,10 am to 4 pm Sunday To Friday,,,,,,college,28.22395789,83.9940197
Kanya Campus,,,,,,,,college,28.23193013,83.9911446
LA GRANDEE Int'l College,,,,,,,,college,28.2067154,83.97618315
Vindabasini Higher Secondary School,government,,,,14,90,,college,28.26350501,83.97940326
Nepal Tourism & Hotel Management College,,,,,,,,college,28.17180334,84.02139208
Soch College of IT,private,,061-540120,,,,,college,28.2220146,83.9975963
Pokhara Engineering College,,sunrise-sunset,,,,,,college,28.21093164,83.97731651
Pokhara Engineering College,,sunrise-sunset,,,,,,college,28.21105628,83.97672028
Sagarmatha Higher Secondary School,,,,,,,,college,28.21989428,83.98920772
Shiva Shakti Campus,,,,,,,,college,28.22926412,83.99978395
Pokhara Higher Secondary School,,,,,,,,college,28.23841009,83.98845461
Gupteshwor Mahadev Multiple Campus,,09:00-17:00,,,,,,college,28.1888732,83.9578
Shree Janaprakash Bahumukhi Campus,government,,,,,,,college,28.15064167,84.06586033
Pokhara Bigyan Tatha Prabidhi Campus,,,,,,,,college,28.21809827,83.9895778
Mount Annapurna Campus,private,,061-532636,,,,,college,28.23437158,83.9958255
Novel Academy,,,,,,,,college,28.21344135,83.98398878
Nepal Tourism And Hotel Management Collage,private,06:00-15:00,061-527903  061-526458  061-431678  061-432333,,,,,college,28.22631901,83.98801623
Kalika College,,,,,,,,college,28.19286347,84.00335139
Gaurishankar Multiple Campus,government,Su-Fr 10:00-16:00,,,,,,college,28.28466462,83.93428481
Gupteshwor Mahadev Multiple Campus,government,,,gupteshwormmc@gmail.com,,,,college,28.19121911,83.96047767
Gandaki Medical Collage,private,,,,,,,college,28.17123097,84.04311797
Fab School Of Hotel Management,private,Su-Fr 10:00-16:00,,,5,40,,college,28.1874688,83.93720297
Pokhara Technical School,,,,,,,,college,28.22193883,84.00125236
Manipal Teaching Hospital,,,,,,,,college,28.23602298,83.99753817
Mount Valley Collage,,,,,,,,college,28.2383658,83.9885516
Heritage College,,,61525183,,,,,college,28.2122835,83.9788319
Cosmos International College,,,6.15223760615413E+016,,22,90,,college,28.2260661,83.9905121
InfoMax College,,,,,,,,college,28.2141475,84.0021435
Mahendra Multiple Campus,,,,,,,,college,28.2196235,83.9905129
Bhadrakali Multiple Campus,,,,,,,,college,28.2137445,84.0122044
Laxmi Adarsha College,private,,,,,,,college,28.1712576,84.0634299
Prakritik Swrot Baybasthapan College,,Su-Fr 10:00-16:00,,,,,,college,28.2917458,83.9470214
Kalika Multiple Campus,,,,,,,,college,28.2013281,83.9983776
Pokhara University,public,,,,,,,university,28.14424784,84.08479051
